{"type":"FeatureCollection","metadata":{"source":"BD TOPO zone d’habitation (lieux-dits habités)","typename":"BDTOPO_V3:zone_d_habitation","service":"https://data.geopf.fr/wfs/ows","request":"GetFeature BDTOPO_V3:zone_d_habitation BBOX 755390,6819514,761486,6826372 EPSG:2154 (emprise du terrain V1.7)","retrievedAt":"2026-09-25T13:49:37.830Z","license":"Licence Ouverte Etalab 2.0 — © IGN / BAN / Géoportail de l’urbanisme","crs":"CRS84"},"features":[{"type":"Feature","id":"zone_d_habitation.74177","geometry":{"type":"MultiPolygon","coordinates":[[[[3.74973915,48.53218488],[3.74973851,48.53213991],[3.74967079,48.53214033],[3.74967144,48.53218531],[3.74973915,48.53218488]]]]},"geometry_name":"geometrie","properties":{"cleabs":"PAIHABIT0000000009338326","nature":"Lieu-dit habité","nature_detaillee":null,"toponyme":"le Passage","statut_du_toponyme":"Validé","importance":"4","fictif":true,"etat_de_l_objet":"En service","date_creation":"2006-08-01T10:22:14.818Z","date_modification":"2018-06-15T09:17:30.635Z","date_d_apparition":null,"date_de_confirmation":null,"sources":null,"identifiants_sources":"","methode_d_acquisition_planimetrique":"Calculé","precision_planimetrique":20,"insee_commune":"10323","commune":"ROMILLY-SUR-SEINE","identifiant_voie_ban":null,"id_ban_odonyme":null}},{"type":"Feature","id":"zone_d_habitation.74213","geometry":{"type":"MultiPolygon","coordinates":[[[[3.73886742,48.49956436],[3.73915602,48.49881498],[3.7391252,48.49806847],[3.73871562,48.49743588],[3.73783329,48.49716338],[3.73510168,48.49725768],[3.73481801,48.49729992],[3.73477099,48.49742166],[3.73466264,48.49770751],[3.73467349,48.49770924],[3.73405189,48.49933332],[3.73350384,48.5007995],[3.73339819,48.50108534],[3.73114489,48.50093639],[3.7302901,48.50089307],[3.73030645,48.50070585],[3.72992475,48.50070909],[3.72990268,48.50087386],[3.72890499,48.50077563],[3.72893295,48.50064501],[3.7290633,48.5001863],[3.72917223,48.49974481],[3.72919342,48.49961334],[3.72922906,48.49925596],[3.72924122,48.49915693],[3.72929966,48.49888128],[3.72935066,48.49875232],[3.72938759,48.49868283],[3.72942323,48.49861693],[3.72960532,48.49837561],[3.72971332,48.4982571],[3.72994308,48.49803708],[3.73005088,48.49790417],[3.73015181,48.49776411],[3.73021394,48.49765757],[3.73031036,48.49748515],[3.73066131,48.49692791],[3.73074744,48.49679514],[3.7308345,48.49663177],[3.73105031,48.49628498],[3.73120351,48.49601145],[3.731401,48.4956135],[3.73145176,48.49546744],[3.73159319,48.49512651],[3.73172399,48.49480004],[3.73181297,48.49457998],[3.73191132,48.49435357],[3.73191664,48.49434634],[3.73216088,48.49371059],[3.73240747,48.49295248],[3.73244457,48.49279841],[3.7324587,48.49264718],[3.73245936,48.49250054],[3.73152759,48.4924595],[3.73160825,48.492226],[3.73169547,48.49207432],[3.73177514,48.49196407],[3.73181233,48.49191347],[3.73187214,48.49183483],[3.73197101,48.49174246],[3.73211073,48.49166783],[3.73204674,48.49164123],[3.73162125,48.49160517],[3.73159974,48.4916152],[3.73144121,48.49169984],[3.73127561,48.49176293],[3.73109345,48.49180274],[3.73079218,48.49184238],[3.73069894,48.49185375],[3.73021499,48.49228495],[3.73018515,48.49296166],[3.7304782,48.49330352],[3.73019025,48.4940088],[3.73032007,48.49448661],[3.72962345,48.49539592],[3.72896284,48.49578052],[3.72863008,48.49638082],[3.72812658,48.49628585],[3.72749568,48.49637428],[3.72677542,48.49685189],[3.72675938,48.497551],[3.72696612,48.49781783],[3.72755048,48.49808144],[3.7272038,48.49816813],[3.72605564,48.49765876],[3.72519045,48.49744634],[3.72504581,48.49755877],[3.7248426,48.49774264],[3.72442099,48.49808887],[3.72432375,48.49820282],[3.72431589,48.49831982],[3.72447581,48.49853025],[3.72454368,48.49864139],[3.72453469,48.49867653],[3.72451923,48.49873331],[3.72439499,48.49904893],[3.72433295,48.49916356],[3.72425027,48.49925403],[3.72411126,48.49928457],[3.72394373,48.49930808],[3.72391112,48.49939734],[3.72392057,48.49949354],[3.72389606,48.49958096],[3.72380086,48.49964721],[3.7236773,48.49971813],[3.72336585,48.49980819],[3.72320518,48.49983886],[3.72309507,48.4999034],[3.72295433,48.50010308],[3.72274046,48.50020244],[3.72266436,48.50027937],[3.72252841,48.50033507],[3.72239055,48.50035121],[3.72226235,48.50037987],[3.72230712,48.50048576],[3.72280248,48.50087229],[3.72381269,48.50109374],[3.72408188,48.50137368],[3.72394719,48.5016192],[3.72325471,48.50127167],[3.72261074,48.50120182],[3.72180914,48.50138392],[3.72100689,48.50132221],[3.72078097,48.5015305],[3.72062223,48.50170149],[3.72048853,48.50182375],[3.72036001,48.50192799],[3.72023414,48.50202861],[3.71984696,48.50222528],[3.72035538,48.50336562],[3.71917913,48.5034771],[3.71868414,48.50331547],[3.71860609,48.50334922],[3.71846318,48.50339237],[3.71835179,48.50346322],[3.71804357,48.50359462],[3.71756931,48.50376032],[3.71740945,48.50375229],[3.71726007,48.50371811],[3.71713533,48.50370357],[3.71699741,48.50371609],[3.71697862,48.5037279],[3.71670776,48.50391846],[3.71664245,48.50409248],[3.71658301,48.50420079],[3.71647187,48.50429053],[3.71634008,48.50435519],[3.71630967,48.50440846],[3.71623945,48.50452043],[3.71616361,48.50461805],[3.71612291,48.50471096],[3.71602385,48.50479252],[3.71587699,48.50484468],[3.71571739,48.50485554],[3.71558235,48.50488064],[3.71557155,48.50488251],[3.71548716,48.50494869],[3.71540832,48.50502473],[3.71528992,48.50507852],[3.71513202,48.50511456],[3.71486421,48.50523222],[3.7145125,48.50535219],[3.71437439,48.50535032],[3.7142221,48.50530175],[3.71406993,48.50526219],[3.71387811,48.50519317],[3.713637,48.50508396],[3.71350733,48.50500647],[3.71333117,48.5050939],[3.71284266,48.50570767],[3.71140014,48.50565604],[3.71063255,48.50585855],[3.70973395,48.5056831],[3.70913341,48.50572447],[3.70873789,48.50520865],[3.70801013,48.50495119],[3.70725169,48.50502858],[3.7071463,48.5050445],[3.70710983,48.50505011],[3.70702625,48.5050767],[3.70687766,48.50510098],[3.70669104,48.50511648],[3.70647589,48.50512406],[3.70578346,48.50517765],[3.70557371,48.50518429],[3.70537045,48.50517021],[3.70516793,48.50511113],[3.70495444,48.50504043],[3.70473158,48.50497878],[3.70453317,48.50492238],[3.70435527,48.50488115],[3.70431182,48.50487151],[3.70408134,48.50484679],[3.70385396,48.50485084],[3.70377959,48.50485757],[3.70350658,48.50489158],[3.70325251,48.50492547],[3.70263063,48.50499032],[3.70217881,48.50501638],[3.70199767,48.50503635],[3.7014608,48.5050809],[3.69983532,48.50521553],[3.69927544,48.50526021],[3.69783565,48.50541171],[3.69772068,48.50552124],[3.6977029,48.50622035],[3.69835697,48.50694521],[3.69886903,48.5071716],[3.69882356,48.50792485],[3.69941737,48.50849352],[3.70203039,48.50879747],[3.70291769,48.50863209],[3.7032886,48.50882962],[3.7053756,48.50917889],[3.70641744,48.50892801],[3.70652351,48.50926384],[3.70605529,48.50958329],[3.70587016,48.5100126],[3.70603255,48.51232006],[3.70622025,48.51268509],[3.70594975,48.51331104],[3.70521124,48.51276485],[3.70453281,48.51265912],[3.70393017,48.51275176],[3.703168,48.51336801],[3.7032093,48.51402449],[3.70362777,48.51443403],[3.70479249,48.51465294],[3.70574333,48.51427215],[3.70603885,48.51359299],[3.70672063,48.5141485],[3.70662623,48.51477969],[3.7069841,48.51521118],[3.70648892,48.51584475],[3.70654506,48.5165947],[3.70683448,48.51696992],[3.70739434,48.51721668],[3.7083747,48.5173152],[3.7092862,48.51712714],[3.70966938,48.51682438],[3.71042848,48.51708343],[3.71162683,48.51698],[3.71188114,48.51706035],[3.71186162,48.5179169],[3.712288,48.51830298],[3.71150901,48.51827705],[3.71036472,48.51857447],[3.70989356,48.51838117],[3.70883446,48.5183695],[3.7075551,48.51879455],[3.70653999,48.51842994],[3.70456135,48.5184138],[3.70375982,48.51882698],[3.70353463,48.51940316],[3.7030241,48.51940258],[3.70305196,48.51885455],[3.70273091,48.51844173],[3.70172373,48.5181607],[3.70087071,48.51766105],[3.7001834,48.51750227],[3.69923757,48.51765628],[3.69795735,48.51710514],[3.6969435,48.51703193],[3.69605557,48.51716218],[3.69505628,48.51685946],[3.69380225,48.51684969],[3.69377223,48.51652511],[3.69336605,48.51611905],[3.69148057,48.51556148],[3.68993165,48.51577829],[3.68907269,48.51636083],[3.68848819,48.51618969],[3.68757357,48.51490404],[3.6863393,48.51464129],[3.68547326,48.51478753],[3.68474911,48.51543043],[3.68509127,48.51633167],[3.68581868,48.51666213],[3.68654725,48.51739111],[3.68581086,48.51761756],[3.68515721,48.5181665],[3.68473782,48.51954532],[3.68504635,48.52025424],[3.68604882,48.52059211],[3.68674212,48.52048465],[3.6873586,48.52009605],[3.68826491,48.52012319],[3.68901315,48.51986876],[3.68986551,48.52032442],[3.69137657,48.52051266],[3.69201209,48.52033803],[3.69249741,48.52047914],[3.69252402,48.52105924],[3.69280205,48.52150023],[3.69337835,48.52176225],[3.69431025,48.5217766],[3.69463013,48.52210399],[3.69519619,48.52230759],[3.69602493,48.52230274],[3.69679892,48.52194916],[3.69697176,48.52231879],[3.69675191,48.52299748],[3.69731506,48.52359152],[3.69700293,48.52405305],[3.69731167,48.52476283],[3.69831428,48.5250997],[3.69896577,48.52500231],[3.69987863,48.52571662],[3.70084046,48.52593766],[3.70277718,48.52593792],[3.70345522,48.52580077],[3.70493482,48.52605109],[3.70537287,48.52599451],[3.70593344,48.52578428],[3.7070671,48.52458376],[3.70768689,48.52424721],[3.70859848,48.52405736],[3.70937338,48.52417509],[3.7100734,48.52406385],[3.71093947,48.52441312],[3.71159446,48.52447668],[3.71256571,48.52409302],[3.71276075,48.52329749],[3.71377571,48.52314297],[3.71411481,48.52328127],[3.71323262,48.52353936],[3.71277325,48.52411787],[3.71280838,48.52460974],[3.7130825,48.52494905],[3.71416273,48.52540856],[3.71520356,48.52545988],[3.71612446,48.52575391],[3.71655996,48.5257099],[3.71718138,48.52549564],[3.71761416,48.52485701],[3.71677263,48.52363142],[3.71718933,48.52300637],[3.71696569,48.52249764],[3.71747128,48.52282745],[3.71812201,48.52297645],[3.71923772,48.52266474],[3.72026596,48.5226909],[3.72029297,48.52317832],[3.72076782,48.52363425],[3.72011678,48.52415457],[3.72002918,48.52467957],[3.72030745,48.5251205],[3.72088393,48.52538239],[3.72346441,48.52551425],[3.72407245,48.52541249],[3.72471786,48.5250739],[3.72586359,48.52507231],[3.72682102,48.52575016],[3.72751843,48.52652586],[3.72873751,48.5267316],[3.72938525,48.527244],[3.73026936,48.52761101],[3.73090488,48.52773035],[3.73258082,48.52747894],[3.73404107,48.52672056],[3.73450847,48.52624717],[3.73446896,48.52565008],[3.73330879,48.5248143],[3.73384907,48.52442053],[3.73407722,48.52398101],[3.73354844,48.52316383],[3.733926,48.52304635],[3.73493139,48.52327674],[3.73553528,48.52317134],[3.73644316,48.52262955],[3.73659714,48.52221478],[3.73633976,48.52163072],[3.735747,48.52127275],[3.73467657,48.52123079],[3.73398063,48.52153106],[3.7329857,48.52136807],[3.73266213,48.52088967],[3.73288035,48.52061305],[3.73393414,48.52101497],[3.73562483,48.52086598],[3.73701168,48.52020067],[3.73761855,48.52050277],[3.73848161,48.5205334],[3.7391029,48.52031992],[3.739534,48.51968031],[3.73914516,48.51899453],[3.73858949,48.51876948],[3.73789704,48.51873599],[3.73700945,48.51811447],[3.73623246,48.51794206],[3.7344462,48.51831835],[3.73408404,48.51866245],[3.73399342,48.5191542],[3.73368103,48.51918491],[3.7334521,48.51898571],[3.73439204,48.51812527],[3.73487385,48.51800984],[3.73621593,48.51782521],[3.73807496,48.51790724],[3.73853935,48.5178054],[3.73906556,48.51747736],[3.73929482,48.51673825],[3.74012015,48.51601792],[3.74037583,48.51523366],[3.74078664,48.51517442],[3.74163123,48.51534098],[3.74255975,48.51521913],[3.74446573,48.51441644],[3.74493845,48.51375945],[3.74487245,48.51340272],[3.74349027,48.51227605],[3.74353925,48.51210211],[3.74417306,48.51211164],[3.74525192,48.51247373],[3.74616659,48.51223858],[3.74732361,48.51238335],[3.74769239,48.5131772],[3.74825552,48.51345253],[3.7490833,48.5134851],[3.7499455,48.51317829],[3.75032696,48.51286821],[3.75046199,48.51246343],[3.75123457,48.51214098],[3.75159165,48.51173659],[3.75223245,48.51214007],[3.75281178,48.51222186],[3.75376379,48.51194954],[3.75457708,48.51135243],[3.75469322,48.51067247],[3.75405282,48.51010887],[3.75396954,48.50893089],[3.75318109,48.50804886],[3.7538981,48.50772764],[3.75430409,48.50696218],[3.75492327,48.50690068],[3.75530649,48.50718792],[3.75631511,48.50746849],[3.75737065,48.50734121],[3.75794904,48.50773606],[3.75954766,48.50827553],[3.75938157,48.5089603],[3.75968709,48.50958269],[3.76013561,48.5098884],[3.76122832,48.50998756],[3.76160944,48.50984657],[3.76151933,48.50951519],[3.76148319,48.50926352],[3.76131053,48.50893447],[3.76126531,48.50880431],[3.76109508,48.50854901],[3.7609439,48.50830078],[3.76073869,48.50796743],[3.76048679,48.5075885],[3.7604321,48.50745841],[3.76041539,48.50733256],[3.76663361,48.50676813],[3.76685872,48.50660834],[3.76742536,48.50665776],[3.76795373,48.50538767],[3.7669821,48.50356409],[3.76420927,48.5037295],[3.76390608,48.50391947],[3.76285647,48.50398379],[3.76199649,48.50386786],[3.76199233,48.50386159],[3.7589476,48.50404391],[3.75894365,48.50386401],[3.75894548,48.50380372],[3.75891327,48.50372926],[3.75882777,48.50352739],[3.75876422,48.50343963],[3.7586526,48.50321003],[3.75861604,48.50311581],[3.75846382,48.50316806],[3.758083,48.50351415],[3.75810731,48.50435335],[3.75704334,48.50464261],[3.75607243,48.50453274],[3.75626435,48.50413479],[3.75615618,48.5035804],[3.75538576,48.50300774],[3.75437664,48.50296827],[3.75447158,48.50241619],[3.75392024,48.50154255],[3.75320167,48.50127722],[3.75233574,48.5013088],[3.75182488,48.50117888],[3.7506893,48.50128682],[3.75021007,48.50147517],[3.74984046,48.50185085],[3.7497848,48.50231362],[3.7501249,48.50328217],[3.75054956,48.5037257],[3.75120126,48.50395189],[3.7518957,48.5039484],[3.75293865,48.50360803],[3.75282548,48.50411794],[3.75301765,48.50458543],[3.75371119,48.50498946],[3.75300084,48.50511182],[3.75245901,48.50471312],[3.75165924,48.50454725],[3.75006489,48.50476604],[3.74915447,48.50462514],[3.74823552,48.50483515],[3.74805934,48.50453668],[3.74888181,48.50430209],[3.74922175,48.5039329],[3.74915064,48.50321904],[3.7485749,48.50281244],[3.74798158,48.50269113],[3.74699244,48.50291326],[3.74658586,48.50335664],[3.74634337,48.50325021],[3.74614543,48.50303914],[3.74657664,48.50232842],[3.74637978,48.50190773],[3.74583732,48.50155398],[3.74521429,48.50143644],[3.74480645,48.50102877],[3.74420287,48.50084992],[3.74436901,48.50034689],[3.74367361,48.49951549],[3.74263807,48.49932584],[3.74179855,48.49959558],[3.74140979,48.50015218],[3.74169696,48.50083591],[3.74137168,48.50157473],[3.74023011,48.50068402],[3.73914767,48.50052882],[3.73886742,48.49956436]]]]},"geometry_name":"geometrie","properties":{"cleabs":"PAIHABIT0000000009338355","nature":"Lieu-dit habité","nature_detaillee":null,"toponyme":"Romilly-sur-Seine","statut_du_toponyme":"Validé","importance":"1","fictif":false,"etat_de_l_objet":"En service","date_creation":"2006-08-01T10:22:14.818Z","date_modification":"2025-03-20T21:49:29.370Z","date_d_apparition":null,"date_de_confirmation":null,"sources":null,"identifiants_sources":null,"methode_d_acquisition_planimetrique":"Calcul d'enveloppe urbaine","precision_planimetrique":100,"insee_commune":"10323","commune":"ROMILLY-SUR-SEINE","identifiant_voie_ban":null,"id_ban_odonyme":null}},{"type":"Feature","id":"zone_d_habitation.74250","geometry":{"type":"MultiPolygon","coordinates":[[[[3.80421272,48.51285584],[3.80421203,48.51281086],[3.80414433,48.51281132],[3.80414502,48.5128563],[3.80421272,48.51285584]]]]},"geometry_name":"geometrie","properties":{"cleabs":"PAIHABIT0000000009338384","nature":"Quartier","nature_detaillee":null,"toponyme":"Poussey","statut_du_toponyme":"Validé","importance":"2","fictif":true,"etat_de_l_objet":"En service","date_creation":"2006-08-01T10:22:14.818Z","date_modification":"2025-12-05T13:33:30.611Z","date_d_apparition":null,"date_de_confirmation":null,"sources":null,"identifiants_sources":null,"methode_d_acquisition_planimetrique":"Calculé","precision_planimetrique":20,"insee_commune":"10220","commune":"MAIZIERES-LA-GRANDE-PAROISSE","identifiant_voie_ban":"10220_v4jgni","id_ban_odonyme":"f6cec0ab-7df0-4162-9764-5429fdc1671c"}},{"type":"Feature","id":"zone_d_habitation.74251","geometry":{"type":"MultiPolygon","coordinates":[[[[3.78435494,48.50146609],[3.78435426,48.50142111],[3.78428658,48.50142156],[3.78428726,48.50146653],[3.78435494,48.50146609]]]]},"geometry_name":"geometrie","properties":{"cleabs":"PAIHABIT0000000009338385","nature":"Quartier","nature_detaillee":null,"toponyme":"les Granges","statut_du_toponyme":"Validé","importance":"2","fictif":true,"etat_de_l_objet":"En service","date_creation":"2006-08-01T10:22:14.818Z","date_modification":"2025-12-05T13:33:30.611Z","date_d_apparition":null,"date_de_confirmation":null,"sources":null,"identifiants_sources":null,"methode_d_acquisition_planimetrique":"Calculé","precision_planimetrique":20,"insee_commune":"10220","commune":"MAIZIERES-LA-GRANDE-PAROISSE","identifiant_voie_ban":"10220_8v9lvn","id_ban_odonyme":"3702b689-6ee4-4c10-bb3e-dff2c18b20c2"}},{"type":"Feature","id":"zone_d_habitation.74252","geometry":{"type":"MultiPolygon","coordinates":[[[[3.79161087,48.49966817],[3.79161019,48.4996232],[3.79154251,48.49962365],[3.79154319,48.49966862],[3.79161087,48.49966817]]]]},"geometry_name":"geometrie","properties":{"cleabs":"PAIHABIT0000000009338386","nature":"Lieu-dit habité","nature_detaillee":null,"toponyme":"la Chefferie","statut_du_toponyme":"Validé","importance":"4","fictif":true,"etat_de_l_objet":"En service","date_creation":"2006-08-01T10:22:14.818Z","date_modification":"2025-12-05T13:33:30.611Z","date_d_apparition":null,"date_de_confirmation":null,"sources":null,"identifiants_sources":null,"methode_d_acquisition_planimetrique":"Calculé","precision_planimetrique":20,"insee_commune":"10220","commune":"MAIZIERES-LA-GRANDE-PAROISSE","identifiant_voie_ban":"10220_vgroe2","id_ban_odonyme":"555d1ca7-6caa-4f84-9dce-f3ae84443fb9"}},{"type":"Feature","id":"zone_d_habitation.74253","geometry":{"type":"MultiPolygon","coordinates":[[[[3.79659185,48.51327421],[3.79659117,48.51322924],[3.79652347,48.51322969],[3.79652416,48.51327467],[3.79659185,48.51327421]]]]},"geometry_name":"geometrie","properties":{"cleabs":"PAIHABIT0000000009338387","nature":"Quartier","nature_detaillee":null,"toponyme":"le Craon","statut_du_toponyme":"Validé","importance":"5","fictif":true,"etat_de_l_objet":"En service","date_creation":"2006-08-01T10:22:14.818Z","date_modification":"2019-04-18T12:28:59.430Z","date_d_apparition":null,"date_de_confirmation":null,"sources":null,"identifiants_sources":"","methode_d_acquisition_planimetrique":"Calculé","precision_planimetrique":20,"insee_commune":"10220","commune":"MAIZIERES-LA-GRANDE-PAROISSE","identifiant_voie_ban":null,"id_ban_odonyme":null}},{"type":"Feature","id":"zone_d_habitation.74254","geometry":{"type":"MultiPolygon","coordinates":[[[[3.77690687,48.49946385],[3.77710815,48.49925292],[3.77772658,48.49914812],[3.77832169,48.49929716],[3.77855245,48.49961322],[3.77893048,48.49972859],[3.77912817,48.49991442],[3.77965225,48.49983721],[3.77998295,48.49986383],[3.78041523,48.50016777],[3.78114143,48.50011801],[3.78129284,48.4999227],[3.78190545,48.49979092],[3.78238197,48.49997401],[3.78263072,48.50040599],[3.78321855,48.50015562],[3.78355877,48.5000949],[3.78392424,48.4998208],[3.78429026,48.4997653],[3.78466269,48.4998672],[3.78485423,48.50000268],[3.78508728,48.50037899],[3.7858983,48.50056975],[3.78614682,48.50080381],[3.78618137,48.50103119],[3.78600262,48.50129866],[3.78579001,48.50138373],[3.78585313,48.50153086],[3.78566048,48.50195496],[3.78527275,48.50218873],[3.78527648,48.50225708],[3.7855809,48.50233603],[3.78661706,48.50237236],[3.7869926,48.50258938],[3.78708815,48.50309344],[3.78660835,48.50350685],[3.78688237,48.50390538],[3.78754868,48.50401162],[3.78740713,48.50369049],[3.78757658,48.5033448],[3.78780571,48.50318765],[3.78825876,48.50306679],[3.78880382,48.50312255],[3.78913288,48.50339925],[3.78907994,48.50374956],[3.78884121,48.50398865],[3.78826648,48.50421108],[3.787979,48.5041797],[3.78815043,48.50450692],[3.78798267,48.50478422],[3.78814745,48.50484881],[3.78861126,48.50463251],[3.78913582,48.50467491],[3.78963333,48.50453846],[3.79054427,48.5047969],[3.79216093,48.50472046],[3.79262866,48.50494405],[3.79289355,48.50652653],[3.79390862,48.50668349],[3.79419123,48.506929],[3.79413848,48.50746913],[3.79397618,48.50765914],[3.79404525,48.50810759],[3.79489232,48.50834483],[3.79510505,48.50871315],[3.79556094,48.50913473],[3.79630727,48.50942301],[3.79649312,48.50980321],[3.79617478,48.5101499],[3.79582139,48.51023863],[3.79546712,48.51017983],[3.79497953,48.51034772],[3.79443878,48.51022359],[3.79340111,48.51045633],[3.79305053,48.51037321],[3.79277174,48.51020234],[3.79259112,48.51061467],[3.79212077,48.51075905],[3.79258959,48.51087198],[3.79287551,48.51124522],[3.79378111,48.51150006],[3.7939661,48.51173453],[3.79433506,48.51186881],[3.79486292,48.51185538],[3.79520295,48.51195656],[3.79545414,48.51227065],[3.79541899,48.51245261],[3.79554978,48.51268474],[3.79597246,48.51260994],[3.79629182,48.51268697],[3.79652393,48.51254597],[3.79705392,48.51249474],[3.79770538,48.51223937],[3.79812219,48.51222488],[3.79847499,48.51200749],[3.79884783,48.51195101],[3.79950483,48.51205995],[3.79989633,48.51198354],[3.80068424,48.51215366],[3.80108041,48.51202864],[3.80142146,48.51201825],[3.80187974,48.5121474],[3.80210267,48.5123816],[3.80247357,48.5123755],[3.80286218,48.51246464],[3.80316761,48.51233842],[3.80347204,48.51232377],[3.80359653,48.51178855],[3.80413869,48.51155997],[3.80383192,48.51044921],[3.80387355,48.51025011],[3.80420785,48.50997706],[3.80494266,48.50986323],[3.80549321,48.51000703],[3.8059596,48.5106651],[3.80688416,48.51100429],[3.80744027,48.51089165],[3.80787498,48.51098496],[3.80844044,48.51095233],[3.80874001,48.51106274],[3.80909969,48.51138236],[3.80923831,48.51124017],[3.80969114,48.51110394],[3.81003853,48.51115376],[3.81092854,48.51109461],[3.81133314,48.51125468],[3.81152379,48.51149988],[3.81153786,48.51170939],[3.81199788,48.51151283],[3.81275372,48.51153285],[3.81316762,48.51185479],[3.81320297,48.5122135],[3.81308573,48.51242482],[3.812789,48.51258608],[3.81244064,48.51264964],[3.81197837,48.51296407],[3.81109557,48.51314103],[3.81057698,48.5130537],[3.81028349,48.5128119],[3.80983487,48.51260805],[3.80962966,48.51291082],[3.80917325,48.51307946],[3.80880025,48.51303792],[3.80842385,48.51312684],[3.8078428,48.51294007],[3.80780774,48.51312564],[3.80735152,48.51339503],[3.80654252,48.51335374],[3.80609842,48.51344312],[3.80542128,48.51334695],[3.80512697,48.51322749],[3.80478579,48.51331797],[3.80441598,48.51330788],[3.80442193,48.51351925],[3.80411106,48.51382093],[3.80375085,48.51390703],[3.80351756,48.51388162],[3.80323676,48.51402476],[3.80273293,48.51410553],[3.80215153,48.51398351],[3.80190788,48.51443137],[3.80157302,48.51458207],[3.80124303,48.51460858],[3.80077738,48.51444079],[3.80060103,48.51459762],[3.79998844,48.51482755],[3.79978271,48.51518878],[3.79956163,48.51534231],[3.79918379,48.51542851],[3.79874633,48.5153334],[3.79851466,48.51550318],[3.79794694,48.51556907],[3.79715601,48.51582717],[3.79679779,48.51613545],[3.79625512,48.51624614],[3.7958598,48.51642961],[3.79553625,48.51643538],[3.79513213,48.51630674],[3.79484627,48.5159398],[3.79479695,48.51563426],[3.79451581,48.51566763],[3.79396529,48.51552826],[3.79421597,48.51580817],[3.79434853,48.51615634],[3.79480794,48.51627022],[3.79508055,48.51647711],[3.79514365,48.51679875],[3.79498593,48.51702472],[3.79454278,48.51718062],[3.79313182,48.51709378],[3.79278208,48.51680014],[3.79254693,48.51629342],[3.7924218,48.51562943],[3.79214017,48.51545138],[3.79178221,48.5141637],[3.7919399,48.51384598],[3.79225863,48.51370172],[3.79243422,48.51349363],[3.79280629,48.51338499],[3.79286463,48.51330274],[3.79218172,48.51336127],[3.79167765,48.51315681],[3.79149619,48.5129763],[3.79140069,48.5125694],[3.79108582,48.51243116],[3.79068111,48.51199123],[3.79053426,48.51212985],[3.79019473,48.51224097],[3.78972028,48.51220454],[3.78923617,48.5123364],[3.78859406,48.51231547],[3.78852667,48.51251654],[3.78831361,48.51266459],[3.78786326,48.51279083],[3.78746227,48.51277729],[3.78741056,48.51294047],[3.78701316,48.51325707],[3.78647034,48.51335692],[3.78527499,48.51337472],[3.78397598,48.51325105],[3.78364192,48.51309582],[3.78349687,48.5128125],[3.78302148,48.51262221],[3.78287387,48.5123488],[3.78289431,48.51217593],[3.78262736,48.51225236],[3.78229273,48.51223927],[3.78187552,48.5120459],[3.78155425,48.51202102],[3.78116752,48.51178246],[3.7811001,48.51134659],[3.78142165,48.5110269],[3.7826889,48.51084134],[3.78364595,48.51109952],[3.78384553,48.51095426],[3.78386672,48.51056009],[3.78402708,48.51032783],[3.78479592,48.51004297],[3.78455979,48.50973505],[3.78466663,48.50945546],[3.7842031,48.50924171],[3.78392483,48.50864979],[3.78407865,48.50807121],[3.78402284,48.50759838],[3.78416503,48.50741931],[3.78420439,48.50697284],[3.78435034,48.50668309],[3.78409823,48.5065732],[3.78395351,48.50631056],[3.78357471,48.50632925],[3.78319506,48.50620041],[3.78301743,48.5059101],[3.7830455,48.5057039],[3.78324676,48.50549206],[3.78378487,48.50535357],[3.78393352,48.50524463],[3.78334826,48.50539873],[3.78303257,48.50556364],[3.7824816,48.50565724],[3.78212791,48.50563437],[3.78163598,48.5054199],[3.78135941,48.50557556],[3.78083586,48.50560149],[3.78057494,48.50580832],[3.78003322,48.50588655],[3.77880157,48.50563643],[3.77823,48.50525423],[3.77813147,48.50500028],[3.77819438,48.50486043],[3.77789655,48.50476972],[3.77766369,48.50449595],[3.77716756,48.50426979],[3.7770403,48.50381271],[3.77648458,48.50395039],[3.77593363,48.50377046],[3.77573981,48.50329672],[3.77586274,48.50300444],[3.77549973,48.50308238],[3.77494269,48.50294747],[3.7746527,48.50301953],[3.77414977,48.50297333],[3.77365237,48.50302695],[3.77355653,48.50341262],[3.77334674,48.50359931],[3.77244437,48.50382469],[3.77214885,48.50379782],[3.77186652,48.50365481],[3.77163655,48.50329825],[3.771453,48.50352075],[3.77105945,48.50364026],[3.77073573,48.50362887],[3.77038027,48.50348453],[3.77022044,48.50310952],[3.77046502,48.50280206],[3.77068197,48.50273408],[3.77051551,48.5026452],[3.77037758,48.5023789],[3.77054045,48.50203868],[3.77025923,48.50169415],[3.77029154,48.50149782],[3.77049149,48.50128601],[3.77086361,48.50118373],[3.77115616,48.50119353],[3.77149232,48.5013155],[3.77167352,48.50157791],[3.77220443,48.50159516],[3.77250569,48.50118477],[3.77283407,48.50105398],[3.77312207,48.50103052],[3.77365948,48.50112148],[3.77390353,48.50123954],[3.77405981,48.50109638],[3.77443549,48.50096079],[3.77508707,48.50099073],[3.77529647,48.50077884],[3.77582023,48.50067827],[3.77580103,48.50047867],[3.77592569,48.50030333],[3.77634118,48.50011439],[3.77655403,48.49967848],[3.77690687,48.49946385]]]]},"geometry_name":"geometrie","properties":{"cleabs":"PAIHABIT0000000009338389","nature":"Lieu-dit habité","nature_detaillee":null,"toponyme":"Maizières-la-Grande-Paroisse","statut_du_toponyme":"Validé","importance":"1","fictif":false,"etat_de_l_objet":"En service","date_creation":"2006-08-01T10:22:14.818Z","date_modification":"2025-10-07T07:01:09.058Z","date_d_apparition":null,"date_de_confirmation":null,"sources":null,"identifiants_sources":null,"methode_d_acquisition_planimetrique":"Calcul d'enveloppe urbaine","precision_planimetrique":100,"insee_commune":"10220","commune":"MAIZIERES-LA-GRANDE-PAROISSE","identifiant_voie_ban":null,"id_ban_odonyme":null}},{"type":"Feature","id":"zone_d_habitation.74285","geometry":{"type":"MultiPolygon","coordinates":[[[[3.80503033,48.48610494],[3.80502964,48.48605997],[3.80496198,48.48606042],[3.80496267,48.4861054],[3.80503033,48.48610494]]]]},"geometry_name":"geometrie","properties":{"cleabs":"PAIHABIT0000000009338424","nature":"Lieu-dit habité","nature_detaillee":null,"toponyme":"les Charmes","statut_du_toponyme":"Validé","importance":"3","fictif":true,"etat_de_l_objet":"En service","date_creation":"2006-08-01T10:22:14.818Z","date_modification":"2022-06-17T08:50:55.511Z","date_d_apparition":null,"date_de_confirmation":null,"sources":null,"identifiants_sources":"","methode_d_acquisition_planimetrique":"Calculé","precision_planimetrique":20,"insee_commune":"10220","commune":"MAIZIERES-LA-GRANDE-PAROISSE","identifiant_voie_ban":null,"id_ban_odonyme":null}},{"type":"Feature","id":"zone_d_habitation.583621","geometry":{"type":"MultiPolygon","coordinates":[[[[3.83662978,48.52887284],[3.83637446,48.5291089],[3.83637008,48.52946055],[3.83471906,48.52974223],[3.83438162,48.52987464],[3.83416457,48.5300695],[3.83367322,48.53017163],[3.83325683,48.53057178],[3.83269036,48.53071097],[3.83227182,48.53138511],[3.83230976,48.5315387],[3.83175535,48.53166349],[3.83154196,48.53198639],[3.83128721,48.531903],[3.83092774,48.5318966],[3.83065477,48.53171599],[3.83010103,48.53162357],[3.82964317,48.53179266],[3.82948979,48.53207862],[3.82877664,48.53228624],[3.82857205,48.53249115],[3.82856749,48.53274534],[3.82834258,48.53266306],[3.82786865,48.53265843],[3.82737246,48.53283999],[3.8271254,48.53314702],[3.82610585,48.53294477],[3.82512719,48.53307471],[3.82490959,48.53322228],[3.82478682,48.53347327],[3.82491377,48.53391781],[3.82445367,48.53406829],[3.82430343,48.53424943],[3.8233998,48.53414912],[3.82305068,48.53423731],[3.82276,48.53450947],[3.82279881,48.53482784],[3.82248686,48.53485164],[3.82221234,48.53496733],[3.82198508,48.53526976],[3.82166569,48.53521906],[3.82103841,48.53542461],[3.82083851,48.53560112],[3.82082551,48.53592598],[3.82046065,48.5359142],[3.81972976,48.53604636],[3.81919382,48.53625946],[3.81889576,48.53624876],[3.81852464,48.53635147],[3.81811399,48.53670925],[3.81804872,48.5369446],[3.81833288,48.53747359],[3.81875412,48.53765963],[3.8204422,48.53748574],[3.82050128,48.53771253],[3.82020629,48.53763696],[3.8197971,48.53766585],[3.8191283,48.53788487],[3.8188438,48.53806313],[3.81872976,48.53849309],[3.81906628,48.53904175],[3.81941658,48.5392181],[3.8199988,48.53918897],[3.82067939,48.5389611],[3.82094126,48.53877317],[3.82102797,48.53848323],[3.82092065,48.53820332],[3.82147509,48.53828777],[3.82212371,48.53809404],[3.82260387,48.53813874],[3.82322362,48.53790448],[3.82337373,48.5376946],[3.82403068,48.53868971],[3.82449286,48.53893317],[3.82510709,48.53887944],[3.82551208,48.53899881],[3.82581355,48.53897827],[3.82613945,48.53884839],[3.82650175,48.53830932],[3.82684861,48.53842746],[3.82707807,48.53885674],[3.8275774,48.53908645],[3.82788979,48.53916582],[3.82826485,48.53912025],[3.82880249,48.53877993],[3.82915741,48.53866008],[3.82930859,48.53849497],[3.82968743,48.53838736],[3.82990942,48.53805429],[3.82976312,48.53760617],[3.8294802,48.5373976],[3.82936667,48.53703316],[3.82882186,48.53629859],[3.82965984,48.53615833],[3.83018863,48.53596046],[3.83025251,48.53624196],[3.83065339,48.53660716],[3.83124622,48.53667467],[3.83163561,48.53652784],[3.83220896,48.53669167],[3.83303307,48.53647197],[3.83326485,48.53609377],[3.83310151,48.53581376],[3.83343824,48.53587458],[3.83393066,48.53585114],[3.83426834,48.53571261],[3.83437289,48.53557476],[3.83488508,48.53547904],[3.8351518,48.53527779],[3.83526406,48.53501504],[3.83550761,48.53486787],[3.83562231,48.53458579],[3.83578952,48.5344886],[3.83591212,48.53407948],[3.83642632,48.53379608],[3.83746307,48.53355158],[3.83765235,48.53330836],[3.83784092,48.53272871],[3.83814505,48.53266167],[3.83853246,48.5324532],[3.8388811,48.53214686],[3.83945406,48.53205534],[3.83976131,48.5318175],[3.83987475,48.53153598],[3.83981103,48.53139252],[3.84009169,48.53100798],[3.84000111,48.53081465],[3.84031929,48.53089515],[3.84073993,48.53081465],[3.84096929,48.53067098],[3.84109493,48.53043288],[3.84088834,48.53006915],[3.84059256,48.52995919],[3.84039448,48.52957052],[3.84002907,48.52944395],[3.8393527,48.52860518],[3.83909656,48.52845263],[3.83853515,48.52840613],[3.83769132,48.52870991],[3.83707393,48.52867567],[3.83662978,48.52887284]]]]},"geometry_name":"geometrie","properties":{"cleabs":"PAIHABIT0000000065147088","nature":"Lieu-dit habité","nature_detaillee":null,"toponyme":"Clesles","statut_du_toponyme":"Validé","importance":"2","fictif":false,"etat_de_l_objet":"En service","date_creation":"2007-03-07T12:15:41.776Z","date_modification":"2022-02-11T07:11:21.788Z","date_d_apparition":null,"date_de_confirmation":null,"sources":null,"identifiants_sources":"","methode_d_acquisition_planimetrique":"Calcul d'enveloppe urbaine","precision_planimetrique":100,"insee_commune":"51155","commune":"CLESLES","identifiant_voie_ban":null,"id_ban_odonyme":null}},{"type":"Feature","id":"zone_d_habitation.583625","geometry":{"type":"MultiPolygon","coordinates":[[[[3.8172854,48.52769054],[3.8172847,48.52764557],[3.81721699,48.52764603],[3.81721769,48.52769101],[3.8172854,48.52769054]]]]},"geometry_name":"geometrie","properties":{"cleabs":"PAIHABIT0000000065147093","nature":"Lieu-dit habité","nature_detaillee":null,"toponyme":"le Moulin","statut_du_toponyme":"Validé","importance":"4","fictif":true,"etat_de_l_objet":"En service","date_creation":"2007-03-07T12:15:41.776Z","date_modification":"2018-06-15T09:17:30.635Z","date_d_apparition":null,"date_de_confirmation":null,"sources":null,"identifiants_sources":null,"methode_d_acquisition_planimetrique":"Calculé","precision_planimetrique":20,"insee_commune":"51155","commune":"CLESLES","identifiant_voie_ban":null,"id_ban_odonyme":null}},{"type":"Feature","id":"zone_d_habitation.733196","geometry":{"type":"MultiPolygon","coordinates":[[[[3.75624593,48.50614467],[3.75624528,48.5060997],[3.7561776,48.50610013],[3.75617825,48.50614511],[3.75624593,48.50614467]]]]},"geometry_name":"geometrie","properties":{"cleabs":"PAIHABIT0000000099203627","nature":"Lieu-dit habité","nature_detaillee":null,"toponyme":"Camp Belle Idee","statut_du_toponyme":"Collecté","importance":"6","fictif":true,"etat_de_l_objet":"En service","date_creation":"2007-10-10T12:44:19.648Z","date_modification":"2025-12-05T21:15:03.267Z","date_d_apparition":null,"date_de_confirmation":null,"sources":null,"identifiants_sources":null,"methode_d_acquisition_planimetrique":"Calculé","precision_planimetrique":20,"insee_commune":"10323","commune":"ROMILLY-SUR-SEINE","identifiant_voie_ban":"10323_A010","id_ban_odonyme":"8170ed4e-b9d8-4d7a-8dc1-5fb4bbea9f44"}},{"type":"Feature","id":"zone_d_habitation.733556","geometry":{"type":"MultiPolygon","coordinates":[[[[3.77854709,48.50454415],[3.77854642,48.50449917],[3.77847874,48.50449961],[3.77847941,48.50454459],[3.77854709,48.50454415]]]]},"geometry_name":"geometrie","properties":{"cleabs":"PAIHABIT0000000099287653","nature":"Lieu-dit habité","nature_detaillee":null,"toponyme":"le Bois des Granges","statut_du_toponyme":"Collecté","importance":"6","fictif":true,"etat_de_l_objet":"En service","date_creation":"2007-10-10T15:05:43.951Z","date_modification":"2018-05-23T07:47:01.909Z","date_d_apparition":null,"date_de_confirmation":null,"sources":null,"identifiants_sources":"","methode_d_acquisition_planimetrique":"Calculé","precision_planimetrique":20,"insee_commune":"10220","commune":"MAIZIERES-LA-GRANDE-PAROISSE","identifiant_voie_ban":null,"id_ban_odonyme":null}},{"type":"Feature","id":"zone_d_habitation.733557","geometry":{"type":"MultiPolygon","coordinates":[[[[3.78800392,48.50737143],[3.78800325,48.50732645],[3.78793556,48.5073269],[3.78793623,48.50737187],[3.78800392,48.50737143]]]]},"geometry_name":"geometrie","properties":{"cleabs":"PAIHABIT0000000099287654","nature":"Lieu-dit habité","nature_detaillee":null,"toponyme":"le Bout des Ruelles","statut_du_toponyme":"Collecté","importance":"6","fictif":true,"etat_de_l_objet":"En service","date_creation":"2007-10-10T15:05:43.951Z","date_modification":"2023-05-31T22:32:32.358Z","date_d_apparition":null,"date_de_confirmation":null,"sources":null,"identifiants_sources":"","methode_d_acquisition_planimetrique":"Calculé","precision_planimetrique":20,"insee_commune":"10220","commune":"MAIZIERES-LA-GRANDE-PAROISSE","identifiant_voie_ban":"","id_ban_odonyme":null}},{"type":"Feature","id":"zone_d_habitation.733558","geometry":{"type":"MultiPolygon","coordinates":[[[[3.78790521,48.5117074],[3.78790454,48.51166242],[3.78783685,48.51166287],[3.78783752,48.51170784],[3.78790521,48.5117074]]]]},"geometry_name":"geometrie","properties":{"cleabs":"PAIHABIT0000000099287655","nature":"Lieu-dit habité","nature_detaillee":null,"toponyme":"la Noue Boulate Sud","statut_du_toponyme":"Collecté","importance":"6","fictif":true,"etat_de_l_objet":"En service","date_creation":"2007-10-10T15:05:43.951Z","date_modification":"2025-12-05T21:15:03.267Z","date_d_apparition":null,"date_de_confirmation":null,"sources":null,"identifiants_sources":null,"methode_d_acquisition_planimetrique":"Calculé","precision_planimetrique":20,"insee_commune":"10220","commune":"MAIZIERES-LA-GRANDE-PAROISSE","identifiant_voie_ban":"10220_b059","id_ban_odonyme":"a6347f9a-4e2b-4aff-9718-1ebeb5214de0"}},{"type":"Feature","id":"zone_d_habitation.733559","geometry":{"type":"MultiPolygon","coordinates":[[[[3.78437157,48.51127286],[3.7843709,48.51122788],[3.7843032,48.51122833],[3.78430388,48.51127331],[3.78437157,48.51127286]]]]},"geometry_name":"geometrie","properties":{"cleabs":"PAIHABIT0000000099287656","nature":"Lieu-dit habité","nature_detaillee":null,"toponyme":"les Praillons","statut_du_toponyme":"Collecté","importance":"6","fictif":true,"etat_de_l_objet":"En service","date_creation":"2007-10-10T15:05:43.951Z","date_modification":"2025-12-05T21:15:03.267Z","date_d_apparition":null,"date_de_confirmation":null,"sources":null,"identifiants_sources":null,"methode_d_acquisition_planimetrique":"Calculé","precision_planimetrique":20,"insee_commune":"10220","commune":"MAIZIERES-LA-GRANDE-PAROISSE","identifiant_voie_ban":"10220_tc6w36","id_ban_odonyme":"a39caaeb-f7da-4f5f-99b3-1afe4a615a50"}},{"type":"Feature","id":"zone_d_habitation.733560","geometry":{"type":"MultiPolygon","coordinates":[[[[3.78905975,48.50024652],[3.78905908,48.50020154],[3.7889914,48.50020199],[3.78899207,48.50024697],[3.78905975,48.50024652]]]]},"geometry_name":"geometrie","properties":{"cleabs":"PAIHABIT0000000099287657","nature":"Lieu-dit habité","nature_detaillee":null,"toponyme":"les Terres Boyaux","statut_du_toponyme":"Collecté","importance":"6","fictif":true,"etat_de_l_objet":"En service","date_creation":"2007-10-10T15:05:43.951Z","date_modification":"2025-12-05T21:15:03.267Z","date_d_apparition":null,"date_de_confirmation":null,"sources":null,"identifiants_sources":null,"methode_d_acquisition_planimetrique":"Calculé","precision_planimetrique":20,"insee_commune":"10220","commune":"MAIZIERES-LA-GRANDE-PAROISSE","identifiant_voie_ban":"10220_b089","id_ban_odonyme":"95e71fdb-27ec-4920-94f5-ec082a972289"}},{"type":"Feature","id":"zone_d_habitation.733561","geometry":{"type":"MultiPolygon","coordinates":[[[[3.76376016,48.5058924],[3.7637595,48.50584742],[3.76369182,48.50584786],[3.76369247,48.50589283],[3.76376016,48.5058924]]]]},"geometry_name":"geometrie","properties":{"cleabs":"PAIHABIT0000000099287658","nature":"Lieu-dit habité","nature_detaillee":null,"toponyme":"la Belle Idée","statut_du_toponyme":"Collecté","importance":"6","fictif":true,"etat_de_l_objet":"En service","date_creation":"2007-10-10T15:05:43.951Z","date_modification":"2018-05-23T07:47:01.909Z","date_d_apparition":null,"date_de_confirmation":null,"sources":null,"identifiants_sources":"","methode_d_acquisition_planimetrique":"Calculé","precision_planimetrique":20,"insee_commune":"10323","commune":"ROMILLY-SUR-SEINE","identifiant_voie_ban":null,"id_ban_odonyme":null}},{"type":"Feature","id":"zone_d_habitation.733570","geometry":{"type":"MultiPolygon","coordinates":[[[[3.80349997,48.51211397],[3.80349928,48.51206899],[3.80343159,48.51206945],[3.80343228,48.51211443],[3.80349997,48.51211397]]]]},"geometry_name":"geometrie","properties":{"cleabs":"PAIHABIT0000000099293776","nature":"Lieu-dit habité","nature_detaillee":null,"toponyme":"Pres de Poussey","statut_du_toponyme":"Collecté","importance":"6","fictif":true,"etat_de_l_objet":"En service","date_creation":"2007-10-10T15:12:06.435Z","date_modification":"2025-12-05T21:15:03.267Z","date_d_apparition":null,"date_de_confirmation":null,"sources":null,"identifiants_sources":null,"methode_d_acquisition_planimetrique":"Calculé","precision_planimetrique":20,"insee_commune":"10220","commune":"MAIZIERES-LA-GRANDE-PAROISSE","identifiant_voie_ban":"10220_b078","id_ban_odonyme":"e6ef0fc3-a5dc-4fe4-bf89-e53f2f5623a0"}},{"type":"Feature","id":"zone_d_habitation.841880","geometry":{"type":"MultiPolygon","coordinates":[[[[3.7960474,48.53343207],[3.79604671,48.53338709],[3.79597899,48.53338754],[3.79597967,48.53343252],[3.7960474,48.53343207]]]]},"geometry_name":"geometrie","properties":{"cleabs":"PAIHABIT0000000114095312","nature":"Lieu-dit habité","nature_detaillee":null,"toponyme":"le Champ Drion","statut_du_toponyme":"Collecté","importance":"6","fictif":true,"etat_de_l_objet":"En service","date_creation":"2008-02-01T12:43:35.810Z","date_modification":"2018-09-14T09:18:17.525Z","date_d_apparition":null,"date_de_confirmation":null,"sources":null,"identifiants_sources":"","methode_d_acquisition_planimetrique":"Calculé","precision_planimetrique":20,"insee_commune":"51155","commune":"CLESLES","identifiant_voie_ban":null,"id_ban_odonyme":null}},{"type":"Feature","id":"zone_d_habitation.841963","geometry":{"type":"MultiPolygon","coordinates":[[[[3.81324076,48.52574451],[3.81324006,48.52569954],[3.81317235,48.5257],[3.81317305,48.52574498],[3.81324076,48.52574451]]]]},"geometry_name":"geometrie","properties":{"cleabs":"PAIHABIT0000000114112959","nature":"Lieu-dit habité","nature_detaillee":null,"toponyme":"la Noue Pourrie","statut_du_toponyme":"Collecté","importance":"6","fictif":true,"etat_de_l_objet":"En service","date_creation":"2008-02-01T13:13:55.636Z","date_modification":"2018-09-14T09:18:17.525Z","date_d_apparition":null,"date_de_confirmation":null,"sources":null,"identifiants_sources":"","methode_d_acquisition_planimetrique":"Calculé","precision_planimetrique":20,"insee_commune":"51155","commune":"CLESLES","identifiant_voie_ban":null,"id_ban_odonyme":null}},{"type":"Feature","id":"zone_d_habitation.841964","geometry":{"type":"MultiPolygon","coordinates":[[[[3.82682091,48.53347573],[3.8268202,48.53343075],[3.82675248,48.53343122],[3.82675319,48.5334762],[3.82682091,48.53347573]]]]},"geometry_name":"geometrie","properties":{"cleabs":"PAIHABIT0000000114112967","nature":"Lieu-dit habité","nature_detaillee":null,"toponyme":"les Graviers","statut_du_toponyme":"Collecté","importance":"6","fictif":true,"etat_de_l_objet":"En service","date_creation":"2008-02-01T13:14:10.665Z","date_modification":"2018-09-14T09:18:17.525Z","date_d_apparition":null,"date_de_confirmation":null,"sources":null,"identifiants_sources":"","methode_d_acquisition_planimetrique":"Calculé","precision_planimetrique":20,"insee_commune":"51155","commune":"CLESLES","identifiant_voie_ban":null,"id_ban_odonyme":null}},{"type":"Feature","id":"zone_d_habitation.1059637","geometry":{"type":"MultiPolygon","coordinates":[[[[3.76348782,48.50290018],[3.76348716,48.5028552],[3.76341948,48.50285564],[3.76342013,48.50290061],[3.76348782,48.50290018]]]]},"geometry_name":"geometrie","properties":{"cleabs":"PAIHABIT0000000350300712","nature":"Lieu-dit habité","nature_detaillee":null,"toponyme":"la Belle Idee","statut_du_toponyme":"Collecté","importance":"6","fictif":true,"etat_de_l_objet":"En service","date_creation":"2015-05-18T10:03:31.001Z","date_modification":"2025-12-05T21:15:03.267Z","date_d_apparition":null,"date_de_confirmation":null,"sources":null,"identifiants_sources":null,"methode_d_acquisition_planimetrique":"Calculé","precision_planimetrique":20,"insee_commune":"10220","commune":"MAIZIERES-LA-GRANDE-PAROISSE","identifiant_voie_ban":"10220_B004","id_ban_odonyme":"2e539000-cd88-46d6-be07-d0d146e42f3a"}}]}