{"type":"FeatureCollection","metadata":{"source":"BD TOPO lieu-dit non habité","typename":"BDTOPO_V3:lieu_dit_non_habite","service":"https://data.geopf.fr/wfs/ows","request":"GetFeature BDTOPO_V3:lieu_dit_non_habite BBOX 755390,6819514,761486,6826372 EPSG:2154 (emprise du terrain V1.7)","retrievedAt":"2026-09-25T13:49:37.164Z","license":"Licence Ouverte Etalab 2.0 — © IGN / BAN / Géoportail de l’urbanisme","crs":"CRS84"},"features":[{"type":"Feature","id":"lieu_dit_non_habite.58460","geometry":{"type":"Point","coordinates":[3.75746908,48.5309457]},"geometry_name":"geometrie","properties":{"cleabs":"PAIE_NAT0000000009296251","nature":"Lieu-dit non habité","toponyme":"l'outre Seine","statut_du_toponyme":"Validé","importance":"5","date_creation":"2006-08-01T10:22:14.818Z","date_modification":"2025-12-05T11:36:43.898Z","date_d_apparition":null,"date_de_confirmation":null,"sources":null,"identifiants_sources":null,"methode_d_acquisition_planimetrique":"BDNyme","precision_planimetrique":30,"insee_commune":"10323","identifiant_voie_ban":"10323_B045","id_ban_odonyme":"fafa8dcc-727d-4706-8c41-9310612feaf7"}},{"type":"Feature","id":"lieu_dit_non_habite.58638","geometry":{"type":"Point","coordinates":[3.80930004,48.51594392]},"geometry_name":"geometrie","properties":{"cleabs":"PAIE_NAT0000000009296431","nature":"Lieu-dit non habité","toponyme":"Jonchery","statut_du_toponyme":"Validé","importance":"5","date_creation":"2006-08-01T10:22:14.818Z","date_modification":"2018-06-15T08:43:07.189Z","date_d_apparition":null,"date_de_confirmation":null,"sources":null,"identifiants_sources":null,"methode_d_acquisition_planimetrique":"BDNyme","precision_planimetrique":30,"insee_commune":"10220","identifiant_voie_ban":null,"id_ban_odonyme":null}},{"type":"Feature","id":"lieu_dit_non_habite.58639","geometry":{"type":"Point","coordinates":[3.80669728,48.52156897]},"geometry_name":"geometrie","properties":{"cleabs":"PAIE_NAT0000000009296432","nature":"Lieu-dit non habité","toponyme":"la Fondrière","statut_du_toponyme":"Validé","importance":"5","date_creation":"2006-08-01T10:22:14.818Z","date_modification":"2018-06-15T08:43:07.189Z","date_d_apparition":null,"date_de_confirmation":null,"sources":null,"identifiants_sources":null,"methode_d_acquisition_planimetrique":"BDNyme","precision_planimetrique":30,"insee_commune":"10220","identifiant_voie_ban":null,"id_ban_odonyme":null}},{"type":"Feature","id":"lieu_dit_non_habite.58640","geometry":{"type":"Point","coordinates":[3.83176121,48.51487122]},"geometry_name":"geometrie","properties":{"cleabs":"PAIE_NAT0000000009296433","nature":"Lieu-dit non habité","toponyme":"les Lots","statut_du_toponyme":"Validé","importance":"5","date_creation":"2006-08-01T10:22:14.818Z","date_modification":"2018-06-15T08:43:07.189Z","date_d_apparition":null,"date_de_confirmation":null,"sources":null,"identifiants_sources":null,"methode_d_acquisition_planimetrique":"BDNyme","precision_planimetrique":30,"insee_commune":"10089","identifiant_voie_ban":null,"id_ban_odonyme":null}},{"type":"Feature","id":"lieu_dit_non_habite.58641","geometry":{"type":"Point","coordinates":[3.78363391,48.52108004]},"geometry_name":"geometrie","properties":{"cleabs":"PAIE_NAT0000000009296434","nature":"Bois","toponyme":"les Grandes Pâtures","statut_du_toponyme":"Validé","importance":"5","date_creation":"2006-08-01T10:22:14.818Z","date_modification":"2018-06-15T08:43:07.189Z","date_d_apparition":null,"date_de_confirmation":null,"sources":null,"identifiants_sources":null,"methode_d_acquisition_planimetrique":"BDNyme","precision_planimetrique":30,"insee_commune":"10220","identifiant_voie_ban":null,"id_ban_odonyme":null}},{"type":"Feature","id":"lieu_dit_non_habite.58642","geometry":{"type":"Point","coordinates":[3.79894841,48.52424551]},"geometry_name":"geometrie","properties":{"cleabs":"PAIE_NAT0000000009296435","nature":"Bois","toponyme":"les Dublées","statut_du_toponyme":"Validé","importance":"5","date_creation":"2006-08-01T10:22:14.818Z","date_modification":"2018-06-15T08:43:07.189Z","date_d_apparition":null,"date_de_confirmation":null,"sources":null,"identifiants_sources":null,"methode_d_acquisition_planimetrique":"BDNyme","precision_planimetrique":30,"insee_commune":"10220","identifiant_voie_ban":null,"id_ban_odonyme":null}},{"type":"Feature","id":"lieu_dit_non_habite.58643","geometry":{"type":"Point","coordinates":[3.77938489,48.52749796]},"geometry_name":"geometrie","properties":{"cleabs":"PAIE_NAT0000000009296436","nature":"Lieu-dit non habité","toponyme":"Pré Cossa","statut_du_toponyme":"Validé","importance":"5","date_creation":"2006-08-01T10:22:14.818Z","date_modification":"2018-06-15T08:43:07.189Z","date_d_apparition":null,"date_de_confirmation":null,"sources":null,"identifiants_sources":null,"methode_d_acquisition_planimetrique":"BDNyme","precision_planimetrique":30,"insee_commune":"10220","identifiant_voie_ban":null,"id_ban_odonyme":null}},{"type":"Feature","id":"lieu_dit_non_habite.58644","geometry":{"type":"Point","coordinates":[3.79043596,48.5271731]},"geometry_name":"geometrie","properties":{"cleabs":"PAIE_NAT0000000009296437","nature":"Lieu-dit non habité","toponyme":"le Beau Mont","statut_du_toponyme":"Validé","importance":"5","date_creation":"2006-08-01T10:22:14.818Z","date_modification":"2018-06-15T08:43:07.189Z","date_d_apparition":null,"date_de_confirmation":null,"sources":null,"identifiants_sources":null,"methode_d_acquisition_planimetrique":"BDNyme","precision_planimetrique":30,"insee_commune":"10220","identifiant_voie_ban":null,"id_ban_odonyme":null}},{"type":"Feature","id":"lieu_dit_non_habite.58645","geometry":{"type":"Point","coordinates":[3.77369387,48.51942958]},"geometry_name":"geometrie","properties":{"cleabs":"PAIE_NAT0000000009296438","nature":"Bois","toponyme":"la Noue des Fontaines","statut_du_toponyme":"Validé","importance":"5","date_creation":"2006-08-01T10:22:14.818Z","date_modification":"2018-06-15T08:43:07.189Z","date_d_apparition":null,"date_de_confirmation":null,"sources":null,"identifiants_sources":null,"methode_d_acquisition_planimetrique":"BDNyme","precision_planimetrique":30,"insee_commune":"10220","identifiant_voie_ban":null,"id_ban_odonyme":null}},{"type":"Feature","id":"lieu_dit_non_habite.58646","geometry":{"type":"Point","coordinates":[3.7964097,48.5200955]},"geometry_name":"geometrie","properties":{"cleabs":"PAIE_NAT0000000009296439","nature":"Lieu-dit non habité","toponyme":"les Converts","statut_du_toponyme":"Validé","importance":"5","date_creation":"2006-08-01T10:22:14.818Z","date_modification":"2018-06-15T08:43:07.189Z","date_d_apparition":null,"date_de_confirmation":null,"sources":null,"identifiants_sources":null,"methode_d_acquisition_planimetrique":"BDNyme","precision_planimetrique":30,"insee_commune":"10220","identifiant_voie_ban":null,"id_ban_odonyme":null}},{"type":"Feature","id":"lieu_dit_non_habite.58647","geometry":{"type":"Point","coordinates":[3.78028738,48.51751526]},"geometry_name":"geometrie","properties":{"cleabs":"PAIE_NAT0000000009296440","nature":"Lieu-dit non habité","toponyme":"la Grosse Noue","statut_du_toponyme":"Validé","importance":"5","date_creation":"2006-08-01T10:22:14.818Z","date_modification":"2018-06-15T08:43:07.189Z","date_d_apparition":null,"date_de_confirmation":null,"sources":null,"identifiants_sources":null,"methode_d_acquisition_planimetrique":"BDNyme","precision_planimetrique":30,"insee_commune":"10220","identifiant_voie_ban":null,"id_ban_odonyme":null}},{"type":"Feature","id":"lieu_dit_non_habite.58648","geometry":{"type":"Point","coordinates":[3.78866898,48.51522797]},"geometry_name":"geometrie","properties":{"cleabs":"PAIE_NAT0000000009296441","nature":"Lieu-dit non habité","toponyme":"le Château","statut_du_toponyme":"Validé","importance":"5","date_creation":"2006-08-01T10:22:14.818Z","date_modification":"2018-06-15T08:43:07.189Z","date_d_apparition":null,"date_de_confirmation":null,"sources":null,"identifiants_sources":null,"methode_d_acquisition_planimetrique":"BDNyme","precision_planimetrique":30,"insee_commune":"10220","identifiant_voie_ban":null,"id_ban_odonyme":null}},{"type":"Feature","id":"lieu_dit_non_habite.58649","geometry":{"type":"Point","coordinates":[3.78898951,48.51799309]},"geometry_name":"geometrie","properties":{"cleabs":"PAIE_NAT0000000009296442","nature":"Lieu-dit non habité","toponyme":"Prés Neufs","statut_du_toponyme":"Validé","importance":"5","date_creation":"2006-08-01T10:22:14.818Z","date_modification":"2018-06-15T08:43:07.189Z","date_d_apparition":null,"date_de_confirmation":null,"sources":null,"identifiants_sources":null,"methode_d_acquisition_planimetrique":"BDNyme","precision_planimetrique":30,"insee_commune":"10220","identifiant_voie_ban":null,"id_ban_odonyme":null}},{"type":"Feature","id":"lieu_dit_non_habite.58650","geometry":{"type":"Point","coordinates":[3.75478256,48.52224733]},"geometry_name":"geometrie","properties":{"cleabs":"PAIE_NAT0000000009296443","nature":"Lieu-dit non habité","toponyme":"les Épinettes","statut_du_toponyme":"Validé","importance":"5","date_creation":"2006-08-01T10:22:14.818Z","date_modification":"2018-06-15T08:43:07.189Z","date_d_apparition":null,"date_de_confirmation":null,"sources":null,"identifiants_sources":null,"methode_d_acquisition_planimetrique":"BDNyme","precision_planimetrique":30,"insee_commune":"10323","identifiant_voie_ban":null,"id_ban_odonyme":null}},{"type":"Feature","id":"lieu_dit_non_habite.58651","geometry":{"type":"Point","coordinates":[3.75460763,48.51582966]},"geometry_name":"geometrie","properties":{"cleabs":"PAIE_NAT0000000009296444","nature":"Lieu-dit non habité","toponyme":"le Gué de Vailly","statut_du_toponyme":"Validé","importance":"5","date_creation":"2006-08-01T10:22:14.818Z","date_modification":"2018-06-15T08:43:07.189Z","date_d_apparition":null,"date_de_confirmation":null,"sources":null,"identifiants_sources":null,"methode_d_acquisition_planimetrique":"BDNyme","precision_planimetrique":30,"insee_commune":"10323","identifiant_voie_ban":null,"id_ban_odonyme":null}},{"type":"Feature","id":"lieu_dit_non_habite.58848","geometry":{"type":"Point","coordinates":[3.81839107,48.50628169]},"geometry_name":"geometrie","properties":{"cleabs":"PAIE_NAT0000000009296642","nature":"Lieu-dit non habité","toponyme":"la Lampe","statut_du_toponyme":"Validé","importance":"5","date_creation":"2006-08-01T10:22:14.818Z","date_modification":"2018-06-15T08:43:07.189Z","date_d_apparition":null,"date_de_confirmation":null,"sources":null,"identifiants_sources":null,"methode_d_acquisition_planimetrique":"BDNyme","precision_planimetrique":30,"insee_commune":"10220","identifiant_voie_ban":null,"id_ban_odonyme":null}},{"type":"Feature","id":"lieu_dit_non_habite.58849","geometry":{"type":"Point","coordinates":[3.81105156,48.50898053]},"geometry_name":"geometrie","properties":{"cleabs":"PAIE_NAT0000000009296643","nature":"Lieu-dit non habité","toponyme":"le Rougemont","statut_du_toponyme":"Validé","importance":"5","date_creation":"2006-08-01T10:22:14.818Z","date_modification":"2025-12-05T11:36:43.898Z","date_d_apparition":null,"date_de_confirmation":null,"sources":null,"identifiants_sources":null,"methode_d_acquisition_planimetrique":"BDNyme","precision_planimetrique":30,"insee_commune":"10220","identifiant_voie_ban":"10220_igw52m","id_ban_odonyme":"49ade69e-fe9e-4a6c-859a-ad13aae3551d"}},{"type":"Feature","id":"lieu_dit_non_habite.58851","geometry":{"type":"Point","coordinates":[3.83054079,48.50389881]},"geometry_name":"geometrie","properties":{"cleabs":"PAIE_NAT0000000009296645","nature":"Lieu-dit non habité","toponyme":"le Champ Potet","statut_du_toponyme":"Validé","importance":"5","date_creation":"2006-08-01T10:22:14.818Z","date_modification":"2018-06-15T08:43:07.189Z","date_d_apparition":null,"date_de_confirmation":null,"sources":null,"identifiants_sources":null,"methode_d_acquisition_planimetrique":"BDNyme","precision_planimetrique":30,"insee_commune":"10089","identifiant_voie_ban":null,"id_ban_odonyme":null}},{"type":"Feature","id":"lieu_dit_non_habite.58852","geometry":{"type":"Point","coordinates":[3.80973835,48.50460017]},"geometry_name":"geometrie","properties":{"cleabs":"PAIE_NAT0000000009296646","nature":"Lieu-dit non habité","toponyme":"la Cave","statut_du_toponyme":"Validé","importance":"5","date_creation":"2006-08-01T10:22:14.818Z","date_modification":"2018-06-15T08:43:07.189Z","date_d_apparition":null,"date_de_confirmation":null,"sources":null,"identifiants_sources":null,"methode_d_acquisition_planimetrique":"BDNyme","precision_planimetrique":30,"insee_commune":"10220","identifiant_voie_ban":null,"id_ban_odonyme":null}},{"type":"Feature","id":"lieu_dit_non_habite.58853","geometry":{"type":"Point","coordinates":[3.77667804,48.50686843]},"geometry_name":"geometrie","properties":{"cleabs":"PAIE_NAT0000000009296647","nature":"Lieu-dit non habité","toponyme":"les Masures","statut_du_toponyme":"Validé","importance":"5","date_creation":"2006-08-01T10:22:14.818Z","date_modification":"2018-06-15T08:43:07.189Z","date_d_apparition":null,"date_de_confirmation":null,"sources":null,"identifiants_sources":null,"methode_d_acquisition_planimetrique":"BDNyme","precision_planimetrique":30,"insee_commune":"10220","identifiant_voie_ban":null,"id_ban_odonyme":null}},{"type":"Feature","id":"lieu_dit_non_habite.58854","geometry":{"type":"Point","coordinates":[3.76500209,48.50843126]},"geometry_name":"geometrie","properties":{"cleabs":"PAIE_NAT0000000009296648","nature":"Lieu-dit non habité","toponyme":"le Pont Bancelin","statut_du_toponyme":"Validé","importance":"5","date_creation":"2006-08-01T10:22:14.818Z","date_modification":"2021-10-04T12:46:16.495Z","date_d_apparition":null,"date_de_confirmation":null,"sources":null,"identifiants_sources":null,"methode_d_acquisition_planimetrique":"BDNyme","precision_planimetrique":30,"insee_commune":"10220","identifiant_voie_ban":null,"id_ban_odonyme":null}},{"type":"Feature","id":"lieu_dit_non_habite.58855","geometry":{"type":"Point","coordinates":[3.76737114,48.51341071]},"geometry_name":"geometrie","properties":{"cleabs":"PAIE_NAT0000000009296649","nature":"Lieu-dit non habité","toponyme":"le Grand Haut","statut_du_toponyme":"Validé","importance":"5","date_creation":"2006-08-01T10:22:14.818Z","date_modification":"2018-06-15T08:43:07.189Z","date_d_apparition":null,"date_de_confirmation":null,"sources":null,"identifiants_sources":null,"methode_d_acquisition_planimetrique":"BDNyme","precision_planimetrique":30,"insee_commune":"10220","identifiant_voie_ban":null,"id_ban_odonyme":null}},{"type":"Feature","id":"lieu_dit_non_habite.58856","geometry":{"type":"Point","coordinates":[3.77235208,48.50951095]},"geometry_name":"geometrie","properties":{"cleabs":"PAIE_NAT0000000009296650","nature":"Bois","toponyme":"la Léchère","statut_du_toponyme":"Validé","importance":"5","date_creation":"2006-08-01T10:22:14.818Z","date_modification":"2018-06-15T08:43:07.189Z","date_d_apparition":null,"date_de_confirmation":null,"sources":null,"identifiants_sources":null,"methode_d_acquisition_planimetrique":"BDNyme","precision_planimetrique":30,"insee_commune":"10220","identifiant_voie_ban":null,"id_ban_odonyme":null}},{"type":"Feature","id":"lieu_dit_non_habite.58857","geometry":{"type":"Point","coordinates":[3.79932865,48.50831687]},"geometry_name":"geometrie","properties":{"cleabs":"PAIE_NAT0000000009296651","nature":"Lieu-dit non habité","toponyme":"la Haute Beaune","statut_du_toponyme":"Validé","importance":"5","date_creation":"2006-08-01T10:22:14.818Z","date_modification":"2018-06-15T08:43:07.189Z","date_d_apparition":null,"date_de_confirmation":null,"sources":null,"identifiants_sources":null,"methode_d_acquisition_planimetrique":"BDNyme","precision_planimetrique":30,"insee_commune":"10220","identifiant_voie_ban":null,"id_ban_odonyme":null}},{"type":"Feature","id":"lieu_dit_non_habite.59032","geometry":{"type":"Point","coordinates":[3.82213538,48.49761211]},"geometry_name":"geometrie","properties":{"cleabs":"PAIE_NAT0000000009296831","nature":"Lieu-dit non habité","toponyme":"le Noyer Bourdeau","statut_du_toponyme":"Validé","importance":"5","date_creation":"2006-08-01T10:22:14.818Z","date_modification":"2018-06-15T08:43:07.189Z","date_d_apparition":null,"date_de_confirmation":null,"sources":null,"identifiants_sources":null,"methode_d_acquisition_planimetrique":"BDNyme","precision_planimetrique":30,"insee_commune":"10089","identifiant_voie_ban":null,"id_ban_odonyme":null}},{"type":"Feature","id":"lieu_dit_non_habite.59033","geometry":{"type":"Point","coordinates":[3.83257922,48.49756097]},"geometry_name":"geometrie","properties":{"cleabs":"PAIE_NAT0000000009296832","nature":"Lieu-dit non habité","toponyme":"le Chemin de Nogent","statut_du_toponyme":"Validé","importance":"5","date_creation":"2006-08-01T10:22:14.818Z","date_modification":"2018-06-15T08:43:07.189Z","date_d_apparition":null,"date_de_confirmation":null,"sources":null,"identifiants_sources":null,"methode_d_acquisition_planimetrique":"BDNyme","precision_planimetrique":30,"insee_commune":"10089","identifiant_voie_ban":null,"id_ban_odonyme":null}},{"type":"Feature","id":"lieu_dit_non_habite.59034","geometry":{"type":"Point","coordinates":[3.82550153,48.48562886]},"geometry_name":"geometrie","properties":{"cleabs":"PAIE_NAT0000000009296833","nature":"Lieu-dit non habité","toponyme":"le Champ Mouton","statut_du_toponyme":"Validé","importance":"5","date_creation":"2006-08-01T10:22:14.818Z","date_modification":"2018-06-15T08:43:07.189Z","date_d_apparition":null,"date_de_confirmation":null,"sources":null,"identifiants_sources":null,"methode_d_acquisition_planimetrique":"BDNyme","precision_planimetrique":30,"insee_commune":"10089","identifiant_voie_ban":null,"id_ban_odonyme":null}},{"type":"Feature","id":"lieu_dit_non_habite.59036","geometry":{"type":"Point","coordinates":[3.8074847,48.49328095]},"geometry_name":"geometrie","properties":{"cleabs":"PAIE_NAT0000000009296836","nature":"Lieu-dit non habité","toponyme":"le Crot aux Laines","statut_du_toponyme":"Validé","importance":"5","date_creation":"2006-08-01T10:22:14.818Z","date_modification":"2018-06-15T08:43:07.189Z","date_d_apparition":null,"date_de_confirmation":null,"sources":null,"identifiants_sources":null,"methode_d_acquisition_planimetrique":"BDNyme","precision_planimetrique":30,"insee_commune":"10220","identifiant_voie_ban":null,"id_ban_odonyme":null}},{"type":"Feature","id":"lieu_dit_non_habite.59037","geometry":{"type":"Point","coordinates":[3.83232702,48.49394976]},"geometry_name":"geometrie","properties":{"cleabs":"PAIE_NAT0000000009296837","nature":"Lieu-dit non habité","toponyme":"les Mées","statut_du_toponyme":"Validé","importance":"5","date_creation":"2006-08-01T10:22:14.818Z","date_modification":"2018-06-15T08:43:07.189Z","date_d_apparition":null,"date_de_confirmation":null,"sources":null,"identifiants_sources":null,"methode_d_acquisition_planimetrique":"BDNyme","precision_planimetrique":30,"insee_commune":"10089","identifiant_voie_ban":null,"id_ban_odonyme":null}},{"type":"Feature","id":"lieu_dit_non_habite.59039","geometry":{"type":"Point","coordinates":[3.79087336,48.485044]},"geometry_name":"geometrie","properties":{"cleabs":"PAIE_NAT0000000009296839","nature":"Lieu-dit non habité","toponyme":"le Crot Tonnerre","statut_du_toponyme":"Validé","importance":"5","date_creation":"2006-08-01T10:22:14.818Z","date_modification":"2018-06-15T08:43:07.189Z","date_d_apparition":null,"date_de_confirmation":null,"sources":null,"identifiants_sources":null,"methode_d_acquisition_planimetrique":"BDNyme","precision_planimetrique":30,"insee_commune":"10220","identifiant_voie_ban":null,"id_ban_odonyme":null}},{"type":"Feature","id":"lieu_dit_non_habite.59040","geometry":{"type":"Point","coordinates":[3.76437037,48.49174172]},"geometry_name":"geometrie","properties":{"cleabs":"PAIE_NAT0000000009296840","nature":"Lieu-dit non habité","toponyme":"le Champ à Colin","statut_du_toponyme":"Validé","importance":"5","date_creation":"2006-08-01T10:22:14.818Z","date_modification":"2018-06-15T08:43:07.189Z","date_d_apparition":null,"date_de_confirmation":null,"sources":null,"identifiants_sources":null,"methode_d_acquisition_planimetrique":"BDNyme","precision_planimetrique":30,"insee_commune":"10220","identifiant_voie_ban":null,"id_ban_odonyme":null}},{"type":"Feature","id":"lieu_dit_non_habite.59041","geometry":{"type":"Point","coordinates":[3.78644304,48.49500638]},"geometry_name":"geometrie","properties":{"cleabs":"PAIE_NAT0000000009296841","nature":"Lieu-dit non habité","toponyme":"la Dîme du Saint","statut_du_toponyme":"Validé","importance":"5","date_creation":"2006-08-01T10:22:14.818Z","date_modification":"2018-06-15T08:43:07.189Z","date_d_apparition":null,"date_de_confirmation":null,"sources":null,"identifiants_sources":null,"methode_d_acquisition_planimetrique":"BDNyme","precision_planimetrique":30,"insee_commune":"10220","identifiant_voie_ban":null,"id_ban_odonyme":null}},{"type":"Feature","id":"lieu_dit_non_habite.59042","geometry":{"type":"Point","coordinates":[3.76911646,48.49909351]},"geometry_name":"geometrie","properties":{"cleabs":"PAIE_NAT0000000009296842","nature":"Lieu-dit non habité","toponyme":"les Carreaux","statut_du_toponyme":"Validé","importance":"5","date_creation":"2006-08-01T10:22:14.818Z","date_modification":"2019-09-09T15:48:26.482Z","date_d_apparition":null,"date_de_confirmation":null,"sources":null,"identifiants_sources":null,"methode_d_acquisition_planimetrique":"BDNyme","precision_planimetrique":30,"insee_commune":"10220","identifiant_voie_ban":null,"id_ban_odonyme":null}},{"type":"Feature","id":"lieu_dit_non_habite.59043","geometry":{"type":"Point","coordinates":[3.77996336,48.48670582]},"geometry_name":"geometrie","properties":{"cleabs":"PAIE_NAT0000000009296843","nature":"Lieu-dit non habité","toponyme":"le Morembert","statut_du_toponyme":"Validé","importance":"5","date_creation":"2006-08-01T10:22:14.818Z","date_modification":"2018-06-15T08:43:07.189Z","date_d_apparition":null,"date_de_confirmation":null,"sources":null,"identifiants_sources":null,"methode_d_acquisition_planimetrique":"BDNyme","precision_planimetrique":30,"insee_commune":"10220","identifiant_voie_ban":null,"id_ban_odonyme":null}},{"type":"Feature","id":"lieu_dit_non_habite.59044","geometry":{"type":"Point","coordinates":[3.77062977,48.49162121]},"geometry_name":"geometrie","properties":{"cleabs":"PAIE_NAT0000000009296844","nature":"Lieu-dit non habité","toponyme":"le Tripier","statut_du_toponyme":"Validé","importance":"5","date_creation":"2006-08-01T10:22:14.818Z","date_modification":"2018-06-15T08:43:07.189Z","date_d_apparition":null,"date_de_confirmation":null,"sources":null,"identifiants_sources":null,"methode_d_acquisition_planimetrique":"BDNyme","precision_planimetrique":30,"insee_commune":"10220","identifiant_voie_ban":null,"id_ban_odonyme":null}},{"type":"Feature","id":"lieu_dit_non_habite.59045","geometry":{"type":"Point","coordinates":[3.75421067,48.48671199]},"geometry_name":"geometrie","properties":{"cleabs":"PAIE_NAT0000000009296845","nature":"Lieu-dit non habité","toponyme":"le Puy","statut_du_toponyme":"Validé","importance":"5","date_creation":"2006-08-01T10:22:14.818Z","date_modification":"2018-06-15T08:43:07.189Z","date_d_apparition":null,"date_de_confirmation":null,"sources":null,"identifiants_sources":null,"methode_d_acquisition_planimetrique":"BDNyme","precision_planimetrique":30,"insee_commune":"10280","identifiant_voie_ban":null,"id_ban_odonyme":null}},{"type":"Feature","id":"lieu_dit_non_habite.59232","geometry":{"type":"Point","coordinates":[3.80685621,48.47335437]},"geometry_name":"geometrie","properties":{"cleabs":"PAIE_NAT0000000009297034","nature":"Lieu-dit non habité","toponyme":"le Terrage","statut_du_toponyme":"Validé","importance":"5","date_creation":"2006-08-01T10:22:14.818Z","date_modification":"2018-06-15T08:43:07.189Z","date_d_apparition":null,"date_de_confirmation":null,"sources":null,"identifiants_sources":null,"methode_d_acquisition_planimetrique":"BDNyme","precision_planimetrique":30,"insee_commune":"10271","identifiant_voie_ban":null,"id_ban_odonyme":null}},{"type":"Feature","id":"lieu_dit_non_habite.59234","geometry":{"type":"Point","coordinates":[3.82440465,48.47559004]},"geometry_name":"geometrie","properties":{"cleabs":"PAIE_NAT0000000009297036","nature":"Lieu-dit non habité","toponyme":"le Champ aux Choux","statut_du_toponyme":"Validé","importance":"5","date_creation":"2006-08-01T10:22:14.818Z","date_modification":"2018-06-15T08:43:07.189Z","date_d_apparition":null,"date_de_confirmation":null,"sources":null,"identifiants_sources":null,"methode_d_acquisition_planimetrique":"BDNyme","precision_planimetrique":30,"insee_commune":"10089","identifiant_voie_ban":null,"id_ban_odonyme":null}},{"type":"Feature","id":"lieu_dit_non_habite.59237","geometry":{"type":"Point","coordinates":[3.81183945,48.4827245]},"geometry_name":"geometrie","properties":{"cleabs":"PAIE_NAT0000000009297042","nature":"Lieu-dit non habité","toponyme":"le Crot d'Origny","statut_du_toponyme":"Validé","importance":"5","date_creation":"2006-08-01T10:22:14.818Z","date_modification":"2018-06-15T08:43:07.189Z","date_d_apparition":null,"date_de_confirmation":null,"sources":null,"identifiants_sources":null,"methode_d_acquisition_planimetrique":"BDNyme","precision_planimetrique":30,"insee_commune":"10089","identifiant_voie_ban":null,"id_ban_odonyme":null}},{"type":"Feature","id":"lieu_dit_non_habite.59238","geometry":{"type":"Point","coordinates":[3.77213558,48.47750409]},"geometry_name":"geometrie","properties":{"cleabs":"PAIE_NAT0000000009297043","nature":"Lieu-dit non habité","toponyme":"la Bretonnière","statut_du_toponyme":"Validé","importance":"5","date_creation":"2006-08-01T10:22:14.818Z","date_modification":"2018-06-15T08:43:07.189Z","date_d_apparition":null,"date_de_confirmation":null,"sources":null,"identifiants_sources":null,"methode_d_acquisition_planimetrique":"BDNyme","precision_planimetrique":30,"insee_commune":"10271","identifiant_voie_ban":null,"id_ban_odonyme":null}},{"type":"Feature","id":"lieu_dit_non_habite.59239","geometry":{"type":"Point","coordinates":[3.80084132,48.47587544]},"geometry_name":"geometrie","properties":{"cleabs":"PAIE_NAT0000000009297044","nature":"Lieu-dit non habité","toponyme":"la Chapelle d'Origny","statut_du_toponyme":"Validé","importance":"5","date_creation":"2006-08-01T10:22:14.818Z","date_modification":"2018-06-15T08:43:07.189Z","date_d_apparition":null,"date_de_confirmation":null,"sources":null,"identifiants_sources":null,"methode_d_acquisition_planimetrique":"BDNyme","precision_planimetrique":30,"insee_commune":"10271","identifiant_voie_ban":null,"id_ban_odonyme":null}},{"type":"Feature","id":"lieu_dit_non_habite.59240","geometry":{"type":"Point","coordinates":[3.79316169,48.47688691]},"geometry_name":"geometrie","properties":{"cleabs":"PAIE_NAT0000000009297045","nature":"Lieu-dit non habité","toponyme":"l'Épinette","statut_du_toponyme":"Validé","importance":"5","date_creation":"2006-08-01T10:22:14.818Z","date_modification":"2018-06-15T08:43:07.189Z","date_d_apparition":null,"date_de_confirmation":null,"sources":null,"identifiants_sources":null,"methode_d_acquisition_planimetrique":"BDNyme","precision_planimetrique":30,"insee_commune":"10271","identifiant_voie_ban":null,"id_ban_odonyme":null}},{"type":"Feature","id":"lieu_dit_non_habite.59241","geometry":{"type":"Point","coordinates":[3.75902485,48.48121419]},"geometry_name":"geometrie","properties":{"cleabs":"PAIE_NAT0000000009297046","nature":"Lieu-dit non habité","toponyme":"les Grandes Pièces","statut_du_toponyme":"Validé","importance":"5","date_creation":"2006-08-01T10:22:14.818Z","date_modification":"2018-06-15T08:43:07.189Z","date_d_apparition":null,"date_de_confirmation":null,"sources":null,"identifiants_sources":null,"methode_d_acquisition_planimetrique":"BDNyme","precision_planimetrique":30,"insee_commune":"10280","identifiant_voie_ban":null,"id_ban_odonyme":null}},{"type":"Feature","id":"lieu_dit_non_habite.59242","geometry":{"type":"Point","coordinates":[3.75459738,48.474074]},"geometry_name":"geometrie","properties":{"cleabs":"PAIE_NAT0000000009297047","nature":"Lieu-dit non habité","toponyme":"le Mesnil","statut_du_toponyme":"Validé","importance":"5","date_creation":"2006-08-01T10:22:14.818Z","date_modification":"2018-06-15T08:43:07.189Z","date_d_apparition":null,"date_de_confirmation":null,"sources":null,"identifiants_sources":null,"methode_d_acquisition_planimetrique":"BDNyme","precision_planimetrique":30,"insee_commune":"10280","identifiant_voie_ban":null,"id_ban_odonyme":null}},{"type":"Feature","id":"lieu_dit_non_habite.341258","geometry":{"type":"Point","coordinates":[3.80923217,48.5332261]},"geometry_name":"geometrie","properties":{"cleabs":"PAIE_NAT0000000065101487","nature":"Lieu-dit non habité","toponyme":"le Champ du Renard","statut_du_toponyme":"Validé","importance":"5","date_creation":"2007-03-07T12:15:41.776Z","date_modification":"2018-06-15T08:43:07.189Z","date_d_apparition":null,"date_de_confirmation":null,"sources":null,"identifiants_sources":null,"methode_d_acquisition_planimetrique":"BDNyme","precision_planimetrique":30,"insee_commune":"51155","identifiant_voie_ban":null,"id_ban_odonyme":null}},{"type":"Feature","id":"lieu_dit_non_habite.341261","geometry":{"type":"Point","coordinates":[3.8005972,48.53475363]},"geometry_name":"geometrie","properties":{"cleabs":"PAIE_NAT0000000065101491","nature":"Bois","toponyme":"le Haut du Manche","statut_du_toponyme":"Validé","importance":"5","date_creation":"2007-03-07T12:15:41.776Z","date_modification":"2018-06-15T08:43:07.189Z","date_d_apparition":null,"date_de_confirmation":null,"sources":null,"identifiants_sources":null,"methode_d_acquisition_planimetrique":"BDNyme","precision_planimetrique":30,"insee_commune":"51155","identifiant_voie_ban":null,"id_ban_odonyme":null}},{"type":"Feature","id":"lieu_dit_non_habite.341262","geometry":{"type":"Point","coordinates":[3.79100924,48.53079024]},"geometry_name":"geometrie","properties":{"cleabs":"PAIE_NAT0000000065101492","nature":"Lieu-dit non habité","toponyme":"Tournay","statut_du_toponyme":"Validé","importance":"5","date_creation":"2007-03-07T12:15:41.776Z","date_modification":"2018-06-15T08:43:07.189Z","date_d_apparition":null,"date_de_confirmation":null,"sources":null,"identifiants_sources":null,"methode_d_acquisition_planimetrique":"BDNyme","precision_planimetrique":30,"insee_commune":"51155","identifiant_voie_ban":null,"id_ban_odonyme":null}},{"type":"Feature","id":"lieu_dit_non_habite.341266","geometry":{"type":"Point","coordinates":[3.82973443,48.53012774]},"geometry_name":"geometrie","properties":{"cleabs":"PAIE_NAT0000000065101496","nature":"Lieu-dit non habité","toponyme":"le Gobyat","statut_du_toponyme":"Validé","importance":"5","date_creation":"2007-03-07T12:15:41.776Z","date_modification":"2018-06-15T08:43:07.189Z","date_d_apparition":null,"date_de_confirmation":null,"sources":null,"identifiants_sources":null,"methode_d_acquisition_planimetrique":"BDNyme","precision_planimetrique":30,"insee_commune":"51155","identifiant_voie_ban":null,"id_ban_odonyme":null}},{"type":"Feature","id":"lieu_dit_non_habite.341269","geometry":{"type":"Point","coordinates":[3.76983915,48.53082306]},"geometry_name":"geometrie","properties":{"cleabs":"PAIE_NAT0000000065101499","nature":"Lieu-dit non habité","toponyme":"les Menus Prés","statut_du_toponyme":"Validé","importance":"5","date_creation":"2007-03-07T12:15:41.776Z","date_modification":"2018-06-15T08:43:07.189Z","date_d_apparition":null,"date_de_confirmation":null,"sources":null,"identifiants_sources":null,"methode_d_acquisition_planimetrique":"BDNyme","precision_planimetrique":30,"insee_commune":"51492","identifiant_voie_ban":null,"id_ban_odonyme":null}},{"type":"Feature","id":"lieu_dit_non_habite.341270","geometry":{"type":"Point","coordinates":[3.75268047,48.53459074]},"geometry_name":"geometrie","properties":{"cleabs":"PAIE_NAT0000000065101500","nature":"Lieu-dit non habité","toponyme":"la Rosière","statut_du_toponyme":"Validé","importance":"5","date_creation":"2007-03-07T12:15:41.776Z","date_modification":"2018-06-15T08:43:07.189Z","date_d_apparition":null,"date_de_confirmation":null,"sources":null,"identifiants_sources":null,"methode_d_acquisition_planimetrique":"BDNyme","precision_planimetrique":30,"insee_commune":"51492","identifiant_voie_ban":null,"id_ban_odonyme":null}},{"type":"Feature","id":"lieu_dit_non_habite.341287","geometry":{"type":"Point","coordinates":[3.83188243,48.52396741]},"geometry_name":"geometrie","properties":{"cleabs":"PAIE_NAT0000000065101517","nature":"Lieu-dit non habité","toponyme":"les Marais","statut_du_toponyme":"Validé","importance":"5","date_creation":"2007-03-07T12:15:41.776Z","date_modification":"2018-06-15T08:43:07.189Z","date_d_apparition":null,"date_de_confirmation":null,"sources":null,"identifiants_sources":null,"methode_d_acquisition_planimetrique":"BDNyme","precision_planimetrique":30,"insee_commune":"51155","identifiant_voie_ban":null,"id_ban_odonyme":null}},{"type":"Feature","id":"lieu_dit_non_habite.341290","geometry":{"type":"Point","coordinates":[3.81863061,48.52284942]},"geometry_name":"geometrie","properties":{"cleabs":"PAIE_NAT0000000065101520","nature":"Bois","toponyme":"les Lignes du Midi","statut_du_toponyme":"Validé","importance":"5","date_creation":"2007-03-07T12:15:41.776Z","date_modification":"2018-06-15T08:43:07.189Z","date_d_apparition":null,"date_de_confirmation":null,"sources":null,"identifiants_sources":null,"methode_d_acquisition_planimetrique":"BDNyme","precision_planimetrique":30,"insee_commune":"51155","identifiant_voie_ban":null,"id_ban_odonyme":null}},{"type":"Feature","id":"lieu_dit_non_habite.341291","geometry":{"type":"Point","coordinates":[3.82375608,48.51747113]},"geometry_name":"geometrie","properties":{"cleabs":"PAIE_NAT0000000065101521","nature":"Bois","toponyme":"les Cent Arpents","statut_du_toponyme":"Validé","importance":"5","date_creation":"2007-03-07T12:15:41.776Z","date_modification":"2018-06-15T08:43:07.189Z","date_d_apparition":null,"date_de_confirmation":null,"sources":null,"identifiants_sources":null,"methode_d_acquisition_planimetrique":"BDNyme","precision_planimetrique":30,"insee_commune":"51155","identifiant_voie_ban":null,"id_ban_odonyme":null}},{"type":"Feature","id":"lieu_dit_non_habite.341292","geometry":{"type":"Point","coordinates":[3.82685682,48.52604552]},"geometry_name":"geometrie","properties":{"cleabs":"PAIE_NAT0000000065101522","nature":"Bois","toponyme":"Moitié Payen","statut_du_toponyme":"Validé","importance":"5","date_creation":"2007-03-07T12:15:41.776Z","date_modification":"2018-06-15T08:43:07.189Z","date_d_apparition":null,"date_de_confirmation":null,"sources":null,"identifiants_sources":null,"methode_d_acquisition_planimetrique":"BDNyme","precision_planimetrique":30,"insee_commune":"51155","identifiant_voie_ban":null,"id_ban_odonyme":null}},{"type":"Feature","id":"lieu_dit_non_habite.341293","geometry":{"type":"Point","coordinates":[3.80933091,48.52663393]},"geometry_name":"geometrie","properties":{"cleabs":"PAIE_NAT0000000065101523","nature":"Bois","toponyme":"la Folie","statut_du_toponyme":"Validé","importance":"5","date_creation":"2007-03-07T12:15:41.776Z","date_modification":"2018-06-15T08:43:07.189Z","date_d_apparition":null,"date_de_confirmation":null,"sources":null,"identifiants_sources":null,"methode_d_acquisition_planimetrique":"BDNyme","precision_planimetrique":30,"insee_commune":"51155","identifiant_voie_ban":null,"id_ban_odonyme":null}},{"type":"Feature","id":"lieu_dit_non_habite.478919","geometry":{"type":"Point","coordinates":[3.81984138,48.48065521]},"geometry_name":"geometrie","properties":{"cleabs":"PAIE_NAT0000002201786405","nature":"Lieu-dit non habité","toponyme":"la Févrose","statut_du_toponyme":"Validé","importance":"5","date_creation":"2019-03-07T16:00:58.113Z","date_modification":null,"date_d_apparition":null,"date_de_confirmation":null,"sources":null,"identifiants_sources":null,"methode_d_acquisition_planimetrique":"Calculé","precision_planimetrique":20,"insee_commune":"10089","identifiant_voie_ban":null,"id_ban_odonyme":null}}]}