{"type":"FeatureCollection","metadata":{"source":"BD TOPO construction ponctuelle","typename":"BDTOPO_V3:construction_ponctuelle","service":"https://data.geopf.fr/wfs/ows","request":"GetFeature BDTOPO_V3:construction_ponctuelle BBOX 755390,6819514,761486,6826372 EPSG:2154 (emprise du terrain V1.7)","retrievedAt":"2026-09-25T13:49:38.062Z","license":"Licence Ouverte Etalab 2.0 — © IGN / BAN / Géoportail de l’urbanisme","crs":"CRS84"},"features":[{"type":"Feature","id":"construction_ponctuelle.59967","geometry":{"type":"Point","coordinates":[3.78677888,48.51126864,94.8]},"geometry_name":"geometrie","properties":{"cleabs":"CONSPONC0000000009331513","nature":"Clocher","nature_detaillee":null,"toponyme":null,"statut_du_toponyme":null,"importance":"5","etat_de_l_objet":"En service","date_creation":"2006-08-01T10:22:14.818Z","date_modification":"2021-03-22T21:24:38.787Z","date_d_apparition":null,"date_de_confirmation":null,"sources":null,"identifiants_sources":"","methode_d_acquisition_planimetrique":"BDTopo","precision_planimetrique":2.5,"methode_d_acquisition_altimetrique":"BDTopo","precision_altimetrique":1.5,"hauteur":null}},{"type":"Feature","id":"construction_ponctuelle.100637","geometry":{"type":"Point","coordinates":[3.83085579,48.5331966,94.5]},"geometry_name":"geometrie","properties":{"cleabs":"CONSPONC0000000065136930","nature":"Clocher","nature_detaillee":null,"toponyme":null,"statut_du_toponyme":null,"importance":"5","etat_de_l_objet":"En service","date_creation":"2007-03-07T12:15:41.776Z","date_modification":"2021-03-22T21:24:38.787Z","date_d_apparition":null,"date_de_confirmation":null,"sources":null,"identifiants_sources":"","methode_d_acquisition_planimetrique":"BDTopo","precision_planimetrique":2.5,"methode_d_acquisition_altimetrique":"BDTopo","precision_altimetrique":1.5,"hauteur":null}},{"type":"Feature","id":"construction_ponctuelle.100639","geometry":{"type":"Point","coordinates":[3.77436438,48.53448568,73.4]},"geometry_name":"geometrie","properties":{"cleabs":"CONSPONC0000000065136931","nature":"Transformateur","nature_detaillee":null,"toponyme":null,"statut_du_toponyme":null,"importance":"5","etat_de_l_objet":"En service","date_creation":"2007-03-07T12:15:41.776Z","date_modification":"2021-03-22T21:24:38.787Z","date_d_apparition":null,"date_de_confirmation":null,"sources":null,"identifiants_sources":"","methode_d_acquisition_planimetrique":"BDTopo","precision_planimetrique":2.5,"methode_d_acquisition_altimetrique":"BDTopo","precision_altimetrique":1.5,"hauteur":null}},{"type":"Feature","id":"construction_ponctuelle.177907","geometry":{"type":"Point","coordinates":[3.75599953,48.50661405,-1000]},"geometry_name":"geometrie","properties":{"cleabs":"CONSPONC0000000322114045","nature":"Transformateur","nature_detaillee":null,"toponyme":null,"statut_du_toponyme":null,"importance":"5","etat_de_l_objet":"En service","date_creation":"2013-05-17T08:56:02.861Z","date_modification":"2021-03-22T21:24:38.787Z","date_d_apparition":null,"date_de_confirmation":null,"sources":null,"identifiants_sources":"","methode_d_acquisition_planimetrique":"Levé non GPS","precision_planimetrique":5,"methode_d_acquisition_altimetrique":"Pas de Z","precision_altimetrique":9999,"hauteur":null}},{"type":"Feature","id":"construction_ponctuelle.303930","geometry":{"type":"Point","coordinates":[3.79435634,48.50111266,105.6]},"geometry_name":"geometrie","properties":{"cleabs":"CONSPONC0000000322114343","nature":"Antenne","nature_detaillee":"Antenne-relais","toponyme":null,"statut_du_toponyme":null,"importance":"5","etat_de_l_objet":"En service","date_creation":"2013-05-17T09:16:11.412Z","date_modification":"2026-03-05T14:40:47.578Z","date_d_apparition":"2013-07-01Z","date_de_confirmation":"2026-01-07Z","sources":"ANFR 2026","identifiants_sources":"ANFR:1151841","methode_d_acquisition_planimetrique":"Photogrammétrie","precision_planimetrique":2.5,"methode_d_acquisition_altimetrique":"Photogrammétrie","precision_altimetrique":1.5,"hauteur":30}},{"type":"Feature","id":"construction_ponctuelle.177914","geometry":{"type":"Point","coordinates":[3.79986696,48.51307679,-1000]},"geometry_name":"geometrie","properties":{"cleabs":"CONSPONC0000000322114516","nature":"Transformateur","nature_detaillee":null,"toponyme":null,"statut_du_toponyme":null,"importance":"5","etat_de_l_objet":"En service","date_creation":"2013-05-17T09:21:58.466Z","date_modification":"2021-03-22T21:24:38.787Z","date_d_apparition":null,"date_de_confirmation":null,"sources":null,"identifiants_sources":"","methode_d_acquisition_planimetrique":"Levé non GPS","precision_planimetrique":5,"methode_d_acquisition_altimetrique":"Pas de Z","precision_altimetrique":9999,"hauteur":null}},{"type":"Feature","id":"construction_ponctuelle.301606","geometry":{"type":"Point","coordinates":[3.81189596,48.48681572,237.9]},"geometry_name":"geometrie","properties":{"cleabs":"CONSPONC0000000348956674","nature":"Eolienne","nature_detaillee":null,"toponyme":null,"statut_du_toponyme":null,"importance":"5","etat_de_l_objet":"En service","date_creation":"2015-03-18T16:59:30.941Z","date_modification":"2026-03-06T09:49:24.418Z","date_d_apparition":null,"date_de_confirmation":"2026-02-19Z","sources":"SIA 2026","identifiants_sources":"SIA:E1008-35","methode_d_acquisition_planimetrique":"Photogrammétrie","precision_planimetrique":2.5,"methode_d_acquisition_altimetrique":"Photogrammétrie","precision_altimetrique":1.5,"hauteur":150}},{"type":"Feature","id":"construction_ponctuelle.305110","geometry":{"type":"Point","coordinates":[3.81120587,48.48358349,237.8]},"geometry_name":"geometrie","properties":{"cleabs":"CONSPONC0000000348956676","nature":"Eolienne","nature_detaillee":null,"toponyme":null,"statut_du_toponyme":null,"importance":"5","etat_de_l_objet":"En service","date_creation":"2015-03-18T16:59:34.543Z","date_modification":"2026-03-06T09:49:24.418Z","date_d_apparition":null,"date_de_confirmation":"2026-02-19Z","sources":"SIA 2026","identifiants_sources":"SIA:E1008-34","methode_d_acquisition_planimetrique":"Photogrammétrie","precision_planimetrique":2.5,"methode_d_acquisition_altimetrique":"Photogrammétrie","precision_altimetrique":1.5,"hauteur":150}},{"type":"Feature","id":"construction_ponctuelle.299826","geometry":{"type":"Point","coordinates":[3.81556538,48.48440741,242.3]},"geometry_name":"geometrie","properties":{"cleabs":"CONSPONC0000000348956678","nature":"Eolienne","nature_detaillee":null,"toponyme":null,"statut_du_toponyme":null,"importance":"5","etat_de_l_objet":"En service","date_creation":"2015-03-18T16:59:38.101Z","date_modification":"2026-03-06T09:49:24.418Z","date_d_apparition":null,"date_de_confirmation":"2026-02-19Z","sources":"SIA 2026","identifiants_sources":"SIA:E1008-30","methode_d_acquisition_planimetrique":"Photogrammétrie","precision_planimetrique":2.5,"methode_d_acquisition_altimetrique":"Photogrammétrie","precision_altimetrique":1.5,"hauteur":150}},{"type":"Feature","id":"construction_ponctuelle.300479","geometry":{"type":"Point","coordinates":[3.81045368,48.48026711,243.2]},"geometry_name":"geometrie","properties":{"cleabs":"CONSPONC0000000348956680","nature":"Eolienne","nature_detaillee":null,"toponyme":null,"statut_du_toponyme":null,"importance":"5","etat_de_l_objet":"En service","date_creation":"2015-03-18T16:59:41.579Z","date_modification":"2026-03-06T09:49:24.418Z","date_d_apparition":null,"date_de_confirmation":"2026-02-19Z","sources":"SIA 2026","identifiants_sources":"SIA:E1008-33","methode_d_acquisition_planimetrique":"Photogrammétrie","precision_planimetrique":2.5,"methode_d_acquisition_altimetrique":"Photogrammétrie","precision_altimetrique":1.5,"hauteur":150}},{"type":"Feature","id":"construction_ponctuelle.295655","geometry":{"type":"Point","coordinates":[3.81425793,48.48081957,244.8]},"geometry_name":"geometrie","properties":{"cleabs":"CONSPONC0000000348956682","nature":"Eolienne","nature_detaillee":null,"toponyme":null,"statut_du_toponyme":null,"importance":"5","etat_de_l_objet":"En service","date_creation":"2015-03-18T16:59:45.073Z","date_modification":"2026-03-06T09:49:24.418Z","date_d_apparition":null,"date_de_confirmation":"2026-02-19Z","sources":"SIA 2026","identifiants_sources":"SIA:E1008-29","methode_d_acquisition_planimetrique":"Photogrammétrie","precision_planimetrique":2.5,"methode_d_acquisition_altimetrique":"Photogrammétrie","precision_altimetrique":1.5,"hauteur":150}},{"type":"Feature","id":"construction_ponctuelle.302171","geometry":{"type":"Point","coordinates":[3.8314764,48.48024235,244.5]},"geometry_name":"geometrie","properties":{"cleabs":"CONSPONC0000000348956695","nature":"Eolienne","nature_detaillee":null,"toponyme":null,"statut_du_toponyme":null,"importance":"5","etat_de_l_objet":"En service","date_creation":"2015-03-18T17:00:06.616Z","date_modification":"2026-03-06T09:49:24.418Z","date_d_apparition":null,"date_de_confirmation":"2026-02-19Z","sources":"SIA 2026","identifiants_sources":"SIA:E1008-26","methode_d_acquisition_planimetrique":"Photogrammétrie","precision_planimetrique":2.5,"methode_d_acquisition_altimetrique":"Photogrammétrie","precision_altimetrique":1.5,"hauteur":150}},{"type":"Feature","id":"construction_ponctuelle.300399","geometry":{"type":"Point","coordinates":[3.81643342,48.4878381,240.8]},"geometry_name":"geometrie","properties":{"cleabs":"CONSPONC0000000348956758","nature":"Eolienne","nature_detaillee":null,"toponyme":null,"statut_du_toponyme":null,"importance":"5","etat_de_l_objet":"En service","date_creation":"2015-03-18T17:03:23.122Z","date_modification":"2026-03-06T09:49:24.418Z","date_d_apparition":null,"date_de_confirmation":"2026-02-19Z","sources":"SIA 2026","identifiants_sources":"SIA:E1008-31","methode_d_acquisition_planimetrique":"Photogrammétrie","precision_planimetrique":2.5,"methode_d_acquisition_altimetrique":"Photogrammétrie","precision_altimetrique":1.5,"hauteur":150}},{"type":"Feature","id":"construction_ponctuelle.305373","geometry":{"type":"Point","coordinates":[3.8175025,48.49191605,239.3]},"geometry_name":"geometrie","properties":{"cleabs":"CONSPONC0000000353496610","nature":"Eolienne","nature_detaillee":null,"toponyme":null,"statut_du_toponyme":null,"importance":"5","etat_de_l_objet":"En service","date_creation":"2015-08-31T16:37:32.769Z","date_modification":"2026-03-06T09:49:24.418Z","date_d_apparition":null,"date_de_confirmation":"2026-02-19Z","sources":"SIA 2026","identifiants_sources":"SIA:E1008-32","methode_d_acquisition_planimetrique":"Photogrammétrie","precision_planimetrique":2.5,"methode_d_acquisition_altimetrique":"Photogrammétrie","precision_altimetrique":1.5,"hauteur":150}},{"type":"Feature","id":"construction_ponctuelle.297208","geometry":{"type":"Point","coordinates":[3.81315162,48.49090502,236.5]},"geometry_name":"geometrie","properties":{"cleabs":"CONSPONC0000000353496626","nature":"Eolienne","nature_detaillee":null,"toponyme":null,"statut_du_toponyme":null,"importance":"5","etat_de_l_objet":"En service","date_creation":"2015-08-31T16:40:15.752Z","date_modification":"2026-03-06T09:49:24.418Z","date_d_apparition":null,"date_de_confirmation":"2026-02-19Z","sources":"SIA 2026","identifiants_sources":"SIA:E1008-36","methode_d_acquisition_planimetrique":"Photogrammétrie","precision_planimetrique":2.5,"methode_d_acquisition_altimetrique":"Photogrammétrie","precision_altimetrique":1.5,"hauteur":150}},{"type":"Feature","id":"construction_ponctuelle.48216","geometry":{"type":"Point","coordinates":[3.79297077,48.51306903,-1000]},"geometry_name":"geometrie","properties":{"cleabs":"CONSPONC0000000355431587","nature":"Transformateur","nature_detaillee":null,"toponyme":null,"statut_du_toponyme":null,"importance":"5","etat_de_l_objet":"En service","date_creation":"2015-12-07T14:16:34.851Z","date_modification":"2021-03-22T21:24:38.787Z","date_d_apparition":null,"date_de_confirmation":null,"sources":null,"identifiants_sources":"","methode_d_acquisition_planimetrique":"Levé non GPS","precision_planimetrique":5,"methode_d_acquisition_altimetrique":"Pas de Z","precision_altimetrique":9999,"hauteur":null}},{"type":"Feature","id":"construction_ponctuelle.41693","geometry":{"type":"Point","coordinates":[3.79193875,48.50291637,-1000]},"geometry_name":"geometrie","properties":{"cleabs":"CONSPONC0000002489960888","nature":"Antenne","nature_detaillee":"Antenne-relais","toponyme":null,"statut_du_toponyme":null,"importance":"5","etat_de_l_objet":"En service","date_creation":"2025-05-16T08:59:21.445Z","date_modification":"2026-03-05T14:40:47.578Z","date_d_apparition":null,"date_de_confirmation":"2026-01-07Z","sources":"ANFR 2026","identifiants_sources":"ANFR:2855285","methode_d_acquisition_planimetrique":"Fichier numérique non métrique","precision_planimetrique":5,"methode_d_acquisition_altimetrique":"Pas de Z","precision_altimetrique":9999,"hauteur":32}}]}