{"type":"FeatureCollection","metadata":{"source":"BD TOPO toponymie (tous thèmes)","typename":"BDTOPO_V3:toponymie","service":"https://data.geopf.fr/wfs/ows","request":"GetFeature BDTOPO_V3:toponymie BBOX 755390,6819514,761486,6826372 EPSG:2154 (emprise du terrain V1.7)","retrievedAt":"2026-09-25T13:49:36.936Z","license":"Licence Ouverte Etalab 2.0 — © IGN / BAN / Géoportail de l’urbanisme","crs":"CRS84"},"features":[{"type":"Feature","id":"toponymie.15275","geometry":{"type":"Point","coordinates":[3.80101864,48.51454532]},"geometry_name":"geometrie","properties":{"classe_de_l_objet":"Construction linéaire","nature_de_l_objet":"Pont","nature_detaillee_de_l_objet":null,"graphie_du_toponyme":"pont de clairvaux","source_du_toponyme":"IGN","statut_du_toponyme":"Collecté","date_du_toponyme":"1900-01-01Z","langue_du_toponyme":null,"cleabs_de_l_objet":"CONSLINE0000000009332950"}},{"type":"Feature","id":"toponymie.16035","geometry":{"type":"Point","coordinates":[3.82846775,48.52282444]},"geometry_name":"geometrie","properties":{"classe_de_l_objet":"Construction linéaire","nature_de_l_objet":"Pont","nature_detaillee_de_l_objet":null,"graphie_du_toponyme":"pont des marais","source_du_toponyme":"IGN","statut_du_toponyme":"Validé","date_du_toponyme":"1994-02-01Z","langue_du_toponyme":null,"cleabs_de_l_objet":"CONSLINE0000000065141857"}},{"type":"Feature","id":"toponymie.14007","geometry":{"type":"Point","coordinates":[3.81055775,48.5284599]},"geometry_name":"geometrie","properties":{"classe_de_l_objet":"Construction linéaire","nature_de_l_objet":"Pont","nature_detaillee_de_l_objet":null,"graphie_du_toponyme":"pont du gué du château","source_du_toponyme":"IGN","statut_du_toponyme":"Validé","date_du_toponyme":"1994-02-01Z","langue_du_toponyme":null,"cleabs_de_l_objet":"CONSLINE0000000065141860"}},{"type":"Feature","id":"toponymie.133528","geometry":{"type":"Point","coordinates":[3.75607619,48.53504599]},"geometry_name":"geometrie","properties":{"classe_de_l_objet":"Cours d'eau","nature_de_l_objet":null,"nature_detaillee_de_l_objet":null,"graphie_du_toponyme":"canal 01 du haut buon","source_du_toponyme":"BDCarthage","statut_du_toponyme":"Collecté","date_du_toponyme":"2017-01-24Z","langue_du_toponyme":null,"cleabs_de_l_objet":"COURDEAU0000002000813333"}},{"type":"Feature","id":"toponymie.108653","geometry":{"type":"Point","coordinates":[3.79319354,48.53442992]},"geometry_name":"geometrie","properties":{"classe_de_l_objet":"Cours d'eau","nature_de_l_objet":null,"nature_detaillee_de_l_objet":null,"graphie_du_toponyme":"bras des moulins de sauvage","source_du_toponyme":"BDCarthage","statut_du_toponyme":"Collecté","date_du_toponyme":"2017-01-24Z","langue_du_toponyme":null,"cleabs_de_l_objet":"COURDEAU0000002000813337"}},{"type":"Feature","id":"toponymie.99912","geometry":{"type":"Point","coordinates":[3.81308044,48.53514751]},"geometry_name":"geometrie","properties":{"classe_de_l_objet":"Cours d'eau","nature_de_l_objet":null,"nature_detaillee_de_l_objet":null,"graphie_du_toponyme":"bras 01 du clos baillot","source_du_toponyme":"BDCarthage","statut_du_toponyme":"Collecté","date_du_toponyme":"2017-01-24Z","langue_du_toponyme":null,"cleabs_de_l_objet":"COURDEAU0000002000813338"}},{"type":"Feature","id":"toponymie.104815","geometry":{"type":"Point","coordinates":[3.8173546,48.53386864]},"geometry_name":"geometrie","properties":{"classe_de_l_objet":"Cours d'eau","nature_de_l_objet":null,"nature_detaillee_de_l_objet":null,"graphie_du_toponyme":"bras des moulins de sauvage","source_du_toponyme":"BDCarthage","statut_du_toponyme":"Collecté","date_du_toponyme":"2017-01-24Z","langue_du_toponyme":null,"cleabs_de_l_objet":"COURDEAU0000002000813339"}},{"type":"Feature","id":"toponymie.99900","geometry":{"type":"Point","coordinates":[3.77430476,48.53292524]},"geometry_name":"geometrie","properties":{"classe_de_l_objet":"Cours d'eau","nature_de_l_objet":null,"nature_detaillee_de_l_objet":null,"graphie_du_toponyme":"bras 02 des menus prés","source_du_toponyme":"BDCarthage","statut_du_toponyme":"Collecté","date_du_toponyme":"2017-01-24Z","langue_du_toponyme":null,"cleabs_de_l_objet":"COURDEAU0000002000813340"}},{"type":"Feature","id":"toponymie.99890","geometry":{"type":"Point","coordinates":[3.75347154,48.53336496]},"geometry_name":"geometrie","properties":{"classe_de_l_objet":"Cours d'eau","nature_de_l_objet":null,"nature_detaillee_de_l_objet":null,"graphie_du_toponyme":"bras de la seine","source_du_toponyme":"BDCarthage","statut_du_toponyme":"Collecté","date_du_toponyme":"2017-01-24Z","langue_du_toponyme":null,"cleabs_de_l_objet":"COURDEAU0000002000813341"}},{"type":"Feature","id":"toponymie.108655","geometry":{"type":"Point","coordinates":[3.7758374,48.53040623]},"geometry_name":"geometrie","properties":{"classe_de_l_objet":"Cours d'eau","nature_de_l_objet":null,"nature_detaillee_de_l_objet":null,"graphie_du_toponyme":"bras 01 des menus prés","source_du_toponyme":"BDCarthage","statut_du_toponyme":"Collecté","date_du_toponyme":"2017-01-24Z","langue_du_toponyme":null,"cleabs_de_l_objet":"COURDEAU0000002000813342"}},{"type":"Feature","id":"toponymie.144047","geometry":{"type":"Point","coordinates":[3.8021083,48.52745116]},"geometry_name":"geometrie","properties":{"classe_de_l_objet":"Cours d'eau","nature_de_l_objet":null,"nature_detaillee_de_l_objet":null,"graphie_du_toponyme":"cours d'eau 01 des menus prés","source_du_toponyme":"BDCarthage","statut_du_toponyme":"Collecté","date_du_toponyme":"2017-01-24Z","langue_du_toponyme":null,"cleabs_de_l_objet":"COURDEAU0000002000813344"}},{"type":"Feature","id":"toponymie.147337","geometry":{"type":"Point","coordinates":[3.77754845,48.52522226]},"geometry_name":"geometrie","properties":{"classe_de_l_objet":"Cours d'eau","nature_de_l_objet":null,"nature_detaillee_de_l_objet":null,"graphie_du_toponyme":"fossé 03 des epinettes","source_du_toponyme":"BDCarthage","statut_du_toponyme":"Collecté","date_du_toponyme":"2017-01-24Z","langue_du_toponyme":null,"cleabs_de_l_objet":"COURDEAU0000002000813350"}},{"type":"Feature","id":"toponymie.99897","geometry":{"type":"Point","coordinates":[3.76364389,48.53027467]},"geometry_name":"geometrie","properties":{"classe_de_l_objet":"Cours d'eau","nature_de_l_objet":null,"nature_detaillee_de_l_objet":null,"graphie_du_toponyme":"canal 01 des penouilles","source_du_toponyme":"BDCarthage","statut_du_toponyme":"Collecté","date_du_toponyme":"2017-01-24Z","langue_du_toponyme":null,"cleabs_de_l_objet":"COURDEAU0000002000813382"}},{"type":"Feature","id":"toponymie.143944","geometry":{"type":"Point","coordinates":[3.82338431,48.52165157]},"geometry_name":"geometrie","properties":{"classe_de_l_objet":"Cours d'eau","nature_de_l_objet":null,"nature_detaillee_de_l_objet":null,"graphie_du_toponyme":"noue des fourchus","source_du_toponyme":"IGN;BDCarthage","statut_du_toponyme":"Validé","date_du_toponyme":"1994-02-01Z","langue_du_toponyme":null,"cleabs_de_l_objet":"COURDEAU0000002000813389"}},{"type":"Feature","id":"toponymie.99920","geometry":{"type":"Point","coordinates":[3.8324297,48.52883953]},"geometry_name":"geometrie","properties":{"classe_de_l_objet":"Cours d'eau","nature_de_l_objet":null,"nature_detaillee_de_l_objet":null,"graphie_du_toponyme":"fossé 01 du clos baillot","source_du_toponyme":"BDCarthage","statut_du_toponyme":"Collecté","date_du_toponyme":"2017-01-24Z","langue_du_toponyme":null,"cleabs_de_l_objet":"COURDEAU0000002000813392"}},{"type":"Feature","id":"toponymie.108665","geometry":{"type":"Point","coordinates":[3.83198958,48.52747789]},"geometry_name":"geometrie","properties":{"classe_de_l_objet":"Cours d'eau","nature_de_l_objet":null,"nature_detaillee_de_l_objet":null,"graphie_du_toponyme":"fossé 01 du gobyat","source_du_toponyme":"BDCarthage","statut_du_toponyme":"Collecté","date_du_toponyme":"2017-01-24Z","langue_du_toponyme":null,"cleabs_de_l_objet":"COURDEAU0000002000813394"}},{"type":"Feature","id":"toponymie.132538","geometry":{"type":"Point","coordinates":[3.76086452,48.52738044]},"geometry_name":"geometrie","properties":{"classe_de_l_objet":"Cours d'eau","nature_de_l_objet":null,"nature_detaillee_de_l_objet":null,"graphie_du_toponyme":"canal des moulins","source_du_toponyme":"IGN;BDCarthage","statut_du_toponyme":"Validé","date_du_toponyme":"1994-02-01Z","langue_du_toponyme":null,"cleabs_de_l_objet":"COURDEAU0000002000813420"}},{"type":"Feature","id":"toponymie.52324","geometry":{"type":"Point","coordinates":[3.82176681,48.51634507]},"geometry_name":"geometrie","properties":{"classe_de_l_objet":"Cours d'eau","nature_de_l_objet":null,"nature_detaillee_de_l_objet":null,"graphie_du_toponyme":"bras de la noue de ferloup","source_du_toponyme":"BDCarthage","statut_du_toponyme":"Collecté","date_du_toponyme":"2017-01-24Z","langue_du_toponyme":null,"cleabs_de_l_objet":"COURDEAU0000002000813423"}},{"type":"Feature","id":"toponymie.118153","geometry":{"type":"Point","coordinates":[3.75102312,48.5174222]},"geometry_name":"geometrie","properties":{"classe_de_l_objet":"Cours d'eau","nature_de_l_objet":null,"nature_detaillee_de_l_objet":null,"graphie_du_toponyme":"cours d'eau 01 du gué de vailly","source_du_toponyme":"BDCarthage","statut_du_toponyme":"Collecté","date_du_toponyme":"2017-01-24Z","langue_du_toponyme":null,"cleabs_de_l_objet":"COURDEAU0000002000813441"}},{"type":"Feature","id":"toponymie.73322","geometry":{"type":"Point","coordinates":[3.81228393,48.51337221]},"geometry_name":"geometrie","properties":{"classe_de_l_objet":"Cours d'eau","nature_de_l_objet":null,"nature_detaillee_de_l_objet":null,"graphie_du_toponyme":"bras des moulins de poussey","source_du_toponyme":"BDCarthage","statut_du_toponyme":"Collecté","date_du_toponyme":"2017-01-24Z","langue_du_toponyme":null,"cleabs_de_l_objet":"COURDEAU0000002000813443"}},{"type":"Feature","id":"toponymie.120987","geometry":{"type":"Point","coordinates":[3.81250852,48.51309809]},"geometry_name":"geometrie","properties":{"classe_de_l_objet":"Cours d'eau","nature_de_l_objet":null,"nature_detaillee_de_l_objet":null,"graphie_du_toponyme":"ruisseau des moulins de poussey","source_du_toponyme":"IGN;BDCarthage","statut_du_toponyme":"Collecté","date_du_toponyme":"1900-01-01Z","langue_du_toponyme":null,"cleabs_de_l_objet":"COURDEAU0000002000813469"}},{"type":"Feature","id":"toponymie.2173565","geometry":{"type":"Point","coordinates":[3.82284632,48.50160069]},"geometry_name":"geometrie","properties":{"classe_de_l_objet":"Equipement de transport","nature_de_l_objet":"Gare fret uniquement","nature_detaillee_de_l_objet":null,"graphie_du_toponyme":"arrêt de fret de châtres","source_du_toponyme":"Internet","statut_du_toponyme":"Collecté","date_du_toponyme":"2012-09-11Z","langue_du_toponyme":null,"cleabs_de_l_objet":"EQ_RESEA0000000312835745"}},{"type":"Feature","id":"toponymie.2697864","geometry":{"type":"Point","coordinates":[3.81201443,48.52868161]},"geometry_name":"geometrie","properties":{"classe_de_l_objet":"Forêt publique","nature_de_l_objet":"Autre forêt publique","nature_detaillee_de_l_objet":null,"graphie_du_toponyme":"forêt communale de clesles","source_du_toponyme":"ONF","statut_du_toponyme":"Collecté","date_du_toponyme":"2021-07-26Z","langue_du_toponyme":null,"cleabs_de_l_objet":"FORETPUB0000002221756837"}},{"type":"Feature","id":"toponymie.2011911","geometry":{"type":"Point","coordinates":[3.75746908,48.5309457]},"geometry_name":"geometrie","properties":{"classe_de_l_objet":"Lieu-dit non habité","nature_de_l_objet":"Lieu-dit non habité","nature_detaillee_de_l_objet":null,"graphie_du_toponyme":"l'outre seine","source_du_toponyme":"IGN;BAN","statut_du_toponyme":"Validé","date_du_toponyme":"1994-02-01Z","langue_du_toponyme":null,"cleabs_de_l_objet":"PAIE_NAT0000000009296251"}},{"type":"Feature","id":"toponymie.1606202","geometry":{"type":"Point","coordinates":[3.80930004,48.51594392]},"geometry_name":"geometrie","properties":{"classe_de_l_objet":"Lieu-dit non habité","nature_de_l_objet":"Lieu-dit non habité","nature_detaillee_de_l_objet":null,"graphie_du_toponyme":"jonchery","source_du_toponyme":"IGN","statut_du_toponyme":"Validé","date_du_toponyme":"1994-02-01Z","langue_du_toponyme":null,"cleabs_de_l_objet":"PAIE_NAT0000000009296431"}},{"type":"Feature","id":"toponymie.1565200","geometry":{"type":"Point","coordinates":[3.80669728,48.52156897]},"geometry_name":"geometrie","properties":{"classe_de_l_objet":"Lieu-dit non habité","nature_de_l_objet":"Lieu-dit non habité","nature_detaillee_de_l_objet":null,"graphie_du_toponyme":"la fondrière","source_du_toponyme":"IGN","statut_du_toponyme":"Validé","date_du_toponyme":"1994-02-01Z","langue_du_toponyme":null,"cleabs_de_l_objet":"PAIE_NAT0000000009296432"}},{"type":"Feature","id":"toponymie.1794637","geometry":{"type":"Point","coordinates":[3.83176121,48.51487122]},"geometry_name":"geometrie","properties":{"classe_de_l_objet":"Lieu-dit non habité","nature_de_l_objet":"Lieu-dit non habité","nature_detaillee_de_l_objet":null,"graphie_du_toponyme":"les lots","source_du_toponyme":"IGN","statut_du_toponyme":"Validé","date_du_toponyme":"1994-02-01Z","langue_du_toponyme":null,"cleabs_de_l_objet":"PAIE_NAT0000000009296433"}},{"type":"Feature","id":"toponymie.1886844","geometry":{"type":"Point","coordinates":[3.78363391,48.52108004]},"geometry_name":"geometrie","properties":{"classe_de_l_objet":"Lieu-dit non habité","nature_de_l_objet":"Bois","nature_detaillee_de_l_objet":null,"graphie_du_toponyme":"les grandes pâtures","source_du_toponyme":"IGN","statut_du_toponyme":"Validé","date_du_toponyme":"1994-02-01Z","langue_du_toponyme":null,"cleabs_de_l_objet":"PAIE_NAT0000000009296434"}},{"type":"Feature","id":"toponymie.1908533","geometry":{"type":"Point","coordinates":[3.79894841,48.52424551]},"geometry_name":"geometrie","properties":{"classe_de_l_objet":"Lieu-dit non habité","nature_de_l_objet":"Bois","nature_detaillee_de_l_objet":null,"graphie_du_toponyme":"les dublées","source_du_toponyme":"IGN","statut_du_toponyme":"Validé","date_du_toponyme":"1994-02-01Z","langue_du_toponyme":null,"cleabs_de_l_objet":"PAIE_NAT0000000009296435"}},{"type":"Feature","id":"toponymie.1736755","geometry":{"type":"Point","coordinates":[3.77938489,48.52749796]},"geometry_name":"geometrie","properties":{"classe_de_l_objet":"Lieu-dit non habité","nature_de_l_objet":"Lieu-dit non habité","nature_detaillee_de_l_objet":null,"graphie_du_toponyme":"pré cossa","source_du_toponyme":"IGN","statut_du_toponyme":"Validé","date_du_toponyme":"1994-02-01Z","langue_du_toponyme":null,"cleabs_de_l_objet":"PAIE_NAT0000000009296436"}},{"type":"Feature","id":"toponymie.1648325","geometry":{"type":"Point","coordinates":[3.79043596,48.5271731]},"geometry_name":"geometrie","properties":{"classe_de_l_objet":"Lieu-dit non habité","nature_de_l_objet":"Lieu-dit non habité","nature_detaillee_de_l_objet":null,"graphie_du_toponyme":"le beau mont","source_du_toponyme":"IGN","statut_du_toponyme":"Validé","date_du_toponyme":"1994-02-01Z","langue_du_toponyme":null,"cleabs_de_l_objet":"PAIE_NAT0000000009296437"}},{"type":"Feature","id":"toponymie.1886845","geometry":{"type":"Point","coordinates":[3.77369387,48.51942958]},"geometry_name":"geometrie","properties":{"classe_de_l_objet":"Lieu-dit non habité","nature_de_l_objet":"Bois","nature_detaillee_de_l_objet":null,"graphie_du_toponyme":"la noue des fontaines","source_du_toponyme":"IGN","statut_du_toponyme":"Validé","date_du_toponyme":"1994-02-01Z","langue_du_toponyme":null,"cleabs_de_l_objet":"PAIE_NAT0000000009296438"}},{"type":"Feature","id":"toponymie.1736756","geometry":{"type":"Point","coordinates":[3.7964097,48.5200955]},"geometry_name":"geometrie","properties":{"classe_de_l_objet":"Lieu-dit non habité","nature_de_l_objet":"Lieu-dit non habité","nature_detaillee_de_l_objet":null,"graphie_du_toponyme":"les converts","source_du_toponyme":"IGN","statut_du_toponyme":"Validé","date_du_toponyme":"1994-02-01Z","langue_du_toponyme":null,"cleabs_de_l_objet":"PAIE_NAT0000000009296439"}},{"type":"Feature","id":"toponymie.1648326","geometry":{"type":"Point","coordinates":[3.78028738,48.51751526]},"geometry_name":"geometrie","properties":{"classe_de_l_objet":"Lieu-dit non habité","nature_de_l_objet":"Lieu-dit non habité","nature_detaillee_de_l_objet":null,"graphie_du_toponyme":"la grosse noue","source_du_toponyme":"IGN","statut_du_toponyme":"Validé","date_du_toponyme":"1994-02-01Z","langue_du_toponyme":null,"cleabs_de_l_objet":"PAIE_NAT0000000009296440"}},{"type":"Feature","id":"toponymie.1648327","geometry":{"type":"Point","coordinates":[3.78866898,48.51522797]},"geometry_name":"geometrie","properties":{"classe_de_l_objet":"Lieu-dit non habité","nature_de_l_objet":"Lieu-dit non habité","nature_detaillee_de_l_objet":null,"graphie_du_toponyme":"le château","source_du_toponyme":"IGN","statut_du_toponyme":"Validé","date_du_toponyme":"1994-02-01Z","langue_du_toponyme":null,"cleabs_de_l_objet":"PAIE_NAT0000000009296441"}},{"type":"Feature","id":"toponymie.1691728","geometry":{"type":"Point","coordinates":[3.78898951,48.51799309]},"geometry_name":"geometrie","properties":{"classe_de_l_objet":"Lieu-dit non habité","nature_de_l_objet":"Lieu-dit non habité","nature_detaillee_de_l_objet":null,"graphie_du_toponyme":"prés neufs","source_du_toponyme":"IGN","statut_du_toponyme":"Validé","date_du_toponyme":"1994-02-01Z","langue_du_toponyme":null,"cleabs_de_l_objet":"PAIE_NAT0000000009296442"}},{"type":"Feature","id":"toponymie.1648328","geometry":{"type":"Point","coordinates":[3.75478256,48.52224733]},"geometry_name":"geometrie","properties":{"classe_de_l_objet":"Lieu-dit non habité","nature_de_l_objet":"Lieu-dit non habité","nature_detaillee_de_l_objet":null,"graphie_du_toponyme":"les épinettes","source_du_toponyme":"IGN","statut_du_toponyme":"Validé","date_du_toponyme":"1994-02-01Z","langue_du_toponyme":null,"cleabs_de_l_objet":"PAIE_NAT0000000009296443"}},{"type":"Feature","id":"toponymie.1691729","geometry":{"type":"Point","coordinates":[3.75460763,48.51582966]},"geometry_name":"geometrie","properties":{"classe_de_l_objet":"Lieu-dit non habité","nature_de_l_objet":"Lieu-dit non habité","nature_detaillee_de_l_objet":null,"graphie_du_toponyme":"le gué de vailly","source_du_toponyme":"IGN","statut_du_toponyme":"Validé","date_du_toponyme":"1994-02-01Z","langue_du_toponyme":null,"cleabs_de_l_objet":"PAIE_NAT0000000009296444"}},{"type":"Feature","id":"toponymie.1691748","geometry":{"type":"Point","coordinates":[3.81839107,48.50628169]},"geometry_name":"geometrie","properties":{"classe_de_l_objet":"Lieu-dit non habité","nature_de_l_objet":"Lieu-dit non habité","nature_detaillee_de_l_objet":null,"graphie_du_toponyme":"la lampe","source_du_toponyme":"IGN","statut_du_toponyme":"Validé","date_du_toponyme":"1994-02-01Z","langue_du_toponyme":null,"cleabs_de_l_objet":"PAIE_NAT0000000009296642"}},{"type":"Feature","id":"toponymie.1999368","geometry":{"type":"Point","coordinates":[3.81105156,48.50898053]},"geometry_name":"geometrie","properties":{"classe_de_l_objet":"Lieu-dit non habité","nature_de_l_objet":"Lieu-dit non habité","nature_detaillee_de_l_objet":null,"graphie_du_toponyme":"le rougemont","source_du_toponyme":"IGN;BAN","statut_du_toponyme":"Validé","date_du_toponyme":"1994-02-01Z","langue_du_toponyme":null,"cleabs_de_l_objet":"PAIE_NAT0000000009296643"}},{"type":"Feature","id":"toponymie.1794656","geometry":{"type":"Point","coordinates":[3.83054079,48.50389881]},"geometry_name":"geometrie","properties":{"classe_de_l_objet":"Lieu-dit non habité","nature_de_l_objet":"Lieu-dit non habité","nature_detaillee_de_l_objet":null,"graphie_du_toponyme":"le champ potet","source_du_toponyme":"IGN","statut_du_toponyme":"Validé","date_du_toponyme":"1994-02-01Z","langue_du_toponyme":null,"cleabs_de_l_objet":"PAIE_NAT0000000009296645"}},{"type":"Feature","id":"toponymie.1691749","geometry":{"type":"Point","coordinates":[3.80973835,48.50460017]},"geometry_name":"geometrie","properties":{"classe_de_l_objet":"Lieu-dit non habité","nature_de_l_objet":"Lieu-dit non habité","nature_detaillee_de_l_objet":null,"graphie_du_toponyme":"la cave","source_du_toponyme":"IGN","statut_du_toponyme":"Validé","date_du_toponyme":"1994-02-01Z","langue_du_toponyme":null,"cleabs_de_l_objet":"PAIE_NAT0000000009296646"}},{"type":"Feature","id":"toponymie.1565213","geometry":{"type":"Point","coordinates":[3.77667804,48.50686843]},"geometry_name":"geometrie","properties":{"classe_de_l_objet":"Lieu-dit non habité","nature_de_l_objet":"Lieu-dit non habité","nature_detaillee_de_l_objet":null,"graphie_du_toponyme":"les masures","source_du_toponyme":"IGN","statut_du_toponyme":"Validé","date_du_toponyme":"1994-02-01Z","langue_du_toponyme":null,"cleabs_de_l_objet":"PAIE_NAT0000000009296647"}},{"type":"Feature","id":"toponymie.1980621","geometry":{"type":"Point","coordinates":[3.76500209,48.50843126]},"geometry_name":"geometrie","properties":{"classe_de_l_objet":"Lieu-dit non habité","nature_de_l_objet":"Lieu-dit non habité","nature_detaillee_de_l_objet":null,"graphie_du_toponyme":"le pont bancelin","source_du_toponyme":"IGN;Cadastre;SGA","statut_du_toponyme":"Validé","date_du_toponyme":"2015-10-22Z","langue_du_toponyme":null,"cleabs_de_l_objet":"PAIE_NAT0000000009296648"}},{"type":"Feature","id":"toponymie.1736780","geometry":{"type":"Point","coordinates":[3.76737114,48.51341071]},"geometry_name":"geometrie","properties":{"classe_de_l_objet":"Lieu-dit non habité","nature_de_l_objet":"Lieu-dit non habité","nature_detaillee_de_l_objet":null,"graphie_du_toponyme":"le grand haut","source_du_toponyme":"IGN","statut_du_toponyme":"Validé","date_du_toponyme":"1994-02-01Z","langue_du_toponyme":null,"cleabs_de_l_objet":"PAIE_NAT0000000009296649"}},{"type":"Feature","id":"toponymie.1943070","geometry":{"type":"Point","coordinates":[3.77235208,48.50951095]},"geometry_name":"geometrie","properties":{"classe_de_l_objet":"Lieu-dit non habité","nature_de_l_objet":"Bois","nature_detaillee_de_l_objet":null,"graphie_du_toponyme":"la léchère","source_du_toponyme":"IGN","statut_du_toponyme":"Validé","date_du_toponyme":"1994-02-01Z","langue_du_toponyme":null,"cleabs_de_l_objet":"PAIE_NAT0000000009296650"}},{"type":"Feature","id":"toponymie.1606230","geometry":{"type":"Point","coordinates":[3.79932865,48.50831687]},"geometry_name":"geometrie","properties":{"classe_de_l_objet":"Lieu-dit non habité","nature_de_l_objet":"Lieu-dit non habité","nature_detaillee_de_l_objet":null,"graphie_du_toponyme":"la haute beaune","source_du_toponyme":"IGN","statut_du_toponyme":"Validé","date_du_toponyme":"1994-02-01Z","langue_du_toponyme":null,"cleabs_de_l_objet":"PAIE_NAT0000000009296651"}},{"type":"Feature","id":"toponymie.1648368","geometry":{"type":"Point","coordinates":[3.82213538,48.49761211]},"geometry_name":"geometrie","properties":{"classe_de_l_objet":"Lieu-dit non habité","nature_de_l_objet":"Lieu-dit non habité","nature_detaillee_de_l_objet":null,"graphie_du_toponyme":"le noyer bourdeau","source_du_toponyme":"IGN","statut_du_toponyme":"Validé","date_du_toponyme":"1994-02-01Z","langue_du_toponyme":null,"cleabs_de_l_objet":"PAIE_NAT0000000009296831"}},{"type":"Feature","id":"toponymie.1794680","geometry":{"type":"Point","coordinates":[3.83257922,48.49756097]},"geometry_name":"geometrie","properties":{"classe_de_l_objet":"Lieu-dit non habité","nature_de_l_objet":"Lieu-dit non habité","nature_detaillee_de_l_objet":null,"graphie_du_toponyme":"le chemin de nogent","source_du_toponyme":"IGN","statut_du_toponyme":"Validé","date_du_toponyme":"1994-02-01Z","langue_du_toponyme":null,"cleabs_de_l_objet":"PAIE_NAT0000000009296832"}},{"type":"Feature","id":"toponymie.1648369","geometry":{"type":"Point","coordinates":[3.82550153,48.48562886]},"geometry_name":"geometrie","properties":{"classe_de_l_objet":"Lieu-dit non habité","nature_de_l_objet":"Lieu-dit non habité","nature_detaillee_de_l_objet":null,"graphie_du_toponyme":"le champ mouton","source_du_toponyme":"IGN","statut_du_toponyme":"Validé","date_du_toponyme":"1994-02-01Z","langue_du_toponyme":null,"cleabs_de_l_objet":"PAIE_NAT0000000009296833"}},{"type":"Feature","id":"toponymie.1606248","geometry":{"type":"Point","coordinates":[3.8074847,48.49328095]},"geometry_name":"geometrie","properties":{"classe_de_l_objet":"Lieu-dit non habité","nature_de_l_objet":"Lieu-dit non habité","nature_detaillee_de_l_objet":null,"graphie_du_toponyme":"le crot aux laines","source_du_toponyme":"IGN","statut_du_toponyme":"Validé","date_du_toponyme":"1994-02-01Z","langue_du_toponyme":null,"cleabs_de_l_objet":"PAIE_NAT0000000009296836"}},{"type":"Feature","id":"toponymie.1691777","geometry":{"type":"Point","coordinates":[3.83232702,48.49394976]},"geometry_name":"geometrie","properties":{"classe_de_l_objet":"Lieu-dit non habité","nature_de_l_objet":"Lieu-dit non habité","nature_detaillee_de_l_objet":null,"graphie_du_toponyme":"les mées","source_du_toponyme":"IGN","statut_du_toponyme":"Validé","date_du_toponyme":"1994-02-01Z","langue_du_toponyme":null,"cleabs_de_l_objet":"PAIE_NAT0000000009296837"}},{"type":"Feature","id":"toponymie.1648370","geometry":{"type":"Point","coordinates":[3.79087336,48.485044]},"geometry_name":"geometrie","properties":{"classe_de_l_objet":"Lieu-dit non habité","nature_de_l_objet":"Lieu-dit non habité","nature_detaillee_de_l_objet":null,"graphie_du_toponyme":"le crot tonnerre","source_du_toponyme":"IGN","statut_du_toponyme":"Validé","date_du_toponyme":"1994-02-01Z","langue_du_toponyme":null,"cleabs_de_l_objet":"PAIE_NAT0000000009296839"}},{"type":"Feature","id":"toponymie.1837285","geometry":{"type":"Point","coordinates":[3.76437037,48.49174172]},"geometry_name":"geometrie","properties":{"classe_de_l_objet":"Lieu-dit non habité","nature_de_l_objet":"Lieu-dit non habité","nature_detaillee_de_l_objet":null,"graphie_du_toponyme":"le champ à colin","source_du_toponyme":"IGN","statut_du_toponyme":"Validé","date_du_toponyme":"1994-02-01Z","langue_du_toponyme":null,"cleabs_de_l_objet":"PAIE_NAT0000000009296840"}},{"type":"Feature","id":"toponymie.1606249","geometry":{"type":"Point","coordinates":[3.78644304,48.49500638]},"geometry_name":"geometrie","properties":{"classe_de_l_objet":"Lieu-dit non habité","nature_de_l_objet":"Lieu-dit non habité","nature_detaillee_de_l_objet":null,"graphie_du_toponyme":"la dîme du saint","source_du_toponyme":"IGN","statut_du_toponyme":"Validé","date_du_toponyme":"1994-02-01Z","langue_du_toponyme":null,"cleabs_de_l_objet":"PAIE_NAT0000000009296841"}},{"type":"Feature","id":"toponymie.1972546","geometry":{"type":"Point","coordinates":[3.76911646,48.49909351]},"geometry_name":"geometrie","properties":{"classe_de_l_objet":"Lieu-dit non habité","nature_de_l_objet":"Lieu-dit non habité","nature_detaillee_de_l_objet":null,"graphie_du_toponyme":"les carreaux","source_du_toponyme":"IGN","statut_du_toponyme":"Validé","date_du_toponyme":"1994-02-01Z","langue_du_toponyme":null,"cleabs_de_l_objet":"PAIE_NAT0000000009296842"}},{"type":"Feature","id":"toponymie.1565231","geometry":{"type":"Point","coordinates":[3.77996336,48.48670582]},"geometry_name":"geometrie","properties":{"classe_de_l_objet":"Lieu-dit non habité","nature_de_l_objet":"Lieu-dit non habité","nature_detaillee_de_l_objet":null,"graphie_du_toponyme":"le morembert","source_du_toponyme":"IGN","statut_du_toponyme":"Validé","date_du_toponyme":"1994-02-01Z","langue_du_toponyme":null,"cleabs_de_l_objet":"PAIE_NAT0000000009296843"}},{"type":"Feature","id":"toponymie.1794681","geometry":{"type":"Point","coordinates":[3.77062977,48.49162121]},"geometry_name":"geometrie","properties":{"classe_de_l_objet":"Lieu-dit non habité","nature_de_l_objet":"Lieu-dit non habité","nature_detaillee_de_l_objet":null,"graphie_du_toponyme":"le tripier","source_du_toponyme":"IGN","statut_du_toponyme":"Validé","date_du_toponyme":"1994-02-01Z","langue_du_toponyme":null,"cleabs_de_l_objet":"PAIE_NAT0000000009296844"}},{"type":"Feature","id":"toponymie.1691778","geometry":{"type":"Point","coordinates":[3.75421067,48.48671199]},"geometry_name":"geometrie","properties":{"classe_de_l_objet":"Lieu-dit non habité","nature_de_l_objet":"Lieu-dit non habité","nature_detaillee_de_l_objet":null,"graphie_du_toponyme":"le puy","source_du_toponyme":"IGN","statut_du_toponyme":"Validé","date_du_toponyme":"1994-02-01Z","langue_du_toponyme":null,"cleabs_de_l_objet":"PAIE_NAT0000000009296845"}},{"type":"Feature","id":"toponymie.1648392","geometry":{"type":"Point","coordinates":[3.80685621,48.47335437]},"geometry_name":"geometrie","properties":{"classe_de_l_objet":"Lieu-dit non habité","nature_de_l_objet":"Lieu-dit non habité","nature_detaillee_de_l_objet":null,"graphie_du_toponyme":"le terrage","source_du_toponyme":"IGN","statut_du_toponyme":"Validé","date_du_toponyme":"1994-02-01Z","langue_du_toponyme":null,"cleabs_de_l_objet":"PAIE_NAT0000000009297034"}},{"type":"Feature","id":"toponymie.1565253","geometry":{"type":"Point","coordinates":[3.82440465,48.47559004]},"geometry_name":"geometrie","properties":{"classe_de_l_objet":"Lieu-dit non habité","nature_de_l_objet":"Lieu-dit non habité","nature_detaillee_de_l_objet":null,"graphie_du_toponyme":"le champ aux choux","source_du_toponyme":"IGN","statut_du_toponyme":"Validé","date_du_toponyme":"1994-02-01Z","langue_du_toponyme":null,"cleabs_de_l_objet":"PAIE_NAT0000000009297036"}},{"type":"Feature","id":"toponymie.1648394","geometry":{"type":"Point","coordinates":[3.81183945,48.4827245]},"geometry_name":"geometrie","properties":{"classe_de_l_objet":"Lieu-dit non habité","nature_de_l_objet":"Lieu-dit non habité","nature_detaillee_de_l_objet":null,"graphie_du_toponyme":"le crot d'origny","source_du_toponyme":"IGN","statut_du_toponyme":"Validé","date_du_toponyme":"1994-02-01Z","langue_du_toponyme":null,"cleabs_de_l_objet":"PAIE_NAT0000000009297042"}},{"type":"Feature","id":"toponymie.1837306","geometry":{"type":"Point","coordinates":[3.77213558,48.47750409]},"geometry_name":"geometrie","properties":{"classe_de_l_objet":"Lieu-dit non habité","nature_de_l_objet":"Lieu-dit non habité","nature_detaillee_de_l_objet":null,"graphie_du_toponyme":"la bretonnière","source_du_toponyme":"IGN","statut_du_toponyme":"Validé","date_du_toponyme":"1994-02-01Z","langue_du_toponyme":null,"cleabs_de_l_objet":"PAIE_NAT0000000009297043"}},{"type":"Feature","id":"toponymie.1648395","geometry":{"type":"Point","coordinates":[3.80084132,48.47587544]},"geometry_name":"geometrie","properties":{"classe_de_l_objet":"Lieu-dit non habité","nature_de_l_objet":"Lieu-dit non habité","nature_detaillee_de_l_objet":null,"graphie_du_toponyme":"la chapelle d'origny","source_du_toponyme":"IGN","statut_du_toponyme":"Validé","date_du_toponyme":"1994-02-01Z","langue_du_toponyme":null,"cleabs_de_l_objet":"PAIE_NAT0000000009297044"}},{"type":"Feature","id":"toponymie.1539233","geometry":{"type":"Point","coordinates":[3.79316169,48.47688691]},"geometry_name":"geometrie","properties":{"classe_de_l_objet":"Lieu-dit non habité","nature_de_l_objet":"Lieu-dit non habité","nature_detaillee_de_l_objet":null,"graphie_du_toponyme":"l'épinette","source_du_toponyme":"IGN","statut_du_toponyme":"Validé","date_du_toponyme":"1994-02-01Z","langue_du_toponyme":null,"cleabs_de_l_objet":"PAIE_NAT0000000009297045"}},{"type":"Feature","id":"toponymie.1736813","geometry":{"type":"Point","coordinates":[3.75902485,48.48121419]},"geometry_name":"geometrie","properties":{"classe_de_l_objet":"Lieu-dit non habité","nature_de_l_objet":"Lieu-dit non habité","nature_detaillee_de_l_objet":null,"graphie_du_toponyme":"les grandes pièces","source_du_toponyme":"IGN","statut_du_toponyme":"Validé","date_du_toponyme":"1994-02-01Z","langue_du_toponyme":null,"cleabs_de_l_objet":"PAIE_NAT0000000009297046"}},{"type":"Feature","id":"toponymie.1736814","geometry":{"type":"Point","coordinates":[3.75459738,48.474074]},"geometry_name":"geometrie","properties":{"classe_de_l_objet":"Lieu-dit non habité","nature_de_l_objet":"Lieu-dit non habité","nature_detaillee_de_l_objet":null,"graphie_du_toponyme":"le mesnil","source_du_toponyme":"IGN","statut_du_toponyme":"Validé","date_du_toponyme":"1994-02-01Z","langue_du_toponyme":null,"cleabs_de_l_objet":"PAIE_NAT0000000009297047"}},{"type":"Feature","id":"toponymie.1631853","geometry":{"type":"Point","coordinates":[3.80923217,48.5332261]},"geometry_name":"geometrie","properties":{"classe_de_l_objet":"Lieu-dit non habité","nature_de_l_objet":"Lieu-dit non habité","nature_detaillee_de_l_objet":null,"graphie_du_toponyme":"le champ du renard","source_du_toponyme":"IGN","statut_du_toponyme":"Validé","date_du_toponyme":"1994-02-01Z","langue_du_toponyme":null,"cleabs_de_l_objet":"PAIE_NAT0000000065101487"}},{"type":"Feature","id":"toponymie.1925921","geometry":{"type":"Point","coordinates":[3.8005972,48.53475363]},"geometry_name":"geometrie","properties":{"classe_de_l_objet":"Lieu-dit non habité","nature_de_l_objet":"Bois","nature_detaillee_de_l_objet":null,"graphie_du_toponyme":"le haut du manche","source_du_toponyme":"IGN","statut_du_toponyme":"Validé","date_du_toponyme":"1994-02-01Z","langue_du_toponyme":null,"cleabs_de_l_objet":"PAIE_NAT0000000065101491"}},{"type":"Feature","id":"toponymie.1718833","geometry":{"type":"Point","coordinates":[3.79100924,48.53079024]},"geometry_name":"geometrie","properties":{"classe_de_l_objet":"Lieu-dit non habité","nature_de_l_objet":"Lieu-dit non habité","nature_detaillee_de_l_objet":null,"graphie_du_toponyme":"tournay","source_du_toponyme":"IGN","statut_du_toponyme":"Validé","date_du_toponyme":"1994-02-01Z","langue_du_toponyme":null,"cleabs_de_l_objet":"PAIE_NAT0000000065101492"}},{"type":"Feature","id":"toponymie.1820333","geometry":{"type":"Point","coordinates":[3.82973443,48.53012774]},"geometry_name":"geometrie","properties":{"classe_de_l_objet":"Lieu-dit non habité","nature_de_l_objet":"Lieu-dit non habité","nature_detaillee_de_l_objet":null,"graphie_du_toponyme":"le gobyat","source_du_toponyme":"IGN","statut_du_toponyme":"Validé","date_du_toponyme":"1994-02-01Z","langue_du_toponyme":null,"cleabs_de_l_objet":"PAIE_NAT0000000065101496"}},{"type":"Feature","id":"toponymie.1820334","geometry":{"type":"Point","coordinates":[3.76983915,48.53082306]},"geometry_name":"geometrie","properties":{"classe_de_l_objet":"Lieu-dit non habité","nature_de_l_objet":"Lieu-dit non habité","nature_detaillee_de_l_objet":null,"graphie_du_toponyme":"les menus prés","source_du_toponyme":"IGN","statut_du_toponyme":"Validé","date_du_toponyme":"1994-02-01Z","langue_du_toponyme":null,"cleabs_de_l_objet":"PAIE_NAT0000000065101499"}},{"type":"Feature","id":"toponymie.1550632","geometry":{"type":"Point","coordinates":[3.75268047,48.53459074]},"geometry_name":"geometrie","properties":{"classe_de_l_objet":"Lieu-dit non habité","nature_de_l_objet":"Lieu-dit non habité","nature_detaillee_de_l_objet":null,"graphie_du_toponyme":"la rosière","source_du_toponyme":"IGN","statut_du_toponyme":"Validé","date_du_toponyme":"1994-02-01Z","langue_du_toponyme":null,"cleabs_de_l_objet":"PAIE_NAT0000000065101500"}},{"type":"Feature","id":"toponymie.1863101","geometry":{"type":"Point","coordinates":[3.83188243,48.52396741]},"geometry_name":"geometrie","properties":{"classe_de_l_objet":"Lieu-dit non habité","nature_de_l_objet":"Lieu-dit non habité","nature_detaillee_de_l_objet":null,"graphie_du_toponyme":"les marais","source_du_toponyme":"IGN","statut_du_toponyme":"Validé","date_du_toponyme":"1994-02-01Z","langue_du_toponyme":null,"cleabs_de_l_objet":"PAIE_NAT0000000065101517"}},{"type":"Feature","id":"toponymie.1937107","geometry":{"type":"Point","coordinates":[3.81863061,48.52284942]},"geometry_name":"geometrie","properties":{"classe_de_l_objet":"Lieu-dit non habité","nature_de_l_objet":"Bois","nature_detaillee_de_l_objet":null,"graphie_du_toponyme":"les lignes du midi","source_du_toponyme":"IGN","statut_du_toponyme":"Validé","date_du_toponyme":"1994-02-01Z","langue_du_toponyme":null,"cleabs_de_l_objet":"PAIE_NAT0000000065101520"}},{"type":"Feature","id":"toponymie.1949322","geometry":{"type":"Point","coordinates":[3.82375608,48.51747113]},"geometry_name":"geometrie","properties":{"classe_de_l_objet":"Lieu-dit non habité","nature_de_l_objet":"Bois","nature_detaillee_de_l_objet":null,"graphie_du_toponyme":"les cent arpents","source_du_toponyme":"IGN","statut_du_toponyme":"Validé","date_du_toponyme":"1994-02-01Z","langue_du_toponyme":null,"cleabs_de_l_objet":"PAIE_NAT0000000065101521"}},{"type":"Feature","id":"toponymie.1937108","geometry":{"type":"Point","coordinates":[3.82685682,48.52604552]},"geometry_name":"geometrie","properties":{"classe_de_l_objet":"Lieu-dit non habité","nature_de_l_objet":"Bois","nature_detaillee_de_l_objet":null,"graphie_du_toponyme":"moitié payen","source_du_toponyme":"IGN","statut_du_toponyme":"Validé","date_du_toponyme":"1994-02-01Z","langue_du_toponyme":null,"cleabs_de_l_objet":"PAIE_NAT0000000065101522"}},{"type":"Feature","id":"toponymie.1915143","geometry":{"type":"Point","coordinates":[3.80933091,48.52663393]},"geometry_name":"geometrie","properties":{"classe_de_l_objet":"Lieu-dit non habité","nature_de_l_objet":"Bois","nature_detaillee_de_l_objet":null,"graphie_du_toponyme":"la folie","source_du_toponyme":"IGN","statut_du_toponyme":"Validé","date_du_toponyme":"1994-02-01Z","langue_du_toponyme":null,"cleabs_de_l_objet":"PAIE_NAT0000000065101523"}},{"type":"Feature","id":"toponymie.1968628","geometry":{"type":"Point","coordinates":[3.81984138,48.48065521]},"geometry_name":"geometrie","properties":{"classe_de_l_objet":"Lieu-dit non habité","nature_de_l_objet":"Lieu-dit non habité","nature_detaillee_de_l_objet":null,"graphie_du_toponyme":"la févrose","source_du_toponyme":"IGN","statut_du_toponyme":"Validé","date_du_toponyme":"1994-02-01Z","langue_du_toponyme":null,"cleabs_de_l_objet":"PAIE_NAT0000002201786405"}},{"type":"Feature","id":"toponymie.735349","geometry":{"type":"Point","coordinates":[3.74970497,48.53216261]},"geometry_name":"geometrie","properties":{"classe_de_l_objet":"Zone d'habitation","nature_de_l_objet":"Lieu-dit habité","nature_detaillee_de_l_objet":null,"graphie_du_toponyme":"le passage","source_du_toponyme":"IGN","statut_du_toponyme":"Validé","date_du_toponyme":"1994-02-01Z","langue_du_toponyme":null,"cleabs_de_l_objet":"PAIHABIT0000000009338326"}},{"type":"Feature","id":"toponymie.655873","geometry":{"type":"Point","coordinates":[3.80417852,48.51283358]},"geometry_name":"geometrie","properties":{"classe_de_l_objet":"Zone d'habitation","nature_de_l_objet":"Quartier","nature_detaillee_de_l_objet":null,"graphie_du_toponyme":"poussey","source_du_toponyme":"IGN;BAN","statut_du_toponyme":"Validé","date_du_toponyme":"1994-02-01Z","langue_du_toponyme":null,"cleabs_de_l_objet":"PAIHABIT0000000009338384"}},{"type":"Feature","id":"toponymie.1262842","geometry":{"type":"Point","coordinates":[3.78432076,48.50144382]},"geometry_name":"geometrie","properties":{"classe_de_l_objet":"Zone d'habitation","nature_de_l_objet":"Quartier","nature_detaillee_de_l_objet":null,"graphie_du_toponyme":"les granges","source_du_toponyme":"IGN;BAN","statut_du_toponyme":"Validé","date_du_toponyme":"1994-02-01Z","langue_du_toponyme":null,"cleabs_de_l_objet":"PAIHABIT0000000009338385"}},{"type":"Feature","id":"toponymie.526915","geometry":{"type":"Point","coordinates":[3.79157669,48.49964591]},"geometry_name":"geometrie","properties":{"classe_de_l_objet":"Zone d'habitation","nature_de_l_objet":"Lieu-dit habité","nature_detaillee_de_l_objet":null,"graphie_du_toponyme":"la chefferie","source_du_toponyme":"IGN;BAN","statut_du_toponyme":"Validé","date_du_toponyme":"1994-02-01Z","langue_du_toponyme":null,"cleabs_de_l_objet":"PAIHABIT0000000009338386"}},{"type":"Feature","id":"toponymie.465489","geometry":{"type":"Point","coordinates":[3.79655766,48.51325195]},"geometry_name":"geometrie","properties":{"classe_de_l_objet":"Zone d'habitation","nature_de_l_objet":"Quartier","nature_detaillee_de_l_objet":null,"graphie_du_toponyme":"le craon","source_du_toponyme":"IGN","statut_du_toponyme":"Validé","date_du_toponyme":"1994-02-01Z","langue_du_toponyme":null,"cleabs_de_l_objet":"PAIHABIT0000000009338387"}},{"type":"Feature","id":"toponymie.924347","geometry":{"type":"Point","coordinates":[3.78924389,48.50826103]},"geometry_name":"geometrie","properties":{"classe_de_l_objet":"Zone d'habitation","nature_de_l_objet":"Lieu-dit habité","nature_detaillee_de_l_objet":null,"graphie_du_toponyme":"maizières-la-grande-paroisse","source_du_toponyme":"IGN","statut_du_toponyme":"Validé","date_du_toponyme":"1994-02-01Z","langue_du_toponyme":null,"cleabs_de_l_objet":"PAIHABIT0000000009338389"}},{"type":"Feature","id":"toponymie.577465","geometry":{"type":"Point","coordinates":[3.80499615,48.48608268]},"geometry_name":"geometrie","properties":{"classe_de_l_objet":"Zone d'habitation","nature_de_l_objet":"Lieu-dit habité","nature_detaillee_de_l_objet":null,"graphie_du_toponyme":"les charmes","source_du_toponyme":"IGN","statut_du_toponyme":"Validé","date_du_toponyme":"1994-02-01Z","langue_du_toponyme":null,"cleabs_de_l_objet":"PAIHABIT0000000009338424"}},{"type":"Feature","id":"toponymie.1085049","geometry":{"type":"Point","coordinates":[3.83090645,48.53371618]},"geometry_name":"geometrie","properties":{"classe_de_l_objet":"Zone d'habitation","nature_de_l_objet":"Lieu-dit habité","nature_detaillee_de_l_objet":null,"graphie_du_toponyme":"clesles","source_du_toponyme":"IGN","statut_du_toponyme":"Validé","date_du_toponyme":"1994-02-01Z","langue_du_toponyme":null,"cleabs_de_l_objet":"PAIHABIT0000000065147088"}},{"type":"Feature","id":"toponymie.543587","geometry":{"type":"Point","coordinates":[3.8172512,48.52766829]},"geometry_name":"geometrie","properties":{"classe_de_l_objet":"Zone d'habitation","nature_de_l_objet":"Lieu-dit habité","nature_detaillee_de_l_objet":null,"graphie_du_toponyme":"le moulin","source_du_toponyme":"IGN","statut_du_toponyme":"Validé","date_du_toponyme":"1994-02-01Z","langue_du_toponyme":null,"cleabs_de_l_objet":"PAIHABIT0000000065147093"}},{"type":"Feature","id":"toponymie.1498691","geometry":{"type":"Point","coordinates":[3.75621177,48.5061224]},"geometry_name":"geometrie","properties":{"classe_de_l_objet":"Zone d'habitation","nature_de_l_objet":"Lieu-dit habité","nature_detaillee_de_l_objet":null,"graphie_du_toponyme":"camp belle idee","source_du_toponyme":"BAN","statut_du_toponyme":"Collecté","date_du_toponyme":"2025-12-05Z","langue_du_toponyme":null,"cleabs_de_l_objet":"PAIHABIT0000000099203627"}},{"type":"Feature","id":"toponymie.1498690","geometry":{"type":"Point","coordinates":[3.75621177,48.5061224]},"geometry_name":"geometrie","properties":{"classe_de_l_objet":"Zone d'habitation","nature_de_l_objet":"Lieu-dit habité","nature_detaillee_de_l_objet":null,"graphie_du_toponyme":"camp belle idée","source_du_toponyme":"SGA;Cadastre","statut_du_toponyme":"Collecté","date_du_toponyme":"2007-10-10Z","langue_du_toponyme":null,"cleabs_de_l_objet":"PAIHABIT0000000099203627"}},{"type":"Feature","id":"toponymie.836048","geometry":{"type":"Point","coordinates":[3.77851291,48.50452188]},"geometry_name":"geometrie","properties":{"classe_de_l_objet":"Zone d'habitation","nature_de_l_objet":"Lieu-dit habité","nature_detaillee_de_l_objet":null,"graphie_du_toponyme":"le bois des granges","source_du_toponyme":"SGA;Cadastre","statut_du_toponyme":"Collecté","date_du_toponyme":"2007-10-10Z","langue_du_toponyme":null,"cleabs_de_l_objet":"PAIHABIT0000000099287653"}},{"type":"Feature","id":"toponymie.1241118","geometry":{"type":"Point","coordinates":[3.78796974,48.50734916]},"geometry_name":"geometrie","properties":{"classe_de_l_objet":"Zone d'habitation","nature_de_l_objet":"Lieu-dit habité","nature_detaillee_de_l_objet":null,"graphie_du_toponyme":"le bout des ruelles","source_du_toponyme":"SGA;Cadastre","statut_du_toponyme":"Collecté","date_du_toponyme":"2007-10-10Z","langue_du_toponyme":null,"cleabs_de_l_objet":"PAIHABIT0000000099287654"}},{"type":"Feature","id":"toponymie.1443802","geometry":{"type":"Point","coordinates":[3.78787103,48.51168513]},"geometry_name":"geometrie","properties":{"classe_de_l_objet":"Zone d'habitation","nature_de_l_objet":"Lieu-dit habité","nature_detaillee_de_l_objet":null,"graphie_du_toponyme":"la noue boulate sud","source_du_toponyme":"SGA;Cadastre;BAN","statut_du_toponyme":"Collecté","date_du_toponyme":"2025-12-05Z","langue_du_toponyme":null,"cleabs_de_l_objet":"PAIHABIT0000000099287655"}},{"type":"Feature","id":"toponymie.489045","geometry":{"type":"Point","coordinates":[3.78433739,48.5112506]},"geometry_name":"geometrie","properties":{"classe_de_l_objet":"Zone d'habitation","nature_de_l_objet":"Lieu-dit habité","nature_detaillee_de_l_objet":null,"graphie_du_toponyme":"les praillons","source_du_toponyme":"SGA;Cadastre;BAN","statut_du_toponyme":"Collecté","date_du_toponyme":"2025-12-05Z","langue_du_toponyme":null,"cleabs_de_l_objet":"PAIHABIT0000000099287656"}},{"type":"Feature","id":"toponymie.992384","geometry":{"type":"Point","coordinates":[3.78902558,48.50022425]},"geometry_name":"geometrie","properties":{"classe_de_l_objet":"Zone d'habitation","nature_de_l_objet":"Lieu-dit habité","nature_detaillee_de_l_objet":null,"graphie_du_toponyme":"les terres boyaux","source_du_toponyme":"SGA;Cadastre;BAN","statut_du_toponyme":"Collecté","date_du_toponyme":"2025-12-05Z","langue_du_toponyme":null,"cleabs_de_l_objet":"PAIHABIT0000000099287657"}},{"type":"Feature","id":"toponymie.836051","geometry":{"type":"Point","coordinates":[3.76372599,48.50587013]},"geometry_name":"geometrie","properties":{"classe_de_l_objet":"Zone d'habitation","nature_de_l_objet":"Lieu-dit habité","nature_detaillee_de_l_objet":null,"graphie_du_toponyme":"la belle idée","source_du_toponyme":"SGA;Cadastre","statut_du_toponyme":"Collecté","date_du_toponyme":"2007-10-10Z","langue_du_toponyme":null,"cleabs_de_l_objet":"PAIHABIT0000000099287658"}},{"type":"Feature","id":"toponymie.1369197","geometry":{"type":"Point","coordinates":[3.80346578,48.51209171]},"geometry_name":"geometrie","properties":{"classe_de_l_objet":"Zone d'habitation","nature_de_l_objet":"Lieu-dit habité","nature_detaillee_de_l_objet":null,"graphie_du_toponyme":"prés de poussey","source_du_toponyme":"SGA;Cadastre","statut_du_toponyme":"Collecté","date_du_toponyme":"2007-10-10Z","langue_du_toponyme":null,"cleabs_de_l_objet":"PAIHABIT0000000099293776"}},{"type":"Feature","id":"toponymie.1369198","geometry":{"type":"Point","coordinates":[3.80346578,48.51209171]},"geometry_name":"geometrie","properties":{"classe_de_l_objet":"Zone d'habitation","nature_de_l_objet":"Lieu-dit habité","nature_detaillee_de_l_objet":null,"graphie_du_toponyme":"pres de poussey","source_du_toponyme":"BAN","statut_du_toponyme":"Collecté","date_du_toponyme":"2025-12-05Z","langue_du_toponyme":null,"cleabs_de_l_objet":"PAIHABIT0000000099293776"}},{"type":"Feature","id":"toponymie.831197","geometry":{"type":"Point","coordinates":[3.79601319,48.5334098]},"geometry_name":"geometrie","properties":{"classe_de_l_objet":"Zone d'habitation","nature_de_l_objet":"Lieu-dit habité","nature_detaillee_de_l_objet":null,"graphie_du_toponyme":"le champ drion","source_du_toponyme":"SGA;Cadastre","statut_du_toponyme":"Collecté","date_du_toponyme":"2008-02-01Z","langue_du_toponyme":null,"cleabs_de_l_objet":"PAIHABIT0000000114095312"}},{"type":"Feature","id":"toponymie.830865","geometry":{"type":"Point","coordinates":[3.81320655,48.52572226]},"geometry_name":"geometrie","properties":{"classe_de_l_objet":"Zone d'habitation","nature_de_l_objet":"Lieu-dit habité","nature_detaillee_de_l_objet":null,"graphie_du_toponyme":"la noue pourrie","source_du_toponyme":"SGA;Cadastre","statut_du_toponyme":"Collecté","date_du_toponyme":"2008-02-01Z","langue_du_toponyme":null,"cleabs_de_l_objet":"PAIHABIT0000000114112959"}},{"type":"Feature","id":"toponymie.830998","geometry":{"type":"Point","coordinates":[3.8267867,48.53345347]},"geometry_name":"geometrie","properties":{"classe_de_l_objet":"Zone d'habitation","nature_de_l_objet":"Lieu-dit habité","nature_detaillee_de_l_objet":null,"graphie_du_toponyme":"les graviers","source_du_toponyme":"SGA;Cadastre","statut_du_toponyme":"Collecté","date_du_toponyme":"2008-02-01Z","langue_du_toponyme":null,"cleabs_de_l_objet":"PAIHABIT0000000114112967"}},{"type":"Feature","id":"toponymie.915719","geometry":{"type":"Point","coordinates":[3.76345365,48.50287791]},"geometry_name":"geometrie","properties":{"classe_de_l_objet":"Zone d'habitation","nature_de_l_objet":"Lieu-dit habité","nature_detaillee_de_l_objet":null,"graphie_du_toponyme":"la belle idee","source_du_toponyme":"BAN","statut_du_toponyme":"Collecté","date_du_toponyme":"2025-12-05Z","langue_du_toponyme":null,"cleabs_de_l_objet":"PAIHABIT0000000350300712"}},{"type":"Feature","id":"toponymie.915718","geometry":{"type":"Point","coordinates":[3.76345365,48.50287791]},"geometry_name":"geometrie","properties":{"classe_de_l_objet":"Zone d'habitation","nature_de_l_objet":"Lieu-dit habité","nature_detaillee_de_l_objet":null,"graphie_du_toponyme":"la belle idée","source_du_toponyme":"SGA","statut_du_toponyme":"Collecté","date_du_toponyme":"2007-10-10Z","langue_du_toponyme":null,"cleabs_de_l_objet":"PAIHABIT0000000350300712"}},{"type":"Feature","id":"toponymie.2224331","geometry":{"type":"Point","coordinates":[3.76049719,48.50699828]},"geometry_name":"geometrie","properties":{"classe_de_l_objet":"Point du réseau","nature_de_l_objet":"Passage à niveau","nature_detaillee_de_l_objet":null,"graphie_du_toponyme":"passage à niveau numéro 70","source_du_toponyme":"RFF","statut_du_toponyme":"Validé","date_du_toponyme":"2015-10-19Z","langue_du_toponyme":null,"cleabs_de_l_objet":"PT_RESEA0000000354298825"}},{"type":"Feature","id":"toponymie.2224332","geometry":{"type":"Point","coordinates":[3.767766,48.50643605]},"geometry_name":"geometrie","properties":{"classe_de_l_objet":"Point du réseau","nature_de_l_objet":"Passage à niveau","nature_detaillee_de_l_objet":null,"graphie_du_toponyme":"passage à niveau numéro 71","source_du_toponyme":"RFF","statut_du_toponyme":"Validé","date_du_toponyme":"2015-10-19Z","langue_du_toponyme":null,"cleabs_de_l_objet":"PT_RESEA0000000354298826"}},{"type":"Feature","id":"toponymie.2224333","geometry":{"type":"Point","coordinates":[3.78584454,48.50502509]},"geometry_name":"geometrie","properties":{"classe_de_l_objet":"Point du réseau","nature_de_l_objet":"Passage à niveau","nature_detaillee_de_l_objet":null,"graphie_du_toponyme":"passage à niveau numéro 73","source_du_toponyme":"RFF","statut_du_toponyme":"Validé","date_du_toponyme":"2015-10-19Z","langue_du_toponyme":null,"cleabs_de_l_objet":"PT_RESEA0000000354298827"}},{"type":"Feature","id":"toponymie.2224334","geometry":{"type":"Point","coordinates":[3.79227154,48.5045146]},"geometry_name":"geometrie","properties":{"classe_de_l_objet":"Point du réseau","nature_de_l_objet":"Passage à niveau","nature_detaillee_de_l_objet":null,"graphie_du_toponyme":"passage à niveau numéro 74","source_du_toponyme":"RFF","statut_du_toponyme":"Validé","date_du_toponyme":"2015-10-19Z","langue_du_toponyme":null,"cleabs_de_l_objet":"PT_RESEA0000000354298828"}},{"type":"Feature","id":"toponymie.2237800","geometry":{"type":"Point","coordinates":[3.82147096,48.53186831]},"geometry_name":"geometrie","properties":{"classe_de_l_objet":"Route","nature_de_l_objet":"Route nommée","nature_detaillee_de_l_objet":null,"graphie_du_toponyme":"chaussée du moulin","source_du_toponyme":"IGN","statut_du_toponyme":"Validé","date_du_toponyme":"1994-02-01Z","langue_du_toponyme":null,"cleabs_de_l_objet":"ROUTNOMM0000000220168484"}},{"type":"Feature","id":"toponymie.2652976","geometry":{"type":"Point","coordinates":[3.78707116,48.50937074]},"geometry_name":"geometrie","properties":{"classe_de_l_objet":"Zone d'activité ou d'intérêt","nature_de_l_objet":"Mairie","nature_detaillee_de_l_objet":null,"graphie_du_toponyme":"mairie de maizières-la-grande-paroisse","source_du_toponyme":"IGN","statut_du_toponyme":"Validé","date_du_toponyme":"2010-12-10Z","langue_du_toponyme":null,"cleabs_de_l_objet":"SURFACTI0000000009307504"}},{"type":"Feature","id":"toponymie.2661485","geometry":{"type":"Point","coordinates":[3.83195883,48.53387485]},"geometry_name":"geometrie","properties":{"classe_de_l_objet":"Zone d'activité ou d'intérêt","nature_de_l_objet":"Mairie","nature_detaillee_de_l_objet":null,"graphie_du_toponyme":"mairie de clesles","source_du_toponyme":"IGN","statut_du_toponyme":"Validé","date_du_toponyme":"2010-12-10Z","langue_du_toponyme":null,"cleabs_de_l_objet":"SURFACTI0000000082916467"}},{"type":"Feature","id":"toponymie.2613222","geometry":{"type":"Point","coordinates":[3.78732458,48.50910592]},"geometry_name":"geometrie","properties":{"classe_de_l_objet":"Zone d'activité ou d'intérêt","nature_de_l_objet":"Enseignement primaire","nature_detaillee_de_l_objet":"Ecole élémentaire","graphie_du_toponyme":"école élémentaire publique maizières-la-grande-paroisse","source_du_toponyme":"Ministère","statut_du_toponyme":"Collecté","date_du_toponyme":"2008-01-18Z","langue_du_toponyme":null,"cleabs_de_l_objet":"SURFACTI0000000113405956"}},{"type":"Feature","id":"toponymie.2280913","geometry":{"type":"Point","coordinates":[3.79582012,48.50344596]},"geometry_name":"geometrie","properties":{"classe_de_l_objet":"Zone d'activité ou d'intérêt","nature_de_l_objet":"Divers industriel","nature_detaillee_de_l_objet":"Dépôt d'hydrocarbures","graphie_du_toponyme":"seveal - maizières-la-grande-paroisse","source_du_toponyme":"Ministère","statut_du_toponyme":"Collecté","date_du_toponyme":"1900-01-01Z","langue_du_toponyme":null,"cleabs_de_l_objet":"SURFACTI0000000117790866"}},{"type":"Feature","id":"toponymie.2280914","geometry":{"type":"Point","coordinates":[3.79582012,48.50344596]},"geometry_name":"geometrie","properties":{"classe_de_l_objet":"Zone d'activité ou d'intérêt","nature_de_l_objet":"Divers industriel","nature_detaillee_de_l_objet":"Dépôt d'hydrocarbures","graphie_du_toponyme":"sévéal","source_du_toponyme":"IGN","statut_du_toponyme":"Autre","date_du_toponyme":"1900-01-01Z","langue_du_toponyme":null,"cleabs_de_l_objet":"SURFACTI0000000117790866"}},{"type":"Feature","id":"toponymie.2528416","geometry":{"type":"Point","coordinates":[3.76384672,48.50515459]},"geometry_name":"geometrie","properties":{"classe_de_l_objet":"Zone d'activité ou d'intérêt","nature_de_l_objet":"Divers commercial","nature_detaillee_de_l_objet":null,"graphie_du_toponyme":"centre commercial la belle idee","source_du_toponyme":"BAN","statut_du_toponyme":"Collecté","date_du_toponyme":"2025-12-05Z","langue_du_toponyme":null,"cleabs_de_l_objet":"SURFACTI0000000213056238"}},{"type":"Feature","id":"toponymie.2528417","geometry":{"type":"Point","coordinates":[3.76384672,48.50515459]},"geometry_name":"geometrie","properties":{"classe_de_l_objet":"Zone d'activité ou d'intérêt","nature_de_l_objet":"Divers commercial","nature_detaillee_de_l_objet":null,"graphie_du_toponyme":"zone commerciale la belle idée","source_du_toponyme":"Terrain","statut_du_toponyme":"Validé","date_du_toponyme":"2007-07-31Z","langue_du_toponyme":null,"cleabs_de_l_objet":"SURFACTI0000000213056238"}},{"type":"Feature","id":"toponymie.2337330","geometry":{"type":"Point","coordinates":[3.83093497,48.53327612]},"geometry_name":"geometrie","properties":{"classe_de_l_objet":"Zone d'activité ou d'intérêt","nature_de_l_objet":"Culte chrétien","nature_detaillee_de_l_objet":"Eglise","graphie_du_toponyme":"église saint-antoine-et-saint-sulpice","source_du_toponyme":"Internet","statut_du_toponyme":"Collecté","date_du_toponyme":"1900-01-01Z","langue_du_toponyme":null,"cleabs_de_l_objet":"SURFACTI0000000215897368"}},{"type":"Feature","id":"toponymie.2438349","geometry":{"type":"Point","coordinates":[3.83193896,48.53404367]},"geometry_name":"geometrie","properties":{"classe_de_l_objet":"Zone d'activité ou d'intérêt","nature_de_l_objet":"Espace public","nature_detaillee_de_l_objet":"Place","graphie_du_toponyme":"place de la mairie","source_du_toponyme":"La Poste;BAN","statut_du_toponyme":"Collecté","date_du_toponyme":"2025-12-05Z","langue_du_toponyme":null,"cleabs_de_l_objet":"SURFACTI0000000244180536"}},{"type":"Feature","id":"toponymie.2588159","geometry":{"type":"Point","coordinates":[3.77723516,48.5031673]},"geometry_name":"geometrie","properties":{"classe_de_l_objet":"Zone d'activité ou d'intérêt","nature_de_l_objet":"Structure d'accueil pour personnes handicapées","nature_detaillee_de_l_objet":"Institut médico-éducatif","graphie_du_toponyme":"institut médico-éducatif verger fleuri","source_du_toponyme":"Ministère","statut_du_toponyme":"Collecté","date_du_toponyme":"2012-10-05Z","langue_du_toponyme":null,"cleabs_de_l_objet":"SURFACTI0000000283182841"}},{"type":"Feature","id":"toponymie.2536839","geometry":{"type":"Point","coordinates":[3.75880305,48.5056961]},"geometry_name":"geometrie","properties":{"classe_de_l_objet":"Zone d'activité ou d'intérêt","nature_de_l_objet":"Stade","nature_detaillee_de_l_objet":null,"graphie_du_toponyme":"stade thierry moussin","source_du_toponyme":"Mairie","statut_du_toponyme":"Collecté","date_du_toponyme":"2024-05-28Z","langue_du_toponyme":null,"cleabs_de_l_objet":"SURFACTI0000000314900702"}},{"type":"Feature","id":"toponymie.2339229","geometry":{"type":"Point","coordinates":[3.78679627,48.51129282]},"geometry_name":"geometrie","properties":{"classe_de_l_objet":"Zone d'activité ou d'intérêt","nature_de_l_objet":"Culte chrétien","nature_detaillee_de_l_objet":"Eglise","graphie_du_toponyme":"église saint-denis","source_du_toponyme":"CDT","statut_du_toponyme":"Collecté","date_du_toponyme":"2012-11-30Z","langue_du_toponyme":null,"cleabs_de_l_objet":"SURFACTI0000000316172819"}},{"type":"Feature","id":"toponymie.2415451","geometry":{"type":"Point","coordinates":[3.78556669,48.53176912]},"geometry_name":"geometrie","properties":{"classe_de_l_objet":"Zone d'activité ou d'intérêt","nature_de_l_objet":"Sports mécaniques","nature_detaillee_de_l_objet":null,"graphie_du_toponyme":"circuit pierre hanot","source_du_toponyme":"Internet;Terrain","statut_du_toponyme":"Validé","date_du_toponyme":"2014-08-21Z","langue_du_toponyme":null,"cleabs_de_l_objet":"SURFACTI0000000336632081"}},{"type":"Feature","id":"toponymie.2465495","geometry":{"type":"Point","coordinates":[3.76448944,48.5029819]},"geometry_name":"geometrie","properties":{"classe_de_l_objet":"Zone d'activité ou d'intérêt","nature_de_l_objet":"Divers commercial","nature_detaillee_de_l_objet":"Zone commerciale","graphie_du_toponyme":"parc de l'aérodrome","source_du_toponyme":"Mairie","statut_du_toponyme":"Collecté","date_du_toponyme":"1900-01-01Z","langue_du_toponyme":null,"cleabs_de_l_objet":"SURFACTI0000000353495972"}},{"type":"Feature","id":"toponymie.2492806","geometry":{"type":"Point","coordinates":[3.79154912,48.50564126]},"geometry_name":"geometrie","properties":{"classe_de_l_objet":"Zone d'activité ou d'intérêt","nature_de_l_objet":"Autre équipement sportif","nature_detaillee_de_l_objet":"Terrain de sport","graphie_du_toponyme":"stade de maizières-la-grande-paroisse","source_du_toponyme":"Internet","statut_du_toponyme":"Collecté","date_du_toponyme":"2021-05-20Z","langue_du_toponyme":null,"cleabs_de_l_objet":"SURFACTI0000000358044861"}},{"type":"Feature","id":"toponymie.2507442","geometry":{"type":"Point","coordinates":[3.75154327,48.50287737]},"geometry_name":"geometrie","properties":{"classe_de_l_objet":"Zone d'activité ou d'intérêt","nature_de_l_objet":"Structure d'accueil pour personnes handicapées","nature_detaillee_de_l_objet":"Etablissement et service d'aide par le travail","graphie_du_toponyme":"cap esat","source_du_toponyme":"Ministère","statut_du_toponyme":"Collecté","date_du_toponyme":"1900-01-01Z","langue_du_toponyme":null,"cleabs_de_l_objet":"SURFACTI0000002007433278"}},{"type":"Feature","id":"toponymie.2345898","geometry":{"type":"Point","coordinates":[3.75281435,48.50258774]},"geometry_name":"geometrie","properties":{"classe_de_l_objet":"Zone d'activité ou d'intérêt","nature_de_l_objet":"Musée","nature_detaillee_de_l_objet":null,"graphie_du_toponyme":"musée vivant de la bonneterie","source_du_toponyme":"IGN","statut_du_toponyme":"Collecté","date_du_toponyme":"2019-12-20Z","langue_du_toponyme":null,"cleabs_de_l_objet":"SURFACTI0000002206125252"}},{"type":"Feature","id":"toponymie.2559131","geometry":{"type":"Point","coordinates":[3.7568769,48.49931696]},"geometry_name":"geometrie","properties":{"classe_de_l_objet":"Zone d'activité ou d'intérêt","nature_de_l_objet":"Zone industrielle","nature_detaillee_de_l_objet":"Zone d'activités","graphie_du_toponyme":"parc de l'aérodrome","source_du_toponyme":"Terrain","statut_du_toponyme":"Collecté","date_du_toponyme":"2026-01-30Z","langue_du_toponyme":null,"cleabs_de_l_objet":"SURFACTI0000002206127457"}},{"type":"Feature","id":"toponymie.2559130","geometry":{"type":"Point","coordinates":[3.7568769,48.49931696]},"geometry_name":"geometrie","properties":{"classe_de_l_objet":"Zone d'activité ou d'intérêt","nature_de_l_objet":"Zone industrielle","nature_detaillee_de_l_objet":"Zone d'activités","graphie_du_toponyme":"zone aéromia","source_du_toponyme":"IGN","statut_du_toponyme":"Collecté","date_du_toponyme":"2019-12-20Z","langue_du_toponyme":null,"cleabs_de_l_objet":"SURFACTI0000002206127457"}},{"type":"Feature","id":"toponymie.2475096","geometry":{"type":"Point","coordinates":[3.7863763,48.50916078]},"geometry_name":"geometrie","properties":{"classe_de_l_objet":"Zone d'activité ou d'intérêt","nature_de_l_objet":"Espace public","nature_detaillee_de_l_objet":"Square","graphie_du_toponyme":"square des combattants d'afn","source_du_toponyme":"Internet","statut_du_toponyme":"Collecté","date_du_toponyme":"2023-02-23Z","langue_du_toponyme":null,"cleabs_de_l_objet":"SURFACTI0000002330331383"}},{"type":"Feature","id":"toponymie.2542777","geometry":{"type":"Point","coordinates":[3.80057174,48.50173352]},"geometry_name":"geometrie","properties":{"classe_de_l_objet":"Zone d'activité ou d'intérêt","nature_de_l_objet":"Zone industrielle","nature_detaillee_de_l_objet":null,"graphie_du_toponyme":"zone industrielle la glacière","source_du_toponyme":"Internet","statut_du_toponyme":"Collecté","date_du_toponyme":"2024-11-13Z","langue_du_toponyme":null,"cleabs_de_l_objet":"SURFACTI0000002480229986"}},{"type":"Feature","id":"toponymie.2689170","geometry":{"type":"Point","coordinates":[3.75530713,48.51285421]},"geometry_name":"geometrie","properties":{"classe_de_l_objet":"Parc ou réserve","nature_de_l_objet":"Site acquis ou assimilé des conservatoires d'espaces naturels","nature_detaillee_de_l_objet":null,"graphie_du_toponyme":"marais du gue de vailly","source_du_toponyme":"MNHN","statut_du_toponyme":"Collecté","date_du_toponyme":"2023-06-01Z","langue_du_toponyme":null,"cleabs_de_l_objet":"SURFPARC0000002333273044"}},{"type":"Feature","id":"toponymie.2683116","geometry":{"type":"Point","coordinates":[3.75596557,48.4982297]},"geometry_name":"geometrie","properties":{"classe_de_l_objet":"Parc ou réserve","nature_de_l_objet":"Site acquis ou assimilé des conservatoires d'espaces naturels","nature_detaillee_de_l_objet":null,"graphie_du_toponyme":"ancien aerodrome de romilly","source_du_toponyme":"MNHN","statut_du_toponyme":"Collecté","date_du_toponyme":"2024-02-01Z","langue_du_toponyme":null,"cleabs_de_l_objet":"SURFPARC0000002479472684"}}]}