{"type":"FeatureCollection","metadata":{"source":"IGN BD TOPO V3 — BDTOPO_V3:zone_d_activite_ou_d_interet","service":"https://data.geopf.fr/wfs/ows","request":"GetFeature BDTOPO_V3:zone_d_activite_ou_d_interet BBOX 755390,6819514,761486,6826372 EPSG:2154 (emprise du terrain V1.7)","retrievedAt":"2026-09-24T19:18:20.891Z","license":"Licence Ouverte Etalab 2.0 — © IGN","crs":"CRS84 (longitude, latitude, altitude BD TOPO)"},"features":[{"type":"Feature","id":"zone_d_activite_ou_d_interet.21931","geometry":{"type":"MultiPolygon","coordinates":[[[[3.78701795,48.50933376],[3.78713918,48.50938243],[3.78712851,48.5093933],[3.78711516,48.50940598],[3.78700479,48.50935903],[3.78699796,48.50935548],[3.78701795,48.50933376]]]]},"geometry_name":"geometrie","properties":{"cleabs":"SURFACTI0000000009307504","categorie":"Administratif ou militaire","nature":"Mairie","nature_detaillee":null,"toponyme":"Mairie de Maizières-la-Grande-Paroisse","statut_du_toponyme":"Validé","importance":"5","fictif":false,"etat_de_l_objet":"En service","date_creation":"2006-08-01T10:22:14.818Z","date_modification":"2026-05-29T11:15:06.042Z","date_d_apparition":null,"date_de_confirmation":"2017-01-01Z","sources":"DILA_2017","identifiants_sources":"DILA:mairie-10220-01","methode_d_acquisition_planimetrique":"Calculé","precision_planimetrique":20,"insee_commune":"10220","commune":"MAIZIERES-LA-GRANDE-PAROISSE","adresse_postale":"6 r des ecoles 10510 maizieres la grande paroisse","identifiant_voie_ban":null,"nom_commercial":null,"id_ban_odonyme":null}},{"type":"Feature","id":"zone_d_activite_ou_d_interet.102325","geometry":{"type":"MultiPolygon","coordinates":[[[[3.83211118,48.53386164],[3.83202756,48.53379925],[3.83180682,48.53388806],[3.83185812,48.53396237],[3.83211118,48.53386164]]]]},"geometry_name":"geometrie","properties":{"cleabs":"SURFACTI0000000082916467","categorie":"Administratif ou militaire","nature":"Mairie","nature_detaillee":null,"toponyme":"Mairie de Clesles","statut_du_toponyme":"Validé","importance":"5","fictif":false,"etat_de_l_objet":"En service","date_creation":"2007-06-21T05:25:37.510Z","date_modification":"2026-05-29T11:15:06.042Z","date_d_apparition":null,"date_de_confirmation":"2017-01-01Z","sources":"DILA_2017","identifiants_sources":"DILA:mairie-51155-01","methode_d_acquisition_planimetrique":"Orthophotographie","precision_planimetrique":3,"insee_commune":"51155","commune":"CLESLES","adresse_postale":"place de la mairie","identifiant_voie_ban":null,"nom_commercial":null,"id_ban_odonyme":null}},{"type":"Feature","id":"zone_d_activite_ou_d_interet.145245","geometry":{"type":"MultiPolygon","coordinates":[[[[3.78735876,48.50912818],[3.78735808,48.50908321],[3.78729039,48.50908365],[3.78729107,48.50912863],[3.78735876,48.50912818]]]]},"geometry_name":"geometrie","properties":{"cleabs":"SURFACTI0000000113405956","categorie":"Science et enseignement","nature":"Enseignement primaire","nature_detaillee":"Ecole élémentaire","toponyme":"École Élémentaire Publique Maizières-la-Grande-Paroisse","statut_du_toponyme":"Collecté","importance":"5","fictif":true,"etat_de_l_objet":"En service","date_creation":"2008-01-18T11:51:36.657Z","date_modification":"2026-05-04T15:39:45.095Z","date_d_apparition":null,"date_de_confirmation":"2026-04-10Z","sources":"MEN 2026","identifiants_sources":"MEN:0100816H","methode_d_acquisition_planimetrique":"Calculé","precision_planimetrique":20,"insee_commune":"10220","commune":"MAIZIERES-LA-GRANDE-PAROISSE","adresse_postale":"8  RUE JULES FERRY","identifiant_voie_ban":null,"nom_commercial":null,"id_ban_odonyme":null}},{"type":"Feature","id":"zone_d_activite_ou_d_interet.151435","geometry":{"type":"MultiPolygon","coordinates":[[[[3.79505871,48.50413613],[3.79497241,48.50362302],[3.79501595,48.50327997],[3.79498889,48.50310202],[3.7955676,48.50305586],[3.79548267,48.5026327],[3.7965129,48.50254484],[3.79657361,48.50297715],[3.79673255,48.50399357],[3.79505871,48.50413613]]]]},"geometry_name":"geometrie","properties":{"cleabs":"SURFACTI0000000117790866","categorie":"Industriel et commercial","nature":"Divers industriel","nature_detaillee":"Dépôt d'hydrocarbures","toponyme":"Seveal - Maizières-la-Grande-Paroisse","statut_du_toponyme":"Collecté","importance":"5","fictif":false,"etat_de_l_objet":"En service","date_creation":"2008-03-03T10:41:30.949Z","date_modification":"2024-05-22T09:59:00.754Z","date_d_apparition":null,"date_de_confirmation":"2023-11-19Z","sources":"MTE 2023","identifiants_sources":"ICPE:0005702015","methode_d_acquisition_planimetrique":"Orthophotographie","precision_planimetrique":3,"insee_commune":"10220","commune":"MAIZIERES-LA-GRANDE-PAROISSE","adresse_postale":"ZI LA GLACIERE 10510 MAIZIERES LA GRANDE PAROISSE","identifiant_voie_ban":null,"nom_commercial":null,"id_ban_odonyme":null}},{"type":"Feature","id":"zone_d_activite_ou_d_interet.177683","geometry":{"type":"MultiPolygon","coordinates":[[[[3.76722928,48.50639543],[3.76061492,48.50690126],[3.76044344,48.50646604],[3.76028809,48.50602262],[3.75963066,48.50484381],[3.76208339,48.50444486],[3.7622758,48.50445712],[3.76238195,48.50449513],[3.76248694,48.50454663],[3.76282576,48.50447878],[3.762883,48.50441184],[3.76299431,48.50433916],[3.7634256,48.50420684],[3.76709323,48.50357237],[3.76804422,48.50546535],[3.76722928,48.50639543]]]]},"geometry_name":"geometrie","properties":{"cleabs":"SURFACTI0000000213056238","categorie":"Industriel et commercial","nature":"Divers commercial","nature_detaillee":null,"toponyme":"Zone Commerciale la Belle Idée","statut_du_toponyme":"Validé","importance":"4","fictif":false,"etat_de_l_objet":"En service","date_creation":"2008-12-05T12:38:07.017Z","date_modification":"2025-12-05T12:38:29.441Z","date_d_apparition":null,"date_de_confirmation":null,"sources":null,"identifiants_sources":null,"methode_d_acquisition_planimetrique":"Calculé","precision_planimetrique":20,"insee_commune":"10323","commune":"ROMILLY-SUR-SEINE","adresse_postale":null,"identifiant_voie_ban":"10323_begypd","nom_commercial":null,"id_ban_odonyme":"72731a42-b594-4917-abb0-864b0260888e"}},{"type":"Feature","id":"zone_d_activite_ou_d_interet.180973","geometry":{"type":"MultiPolygon","coordinates":[[[[3.83118021,48.53332478],[3.83091818,48.5331161],[3.83069644,48.5332274],[3.83094239,48.53344699],[3.83097201,48.53343599],[3.83099129,48.53345565],[3.83113777,48.53338175],[3.83112646,48.53335215],[3.83118021,48.53332478]]]]},"geometry_name":"geometrie","properties":{"cleabs":"SURFACTI0000000215897368","categorie":"Religieux","nature":"Culte chrétien","nature_detaillee":"Eglise","toponyme":"Église Saint-Antoine-et-Saint-Sulpice","statut_du_toponyme":"Collecté","importance":"3","fictif":false,"etat_de_l_objet":"En service","date_creation":"2009-01-22T09:00:34.268Z","date_modification":"2019-04-01T04:43:43.746Z","date_d_apparition":null,"date_de_confirmation":null,"sources":null,"identifiants_sources":null,"methode_d_acquisition_planimetrique":"Orthophotographie","precision_planimetrique":3,"insee_commune":"51155","commune":"CLESLES","adresse_postale":"","identifiant_voie_ban":null,"nom_commercial":null,"id_ban_odonyme":null}},{"type":"Feature","id":"zone_d_activite_ou_d_interet.244892","geometry":{"type":"MultiPolygon","coordinates":[[[[3.817694,48.49995034],[3.81767619,48.49976334],[3.81890975,48.49969906],[3.81923157,48.49976252],[3.81959065,48.49978523],[3.82127463,48.49969803],[3.82419478,48.49962743],[3.82475959,48.50068149],[3.82537666,48.50058094],[3.8257461,48.50083118],[3.82737621,48.50118959],[3.82733617,48.50156951],[3.82577453,48.50169193],[3.8249146,48.50175818],[3.82222027,48.50112912],[3.817694,48.49995034]]]]},"geometry_name":"geometrie","properties":{"cleabs":"SURFACTI0000000240640912","categorie":"Industriel et commercial","nature":"Divers industriel","nature_detaillee":"Coopérative","toponyme":null,"statut_du_toponyme":null,"importance":"5","fictif":false,"etat_de_l_objet":"En service","date_creation":"2010-07-07T07:51:17.816Z","date_modification":"2016-12-16T13:47:30.680Z","date_d_apparition":null,"date_de_confirmation":null,"sources":null,"identifiants_sources":null,"methode_d_acquisition_planimetrique":"Orthophotographie","precision_planimetrique":3,"insee_commune":"10089","commune":"CHATRES","adresse_postale":"","identifiant_voie_ban":null,"nom_commercial":null,"id_ban_odonyme":null}},{"type":"Feature","id":"zone_d_activite_ou_d_interet.244894","geometry":{"type":"MultiPolygon","coordinates":[[[[3.80611996,48.50039379],[3.81448022,48.49994363],[3.81465284,48.50007559],[3.81474615,48.50006955],[3.81491717,48.49992444],[3.81606938,48.49985175],[3.81630334,48.49983665],[3.81738945,48.4997788],[3.81767484,48.49976335],[3.81769023,48.49996926],[3.8185194,48.50018846],[3.81958634,48.50046269],[3.81988667,48.50053709],[3.82068735,48.50075107],[3.82156806,48.50097439],[3.82223669,48.5011407],[3.82201222,48.50167484],[3.82187483,48.50206443],[3.80650175,48.50312699],[3.8063825,48.50223806],[3.80613048,48.50046119],[3.80611996,48.50039379]]]]},"geometry_name":"geometrie","properties":{"cleabs":"SURFACTI0000000240640913","categorie":"Administratif ou militaire","nature":"Enceinte militaire","nature_detaillee":null,"toponyme":null,"statut_du_toponyme":null,"importance":"3","fictif":false,"etat_de_l_objet":"En service","date_creation":"2010-07-07T07:51:17.816Z","date_modification":"2024-11-13T15:41:02.668Z","date_d_apparition":null,"date_de_confirmation":null,"sources":null,"identifiants_sources":null,"methode_d_acquisition_planimetrique":"Orthophotographie","precision_planimetrique":3,"insee_commune":"10220","commune":"MAIZIERES-LA-GRANDE-PAROISSE","adresse_postale":null,"identifiant_voie_ban":null,"nom_commercial":null,"id_ban_odonyme":null}},{"type":"Feature","id":"zone_d_activite_ou_d_interet.253468","geometry":{"type":"MultiPolygon","coordinates":[[[[3.83205429,48.53411753],[3.83177158,48.53422836],[3.83162516,48.53404946],[3.83164401,48.53404213],[3.83185812,48.53396237],[3.83211118,48.53386164],[3.83215227,48.53389014],[3.83226157,48.53403421],[3.83205429,48.53411753]]]]},"geometry_name":"geometrie","properties":{"cleabs":"SURFACTI0000000244180536","categorie":"Culture et loisirs","nature":"Espace public","nature_detaillee":"Place","toponyme":"Place de la Mairie","statut_du_toponyme":"Collecté","importance":"5","fictif":false,"etat_de_l_objet":"En service","date_creation":"2010-10-04T13:23:38.570Z","date_modification":"2025-12-05T12:38:29.441Z","date_d_apparition":null,"date_de_confirmation":null,"sources":null,"identifiants_sources":null,"methode_d_acquisition_planimetrique":"Orthophotographie","precision_planimetrique":3,"insee_commune":"51155","commune":"CLESLES","adresse_postale":null,"identifiant_voie_ban":"51155_b2knsd","nom_commercial":null,"id_ban_odonyme":"adb26473-49d4-40ac-982e-a2f954d4621b"}},{"type":"Feature","id":"zone_d_activite_ou_d_interet.282799","geometry":{"type":"MultiPolygon","coordinates":[[[[3.77726934,48.50318957],[3.77726867,48.50314459],[3.77720099,48.50314503],[3.77720166,48.50319001],[3.77726934,48.50318957]]]]},"geometry_name":"geometrie","properties":{"cleabs":"SURFACTI0000000283182841","categorie":"Science et enseignement","nature":"Structure d'accueil pour personnes handicapées","nature_detaillee":"Institut médico-éducatif","toponyme":"Institut Médico-Éducatif Verger Fleuri","statut_du_toponyme":"Collecté","importance":"5","fictif":true,"etat_de_l_objet":"En service","date_creation":"2011-08-05T08:18:47.596Z","date_modification":"2026-05-04T15:39:45.095Z","date_d_apparition":null,"date_de_confirmation":"2026-04-10Z","sources":"MEN 2026","identifiants_sources":"MEN:0100838G","methode_d_acquisition_planimetrique":"Calculé","precision_planimetrique":20,"insee_commune":"10220","commune":"MAIZIERES-LA-GRANDE-PAROISSE","adresse_postale":"21 RUE ACHILLE FLAUBERT 10510 MAIZIERES-LA-GRANDE-PAROISSE","identifiant_voie_ban":null,"nom_commercial":null,"id_ban_odonyme":null}},{"type":"Feature","id":"zone_d_activite_ou_d_interet.317196","geometry":{"type":"MultiPolygon","coordinates":[[[[3.7576108,48.5055953],[3.75758707,48.50554597],[3.75778218,48.50518218],[3.75951366,48.50489764],[3.7600127,48.50579678],[3.76003775,48.50593696],[3.75981204,48.50605715],[3.7584055,48.50634502],[3.75805651,48.50636614],[3.75789048,48.50630603],[3.7576108,48.5055953]]]]},"geometry_name":"geometrie","properties":{"cleabs":"SURFACTI0000000314900702","categorie":"Sport","nature":"Stade","nature_detaillee":null,"toponyme":"Stade Thierry Moussin","statut_du_toponyme":"Collecté","importance":"5","fictif":false,"etat_de_l_objet":"En service","date_creation":"2012-10-30T16:29:33.580Z","date_modification":"2024-10-25T11:15:23.654Z","date_d_apparition":"2019-02-19Z","date_de_confirmation":"2024-04-25Z","sources":"MSS 2024","identifiants_sources":"MSS:I103230010","methode_d_acquisition_planimetrique":"Orthophotographie","precision_planimetrique":3,"insee_commune":"10323","commune":"ROMILLY-SUR-SEINE","adresse_postale":" rn 19","identifiant_voie_ban":null,"nom_commercial":null,"id_ban_odonyme":null}},{"type":"Feature","id":"zone_d_activite_ou_d_interet.321481","geometry":{"type":"MultiPolygon","coordinates":[[[[3.78694017,48.51118931],[3.78693897,48.51119921],[3.78687123,48.51119696],[3.78687104,48.51118437],[3.78685478,48.51118357],[3.78685351,48.51118898],[3.78683997,48.51118907],[3.78684005,48.51119447],[3.78681432,48.51119374],[3.78681418,48.51118474],[3.78679794,48.51118485],[3.78679803,48.51119115],[3.78677366,48.51119131],[3.78677353,48.51118231],[3.78675862,48.51118151],[3.78675739,48.51118962],[3.7867452,48.5111897],[3.78674398,48.5111987],[3.78675346,48.51119864],[3.7867509,48.51120855],[3.78653813,48.51119557],[3.78653319,48.51122709],[3.78651422,48.51122631],[3.7865117,48.51123892],[3.78652934,48.51124151],[3.7865219,48.51128654],[3.7865043,48.51128665],[3.7865031,48.51129746],[3.78651938,48.51129915],[3.78651308,48.51133068],[3.78660525,48.51133726],[3.78660403,48.51134627],[3.78661894,48.51134707],[3.78662152,48.51133896],[3.78669337,48.51134478],[3.78668671,48.51135202],[3.78668546,48.51135922],[3.78669235,48.51136727],[3.78670457,48.51136899],[3.78670339,48.5113807],[3.78672776,48.51138053],[3.78672789,48.51138953],[3.78674415,48.51139032],[3.78674402,48.51138133],[3.78682663,48.51138258],[3.78682676,48.51139157],[3.78684167,48.51139238],[3.78684153,48.51138338],[3.78690385,48.51138567],[3.78690534,48.51139465],[3.78691617,48.51139458],[3.78691874,48.51138557],[3.78698646,48.51138692],[3.7869961,48.51139765],[3.78700829,48.51139757],[3.78701353,48.51138584],[3.78705678,48.51138105],[3.78705773,48.51135406],[3.78708165,48.51132421],[3.78709797,48.5113286],[3.78710192,48.51132138],[3.7870883,48.51131607],[3.78708924,48.51128818],[3.78711621,48.5112808],[3.78711066,48.51127184],[3.78709043,48.51127737],[3.78706851,48.51126043],[3.78707651,48.51125228],[3.78706017,48.51124609],[3.78705218,48.51125514],[3.7870183,48.51125266],[3.78702036,48.51120947],[3.78703234,48.51119589],[3.78702143,48.51119057],[3.78700809,48.51120415],[3.78695252,48.51120002],[3.78695372,48.51119012],[3.78694017,48.51118931]]]]},"geometry_name":"geometrie","properties":{"cleabs":"SURFACTI0000000316172819","categorie":"Religieux","nature":"Culte chrétien","nature_detaillee":"Eglise","toponyme":"Église Saint-Denis","statut_du_toponyme":"Collecté","importance":"3","fictif":false,"etat_de_l_objet":"En service","date_creation":"2012-11-30T17:44:22.659Z","date_modification":"2019-04-01T04:43:43.746Z","date_d_apparition":null,"date_de_confirmation":null,"sources":null,"identifiants_sources":null,"methode_d_acquisition_planimetrique":"Calculé","precision_planimetrique":20,"insee_commune":"10220","commune":"MAIZIERES-LA-GRANDE-PAROISSE","adresse_postale":"","identifiant_voie_ban":null,"nom_commercial":null,"id_ban_odonyme":null}},{"type":"Feature","id":"zone_d_activite_ou_d_interet.380877","geometry":{"type":"MultiPolygon","coordinates":[[[[3.83070026,48.53381033],[3.83063254,48.5338108],[3.83063183,48.53376583],[3.83069955,48.53376535],[3.83070026,48.53381033]]]]},"geometry_name":"geometrie","properties":{"cleabs":"SURFACTI0000000335488068","categorie":"Culture et loisirs","nature":"Monument","nature_detaillee":"Monument aux morts","toponyme":null,"statut_du_toponyme":null,"importance":"5","fictif":true,"etat_de_l_objet":"En service","date_creation":"2014-06-26T16:09:08.364Z","date_modification":"2024-05-31T08:51:57.071Z","date_d_apparition":null,"date_de_confirmation":null,"sources":null,"identifiants_sources":null,"methode_d_acquisition_planimetrique":"Calculé","precision_planimetrique":20,"insee_commune":"51155","commune":"CLESLES","adresse_postale":null,"identifiant_voie_ban":null,"nom_commercial":null,"id_ban_odonyme":null}},{"type":"Feature","id":"zone_d_activite_ou_d_interet.383935","geometry":{"type":"MultiPolygon","coordinates":[[[[3.78560088,48.53179139],[3.78553316,48.53179184],[3.78553249,48.53174686],[3.78560021,48.53174641],[3.78560088,48.53179139]]]]},"geometry_name":"geometrie","properties":{"cleabs":"SURFACTI0000000336632081","categorie":"Sport","nature":"Sports mécaniques","nature_detaillee":null,"toponyme":"Circuit Pierre Hanot","statut_du_toponyme":"Validé","importance":"4","fictif":true,"etat_de_l_objet":"En service","date_creation":"2014-07-25T07:46:20.885Z","date_modification":"2024-07-04T16:26:14.813Z","date_d_apparition":null,"date_de_confirmation":"2014-07-24Z","sources":null,"identifiants_sources":null,"methode_d_acquisition_planimetrique":"Calculé","precision_planimetrique":20,"insee_commune":"51492","commune":"SAINT-JUST-SAUVAGE","adresse_postale":null,"identifiant_voie_ban":null,"nom_commercial":null,"id_ban_odonyme":null}},{"type":"Feature","id":"zone_d_activite_ou_d_interet.383937","geometry":{"type":"MultiPolygon","coordinates":[[[[3.78584306,48.50908424],[3.78584238,48.50903926],[3.7857747,48.50903971],[3.78577537,48.50908469],[3.78584306,48.50908424]]]]},"geometry_name":"geometrie","properties":{"cleabs":"SURFACTI0000000336632116","categorie":"Culture et loisirs","nature":"Monument","nature_detaillee":"Monument aux morts","toponyme":null,"statut_du_toponyme":null,"importance":"5","fictif":true,"etat_de_l_objet":"En service","date_creation":"2014-07-25T07:48:31.389Z","date_modification":"2019-06-26T07:48:36.716Z","date_d_apparition":null,"date_de_confirmation":null,"sources":null,"identifiants_sources":null,"methode_d_acquisition_planimetrique":"Calculé","precision_planimetrique":20,"insee_commune":"10220","commune":"MAIZIERES-LA-GRANDE-PAROISSE","adresse_postale":null,"identifiant_voie_ban":null,"nom_commercial":null,"id_ban_odonyme":null}},{"type":"Feature","id":"zone_d_activite_ou_d_interet.390633","geometry":{"type":"MultiPolygon","coordinates":[[[[3.81899159,48.46669207],[3.82676054,48.47371227],[3.83741542,48.46827382],[3.84499582,48.46357873],[3.85213204,48.45968523],[3.84227212,48.45401118],[3.82863444,48.46256587],[3.82268047,48.46555008],[3.81899159,48.46669207]]]]},"geometry_name":"geometrie","properties":{"cleabs":"SURFACTI0000000338704300","categorie":"Industriel et commercial","nature":"Centrale électrique","nature_detaillee":"Parc éolien","toponyme":"Chemin de Mery","statut_du_toponyme":"Collecté","importance":"5","fictif":false,"etat_de_l_objet":"En service","date_creation":"2014-10-17T13:03:36.720Z","date_modification":"2020-06-10T15:15:56.471Z","date_d_apparition":null,"date_de_confirmation":null,"sources":null,"identifiants_sources":null,"methode_d_acquisition_planimetrique":"Levé non GPS","precision_planimetrique":5,"insee_commune":"10274","commune":"ORVILLIERS-SAINT-JULIEN","adresse_postale":null,"identifiant_voie_ban":null,"nom_commercial":null,"id_ban_odonyme":null}},{"type":"Feature","id":"zone_d_activite_ou_d_interet.391489","geometry":{"type":"MultiPolygon","coordinates":[[[[3.79154824,48.50305482],[3.79151242,48.50274378],[3.79198161,48.50270647],[3.7920284,48.50302643],[3.79154824,48.50305482]]]]},"geometry_name":"geometrie","properties":{"cleabs":"SURFACTI0000000338825416","categorie":"Gestion des eaux","nature":"Station de pompage","nature_detaillee":null,"toponyme":null,"statut_du_toponyme":null,"importance":"5","fictif":false,"etat_de_l_objet":"En service","date_creation":"2014-10-28T08:38:23.723Z","date_modification":"2020-07-05T13:15:55.919Z","date_d_apparition":null,"date_de_confirmation":null,"sources":null,"identifiants_sources":null,"methode_d_acquisition_planimetrique":"Orthophotographie","precision_planimetrique":3,"insee_commune":"10220","commune":"MAIZIERES-LA-GRANDE-PAROISSE","adresse_postale":"","identifiant_voie_ban":null,"nom_commercial":null,"id_ban_odonyme":null}},{"type":"Feature","id":"zone_d_activite_ou_d_interet.415000","geometry":{"type":"MultiPolygon","coordinates":[[[[3.76452361,48.50300417],[3.76452295,48.50295919],[3.76445527,48.50295963],[3.76445592,48.50300461],[3.76452361,48.50300417]]]]},"geometry_name":"geometrie","properties":{"cleabs":"SURFACTI0000000353495972","categorie":"Industriel et commercial","nature":"Divers commercial","nature_detaillee":"Zone commerciale","toponyme":"Parc de l'Aérodrome","statut_du_toponyme":"Collecté","importance":"5","fictif":true,"etat_de_l_objet":"En service","date_creation":"2015-08-31T16:07:14.693Z","date_modification":"2018-03-12T16:13:21.028Z","date_d_apparition":null,"date_de_confirmation":null,"sources":null,"identifiants_sources":null,"methode_d_acquisition_planimetrique":"Calculé","precision_planimetrique":20,"insee_commune":"10220","commune":"MAIZIERES-LA-GRANDE-PAROISSE","adresse_postale":"","identifiant_voie_ban":null,"nom_commercial":null,"id_ban_odonyme":null}},{"type":"Feature","id":"zone_d_activite_ou_d_interet.420972","geometry":{"type":"MultiPolygon","coordinates":[[[[3.80830273,48.47934073],[3.81169706,48.49268187],[3.81937338,48.49402002],[3.84382243,48.48997859],[3.86264363,48.48192193],[3.86859924,48.46736515],[3.87577508,48.46616355],[3.86878316,48.45656773],[3.85872791,48.45978525],[3.84722016,48.46343603],[3.83450316,48.47707232],[3.82751706,48.47887463],[3.81594751,48.47895469],[3.80830273,48.47934073]]]]},"geometry_name":"geometrie","properties":{"cleabs":"SURFACTI0000000355450383","categorie":"Industriel et commercial","nature":"Centrale électrique","nature_detaillee":"Parc éolien","toponyme":null,"statut_du_toponyme":null,"importance":"5","fictif":false,"etat_de_l_objet":"En service","date_creation":"2015-12-15T08:20:00.977Z","date_modification":"2019-09-20T16:10:23.317Z","date_d_apparition":null,"date_de_confirmation":null,"sources":null,"identifiants_sources":null,"methode_d_acquisition_planimetrique":"Levé non GPS","precision_planimetrique":5,"insee_commune":"10089","commune":"CHATRES","adresse_postale":"","identifiant_voie_ban":null,"nom_commercial":null,"id_ban_odonyme":null}},{"type":"Feature","id":"zone_d_activite_ou_d_interet.435936","geometry":{"type":"MultiPolygon","coordinates":[[[[3.7907359,48.50475604],[3.79223275,48.50463541],[3.79238856,48.5065263],[3.79083243,48.50657985],[3.7907359,48.50475604]]]]},"geometry_name":"geometrie","properties":{"cleabs":"SURFACTI0000000358044861","categorie":"Sport","nature":"Autre équipement sportif","nature_detaillee":"Terrain de sport","toponyme":"Stade de Maizières-la-Grande-Paroisse","statut_du_toponyme":"Collecté","importance":"5","fictif":false,"etat_de_l_objet":"En service","date_creation":"2016-07-28T16:29:43.630Z","date_modification":"2022-10-04T11:30:05.781Z","date_d_apparition":null,"date_de_confirmation":"2018-01-01Z","sources":"MSS_2018","identifiants_sources":"MSS:102200008","methode_d_acquisition_planimetrique":"Orthophotographie","precision_planimetrique":3,"insee_commune":"10220","commune":"MAIZIERES-LA-GRANDE-PAROISSE","adresse_postale":"6 Rue des Écoles","identifiant_voie_ban":null,"nom_commercial":null,"id_ban_odonyme":null}},{"type":"Feature","id":"zone_d_activite_ou_d_interet.443423","geometry":{"type":"MultiPolygon","coordinates":[[[[3.83118319,48.53359824],[3.83147767,48.53388856],[3.8318301,48.53373316],[3.83193368,48.53368745],[3.8317666,48.53357257],[3.83156085,48.53341118],[3.83149832,48.53339722],[3.83145635,48.53339842],[3.83136328,48.53342336],[3.83128956,48.53347245],[3.83118319,48.53359824]]]]},"geometry_name":"geometrie","properties":{"cleabs":"SURFACTI0000002000286256","categorie":"Culture et loisirs","nature":"Salle de spectacle ou conférence","nature_detaillee":"Centre culturel","toponyme":null,"statut_du_toponyme":null,"importance":"5","fictif":false,"etat_de_l_objet":"En service","date_creation":"2016-11-08T09:12:42.566Z","date_modification":"2018-08-28T16:33:31.862Z","date_d_apparition":null,"date_de_confirmation":null,"sources":null,"identifiants_sources":null,"methode_d_acquisition_planimetrique":"Orthophotographie","precision_planimetrique":3,"insee_commune":"51155","commune":"CLESLES","adresse_postale":"","identifiant_voie_ban":null,"nom_commercial":null,"id_ban_odonyme":null}},{"type":"Feature","id":"zone_d_activite_ou_d_interet.465284","geometry":{"type":"MultiPolygon","coordinates":[[[[3.75157743,48.50289964],[3.75157679,48.50285467],[3.7515091,48.50285509],[3.75150975,48.50290007],[3.75157743,48.50289964]]]]},"geometry_name":"geometrie","properties":{"cleabs":"SURFACTI0000002007433278","categorie":"Science et enseignement","nature":"Structure d'accueil pour personnes handicapées","nature_detaillee":"Etablissement et service d'aide par le travail","toponyme":"Cap ESAT","statut_du_toponyme":"Collecté","importance":"5","fictif":true,"etat_de_l_objet":"En service","date_creation":"2017-12-04T15:15:16.171Z","date_modification":"2024-08-26T14:16:13.197Z","date_d_apparition":"2017-01-01Z","date_de_confirmation":"2022-09-29Z","sources":"FINESS 2022","identifiants_sources":"FINESS:100010644","methode_d_acquisition_planimetrique":"Calculé","precision_planimetrique":20,"insee_commune":"10323","commune":"ROMILLY-SUR-SEINE","adresse_postale":"7 r andre malraux","identifiant_voie_ban":null,"nom_commercial":null,"id_ban_odonyme":null}},{"type":"Feature","id":"zone_d_activite_ou_d_interet.495218","geometry":{"type":"MultiPolygon","coordinates":[[[[3.78691619,48.50886842],[3.78679355,48.50881616],[3.78678023,48.50883064],[3.78663185,48.50877674],[3.78673856,48.50866988],[3.78682032,48.50870532],[3.78684035,48.5086863],[3.78693573,48.50872705],[3.78695176,48.50871255],[3.78711664,48.50878253],[3.7870286,48.50887038],[3.7869509,48.50883581],[3.78691619,48.50886842]]]]},"geometry_name":"geometrie","properties":{"cleabs":"SURFACTI0000002200449264","categorie":"Culture et loisirs","nature":"Salle de spectacle ou conférence","nature_detaillee":"Salle polyvalente","toponyme":null,"statut_du_toponyme":null,"importance":"5","fictif":false,"etat_de_l_objet":"En service","date_creation":"2019-01-24T09:46:14.664Z","date_modification":"2020-07-05T13:15:55.919Z","date_d_apparition":null,"date_de_confirmation":null,"sources":null,"identifiants_sources":null,"methode_d_acquisition_planimetrique":"Orthophotographie","precision_planimetrique":3,"insee_commune":"10220","commune":"MAIZIERES-LA-GRANDE-PAROISSE","adresse_postale":null,"identifiant_voie_ban":null,"nom_commercial":null,"id_ban_odonyme":null}},{"type":"Feature","id":"zone_d_activite_ou_d_interet.498065","geometry":{"type":"MultiPolygon","coordinates":[[[[3.74809082,48.49430586],[3.7477926,48.49436981],[3.74771828,48.49437838],[3.74781758,48.49422302],[3.74810932,48.49408443],[3.74823771,48.49397567],[3.7481845,48.49394632],[3.7483693,48.49380661],[3.74845124,48.49376291],[3.75042675,48.49296147],[3.75196835,48.49239214],[3.75228441,48.49234606],[3.75358993,48.4923045],[3.75539363,48.4961255],[3.75540285,48.49676598],[3.75352254,48.49694345],[3.75029127,48.4972131],[3.74911595,48.49728079],[3.74891507,48.49705265],[3.74919249,48.4965741],[3.74922258,48.49650104],[3.74921904,48.49644258],[3.74893531,48.49581553],[3.74863828,48.49520385],[3.74847681,48.49489179],[3.74809082,48.49430586]]]]},"geometry_name":"geometrie","properties":{"cleabs":"SURFACTI0000002202506489","categorie":"Industriel et commercial","nature":"Centrale électrique","nature_detaillee":"Centrale photovoltaïque sol ou agrivoltaïque","toponyme":null,"statut_du_toponyme":null,"importance":"5","fictif":false,"etat_de_l_objet":"En service","date_creation":"2019-05-07T08:37:05.317Z","date_modification":"2026-06-19T08:54:03.779Z","date_d_apparition":null,"date_de_confirmation":null,"sources":null,"identifiants_sources":null,"methode_d_acquisition_planimetrique":"Orthophotographie","precision_planimetrique":3,"insee_commune":"10323","commune":"ROMILLY-SUR-SEINE","adresse_postale":null,"identifiant_voie_ban":null,"nom_commercial":null,"id_ban_odonyme":null}},{"type":"Feature","id":"zone_d_activite_ou_d_interet.504242","geometry":{"type":"MultiPolygon","coordinates":[[[[3.7666438,48.49643937],[3.76513584,48.49662093],[3.76431558,48.49355574],[3.76536802,48.49379277],[3.76618837,48.49407897],[3.76603406,48.49426349],[3.7666438,48.49643937]]]]},"geometry_name":"geometrie","properties":{"cleabs":"SURFACTI0000002206094209","categorie":"Administratif ou militaire","nature":"Aire d'accueil des gens du voyage","nature_detaillee":null,"toponyme":null,"statut_du_toponyme":null,"importance":"5","fictif":false,"etat_de_l_objet":"En service","date_creation":"2019-12-17T16:23:44.317Z","date_modification":null,"date_d_apparition":null,"date_de_confirmation":null,"sources":null,"identifiants_sources":null,"methode_d_acquisition_planimetrique":"Calculé","precision_planimetrique":20,"insee_commune":"10220","commune":"MAIZIERES-LA-GRANDE-PAROISSE","adresse_postale":null,"identifiant_voie_ban":null,"nom_commercial":null,"id_ban_odonyme":null}},{"type":"Feature","id":"zone_d_activite_ou_d_interet.504459","geometry":{"type":"MultiPolygon","coordinates":[[[[3.75284852,48.50261001],[3.75278083,48.50261044],[3.75278019,48.50256546],[3.75284787,48.50256504],[3.75284852,48.50261001]]]]},"geometry_name":"geometrie","properties":{"cleabs":"SURFACTI0000002206125252","categorie":"Culture et loisirs","nature":"Musée","nature_detaillee":null,"toponyme":"Musée Vivant de la Bonneterie","statut_du_toponyme":"Collecté","importance":"5","fictif":true,"etat_de_l_objet":"En service","date_creation":"2019-12-20T09:18:57.651Z","date_modification":"2020-11-10T15:16:51.364Z","date_d_apparition":null,"date_de_confirmation":"2019-12-20Z","sources":null,"identifiants_sources":null,"methode_d_acquisition_planimetrique":"Calculé","precision_planimetrique":20,"insee_commune":"10323","commune":"ROMILLY-SUR-SEINE","adresse_postale":"2 r robert galley","identifiant_voie_ban":null,"nom_commercial":null,"id_ban_odonyme":null}},{"type":"Feature","id":"zone_d_activite_ou_d_interet.504478","geometry":{"type":"MultiPolygon","coordinates":[[[[3.76162029,48.50443794],[3.75878368,48.50487891],[3.75201396,48.50596552],[3.75174345,48.50522773],[3.75020171,48.5054354],[3.75051193,48.50620622],[3.74648188,48.50689643],[3.74647041,48.50685152],[3.74619611,48.50612724],[3.74610053,48.50597491],[3.74627521,48.50588205],[3.74641282,48.50565808],[3.74724165,48.50548823],[3.74816916,48.50530787],[3.74821578,48.50544432],[3.75023651,48.50512301],[3.74985722,48.50406564],[3.74987483,48.50397196],[3.74986676,48.50388025],[3.74974446,48.50356436],[3.74959672,48.50336197],[3.74925908,48.5031338],[3.74888221,48.50290767],[3.74744416,48.50212235],[3.7471193,48.50193457],[3.7468729,48.50136215],[3.74626455,48.49904043],[3.74833199,48.49811969],[3.74872539,48.49779964],[3.74911595,48.49728079],[3.74891507,48.49705265],[3.74919249,48.4965741],[3.74922258,48.49650104],[3.74921904,48.49644258],[3.74893531,48.49581553],[3.74863828,48.49520385],[3.74847681,48.49489179],[3.74809082,48.49430586],[3.7477926,48.49436981],[3.74771828,48.49437838],[3.74781758,48.49422302],[3.74810932,48.49408443],[3.74823771,48.49397567],[3.7481845,48.49394632],[3.7483693,48.49380661],[3.74845124,48.49376291],[3.75042675,48.49296147],[3.75196835,48.49239214],[3.75228441,48.49234606],[3.75358993,48.4923045],[3.75531943,48.49228722],[3.75642271,48.49229999],[3.75666742,48.49228134],[3.75765784,48.49216437],[3.75806782,48.49224992],[3.75832955,48.4923787],[3.76297545,48.49605905],[3.76465502,48.49715841],[3.76474996,48.49745018],[3.76685936,48.49720357],[3.76748989,48.49959253],[3.76849303,48.50052167],[3.76997401,48.50190741],[3.77098107,48.50282031],[3.76680034,48.50354008],[3.76314459,48.50415377],[3.76293245,48.50418122],[3.76276934,48.50413639],[3.76262364,48.50407795],[3.76232665,48.50413653],[3.76220096,48.50424439],[3.76204635,48.50431825],[3.76162029,48.50443794]]]]},"geometry_name":"geometrie","properties":{"cleabs":"SURFACTI0000002206127457","categorie":"Industriel et commercial","nature":"Zone industrielle","nature_detaillee":"Zone d'activités","toponyme":"Parc de l'Aérodrome","statut_du_toponyme":"Collecté","importance":"4","fictif":false,"etat_de_l_objet":"En service","date_creation":"2019-12-20T15:44:53.986Z","date_modification":"2026-01-30T16:27:27.316Z","date_d_apparition":null,"date_de_confirmation":null,"sources":null,"identifiants_sources":null,"methode_d_acquisition_planimetrique":"Calculé","precision_planimetrique":20,"insee_commune":"10323","commune":"ROMILLY-SUR-SEINE","adresse_postale":null,"identifiant_voie_ban":null,"nom_commercial":null,"id_ban_odonyme":null}},{"type":"Feature","id":"zone_d_activite_ou_d_interet.514385","geometry":{"type":"MultiPolygon","coordinates":[[[[3.78802863,48.50964733],[3.78802795,48.50960235],[3.78796026,48.5096028],[3.78796094,48.50964778],[3.78802863,48.50964733]]]]},"geometry_name":"geometrie","properties":{"cleabs":"SURFACTI0000002222540441","categorie":"Administratif ou militaire","nature":"Caserne de pompiers","nature_detaillee":"Centre de première intervention","toponyme":null,"statut_du_toponyme":null,"importance":"6","fictif":true,"etat_de_l_objet":"En service","date_creation":"2021-01-22T07:57:17.615Z","date_modification":"2022-09-09T09:48:57.875Z","date_d_apparition":null,"date_de_confirmation":"2022-02-25Z","sources":"SDIS10 2022","identifiants_sources":"SDIS10:237896","methode_d_acquisition_planimetrique":"Orthophotographie","precision_planimetrique":3,"insee_commune":"10220","commune":"MAIZIERES-LA-GRANDE-PAROISSE","adresse_postale":null,"identifiant_voie_ban":null,"nom_commercial":null,"id_ban_odonyme":null}},{"type":"Feature","id":"zone_d_activite_ou_d_interet.546652","geometry":{"type":"MultiPolygon","coordinates":[[[[3.78641048,48.50918304],[3.78634279,48.50918349],[3.78634212,48.50913851],[3.78640981,48.50913806],[3.78641048,48.50918304]]]]},"geometry_name":"geometrie","properties":{"cleabs":"SURFACTI0000002330331383","categorie":"Culture et loisirs","nature":"Espace public","nature_detaillee":"Square","toponyme":"Square des Combattants d'Afn","statut_du_toponyme":"Collecté","importance":"5","fictif":true,"etat_de_l_objet":"En service","date_creation":"2023-02-24T16:49:23.687Z","date_modification":"2023-09-05T14:29:38.670Z","date_d_apparition":null,"date_de_confirmation":null,"sources":null,"identifiants_sources":null,"methode_d_acquisition_planimetrique":"Calculé","precision_planimetrique":20,"insee_commune":"10220","commune":"MAIZIERES-LA-GRANDE-PAROISSE","adresse_postale":null,"identifiant_voie_ban":null,"nom_commercial":null,"id_ban_odonyme":null}},{"type":"Feature","id":"zone_d_activite_ou_d_interet.557763","geometry":{"type":"MultiPolygon","coordinates":[[[[3.76158851,48.50001015],[3.76062844,48.49634669],[3.76297545,48.49605905],[3.76465502,48.49715841],[3.76474996,48.49745018],[3.76685936,48.49720357],[3.76748989,48.49959253],[3.76577296,48.49983842],[3.76571891,48.49965974],[3.76158851,48.50001015]]]]},"geometry_name":"geometrie","properties":{"cleabs":"SURFACTI0000002344919066","categorie":"Industriel et commercial","nature":"Centrale électrique","nature_detaillee":"Centrale photovoltaïque sol ou agrivoltaïque","toponyme":null,"statut_du_toponyme":null,"importance":"5","fictif":false,"etat_de_l_objet":"En service","date_creation":"2024-04-08T14:06:14.146Z","date_modification":"2026-06-19T08:54:03.779Z","date_d_apparition":null,"date_de_confirmation":null,"sources":null,"identifiants_sources":null,"methode_d_acquisition_planimetrique":"Orthophotographie","precision_planimetrique":3,"insee_commune":"10220","commune":"MAIZIERES-LA-GRANDE-PAROISSE","adresse_postale":null,"identifiant_voie_ban":null,"nom_commercial":null,"id_ban_odonyme":null}},{"type":"Feature","id":"zone_d_activite_ou_d_interet.557764","geometry":{"type":"MultiPolygon","coordinates":[[[[3.7468729,48.50136215],[3.74626455,48.49904043],[3.74833199,48.49811969],[3.74872539,48.49779964],[3.74911595,48.49728079],[3.75029127,48.4972131],[3.75352254,48.49694345],[3.75412614,48.50061013],[3.75415207,48.50071882],[3.7468729,48.50136215]]]]},"geometry_name":"geometrie","properties":{"cleabs":"SURFACTI0000002344919068","categorie":"Industriel et commercial","nature":"Centrale électrique","nature_detaillee":"Centrale photovoltaïque sol ou agrivoltaïque","toponyme":null,"statut_du_toponyme":null,"importance":"5","fictif":false,"etat_de_l_objet":"En service","date_creation":"2024-04-08T14:06:17.060Z","date_modification":"2026-06-19T08:54:03.779Z","date_d_apparition":null,"date_de_confirmation":null,"sources":null,"identifiants_sources":null,"methode_d_acquisition_planimetrique":"Orthophotographie","precision_planimetrique":3,"insee_commune":"10323","commune":"ROMILLY-SUR-SEINE","adresse_postale":null,"identifiant_voie_ban":null,"nom_commercial":null,"id_ban_odonyme":null}},{"type":"Feature","id":"zone_d_activite_ou_d_interet.567231","geometry":{"type":"MultiPolygon","coordinates":[[[[3.79673255,48.50399357],[3.79505871,48.50413613],[3.79497241,48.50362302],[3.79501595,48.50327997],[3.79498889,48.50310202],[3.7947764,48.5012286],[3.79473266,48.50093291],[3.79831214,48.50077127],[3.80318521,48.5005756],[3.80611996,48.50039379],[3.80613048,48.50046119],[3.8063825,48.50223806],[3.80650157,48.5031153],[3.80651592,48.50316828],[3.80654126,48.50331925],[3.79673255,48.50399357]]]]},"geometry_name":"geometrie","properties":{"cleabs":"SURFACTI0000002480229986","categorie":"Industriel et commercial","nature":"Zone industrielle","nature_detaillee":null,"toponyme":"Zone Industrielle la Glacière","statut_du_toponyme":"Collecté","importance":"5","fictif":false,"etat_de_l_objet":"En service","date_creation":"2024-11-13T15:40:52.701Z","date_modification":"2025-11-12T13:01:45.580Z","date_d_apparition":null,"date_de_confirmation":null,"sources":null,"identifiants_sources":null,"methode_d_acquisition_planimetrique":"Calculé","precision_planimetrique":20,"insee_commune":"10220","commune":"MAIZIERES-LA-GRANDE-PAROISSE","adresse_postale":null,"identifiant_voie_ban":null,"nom_commercial":null,"id_ban_odonyme":null}},{"type":"Feature","id":"zone_d_activite_ou_d_interet.568027","geometry":{"type":"MultiPolygon","coordinates":[[[[3.78820497,48.5083174],[3.78755107,48.50831994],[3.78754073,48.50817247],[3.78819463,48.50816993],[3.78820497,48.5083174]]]]},"geometry_name":"geometrie","properties":{"cleabs":"SURFACTI0000002480490941","categorie":"Sport","nature":"Autre équipement sportif","nature_detaillee":"Boulodrome","toponyme":null,"statut_du_toponyme":null,"importance":"5","fictif":false,"etat_de_l_objet":"En service","date_creation":"2024-11-25T15:36:21.798Z","date_modification":null,"date_d_apparition":null,"date_de_confirmation":null,"sources":null,"identifiants_sources":null,"methode_d_acquisition_planimetrique":"Calculé","precision_planimetrique":20,"insee_commune":"10220","commune":"MAIZIERES-LA-GRANDE-PAROISSE","adresse_postale":null,"identifiant_voie_ban":null,"nom_commercial":null,"id_ban_odonyme":null}},{"type":"Feature","id":"zone_d_activite_ou_d_interet.587320","geometry":{"type":"MultiPolygon","coordinates":[[[[3.75754327,48.51151438],[3.75643716,48.51180211],[3.75623572,48.51182318],[3.75600069,48.5117689],[3.75552109,48.511655],[3.75546085,48.51151414],[3.75657294,48.51135953],[3.75648436,48.51075644],[3.75680404,48.5107661],[3.75742895,48.510817],[3.75752584,48.51086946],[3.75757311,48.51123621],[3.75754239,48.51145321],[3.75754327,48.51151438]]]]},"geometry_name":"geometrie","properties":{"cleabs":"SURFACTI0000002498256437","categorie":"Sport","nature":"Sports mécaniques","nature_detaillee":"Circuit divers","toponyme":null,"statut_du_toponyme":null,"importance":"5","fictif":false,"etat_de_l_objet":"En service","date_creation":"2026-01-07T14:04:32.862Z","date_modification":null,"date_d_apparition":null,"date_de_confirmation":null,"sources":null,"identifiants_sources":null,"methode_d_acquisition_planimetrique":"Orthophotographie","precision_planimetrique":3,"insee_commune":"10323","commune":null,"adresse_postale":null,"identifiant_voie_ban":null,"nom_commercial":null,"id_ban_odonyme":null}}]}