{"type":"FeatureCollection","metadata":{"source":"IGN BD TOPO V3 — BDTOPO_V3:equipement_de_transport","service":"https://data.geopf.fr/wfs/ows","request":"GetFeature BDTOPO_V3:equipement_de_transport BBOX 755390,6819514,761486,6826372 EPSG:2154 (emprise du terrain V1.7)","retrievedAt":"2026-09-24T19:17:23.356Z","license":"Licence Ouverte Etalab 2.0 — © IGN","crs":"CRS84 (longitude, latitude, altitude BD TOPO)"},"features":[{"type":"Feature","id":"equipement_de_transport.3726","geometry":{"type":"MultiPolygon","coordinates":[[[[3.81868847,48.50200097,82.1],[3.81893859,48.50198035,82.1],[3.81906726,48.50198486,82.1],[3.81922452,48.50199907,82.1],[3.81942956,48.50203904,82.1],[3.81978339,48.50215805,82.6],[3.81946921,48.50223759,82.5],[3.81916714,48.50231254,82.6],[3.81896067,48.50235445,82.6],[3.81880396,48.50237532,82.6],[3.81840645,48.50240685,82.6],[3.81115945,48.50299812,82.5],[3.81094958,48.50299596,82],[3.81078559,48.50298358,82],[3.81063504,48.50296572,82],[3.81047357,48.50294163,82],[3.81024584,48.50292249,82.1],[3.81007512,48.50291286,82.1],[3.81033274,48.50276356,82.3],[3.81043359,48.50271969,82.3],[3.81050772,48.50269849,82.3],[3.81082363,48.50264236,82.3],[3.81110181,48.50259728,82.3],[3.81329359,48.50242486,82.3],[3.81757574,48.50209139,82.1],[3.81868847,48.50200097,82.1]]]]},"geometry_name":"geometrie","properties":{"cleabs":"EQ_RESEA0000000009311221","nature":"Aire de triage","nature_detaillee":null,"toponyme":null,"statut_du_toponyme":null,"importance":"4","numero":null,"fictif":false,"adresse_postale":null,"etat_de_l_objet":"En service","date_creation":"2006-08-01T10:22:14.818Z","date_modification":"2019-09-23T20:00:29.374Z","date_d_apparition":null,"date_de_confirmation":"2016-07-01Z","sources":null,"identifiants_sources":null,"methode_d_acquisition_planimetrique":"Photogrammétrie","precision_planimetrique":2.5,"methode_d_acquisition_altimetrique":"Photogrammétrie","precision_altimetrique":1.5,"insee_commune":"10220","commune":"MAIZIERES-LA-GRANDE-PAROISSE","identifiant_voie_ban":null,"id_ban_odonyme":null}},{"type":"Feature","id":"equipement_de_transport.19821","geometry":{"type":"MultiPolygon","coordinates":[[[[3.76508774,48.50418446,76.2],[3.76509864,48.50428245,76.2],[3.76519026,48.50453105,76.2],[3.7651912,48.50478114,76.2],[3.76522037,48.5049249,76.2],[3.76527959,48.50508645,76],[3.76535471,48.50522451,76],[3.76547228,48.50539558,75.8],[3.76555898,48.50549218,75.8],[3.76559811,48.5055756,75.8],[3.76567843,48.50579189,75.8],[3.76569472,48.50579448,75.8],[3.7679067,48.50541226,75.8],[3.7678875,48.50548795,75.8],[3.76777737,48.5056407,75.6],[3.76743013,48.50605857,75.2],[3.7673416,48.50611492,75.1],[3.76727559,48.50613694,75.1],[3.76650712,48.50626515,75.2],[3.76590209,48.50636711,75.3],[3.76580754,48.50610413,75.5],[3.76555496,48.50614444,75.5],[3.76543981,48.5058609,75.7],[3.76476191,48.50597952,75.7],[3.76473208,48.50588345,75.7],[3.76423103,48.50596764,75.7],[3.76409448,48.50560866,75.7],[3.76345306,48.50572164,75.7],[3.76335005,48.50543442,75.7],[3.76370798,48.50537725,75.7],[3.7637274,48.50540951,75.7],[3.76379774,48.50540546,75.8],[3.76403027,48.50538237,75.8],[3.76408518,48.50534153,75.3],[3.76412056,48.50526124,75.2],[3.76409365,48.50517955,75.1],[3.76401979,48.50512784,75.1],[3.76392887,48.50511313,75.1],[3.76366504,48.50447339,75.2],[3.76375414,48.50445573,75.2],[3.76374671,48.50441079,75.2],[3.76508774,48.50418446,76.2]]]]},"geometry_name":"geometrie","properties":{"cleabs":"EQ_RESEA0000000129491249","nature":"Parking","nature_detaillee":null,"toponyme":null,"statut_du_toponyme":null,"importance":"5","numero":null,"fictif":false,"adresse_postale":null,"etat_de_l_objet":"En service","date_creation":"2008-04-29T09:19:34.471Z","date_modification":"2017-03-17T08:35:51.458Z","date_d_apparition":null,"date_de_confirmation":"2005-07-01Z","sources":null,"identifiants_sources":null,"methode_d_acquisition_planimetrique":"Photogrammétrie","precision_planimetrique":2.5,"methode_d_acquisition_altimetrique":"Photogrammétrie","precision_altimetrique":1.5,"insee_commune":"10323","commune":"ROMILLY-SUR-SEINE","identifiant_voie_ban":null,"id_ban_odonyme":null}},{"type":"Feature","id":"equipement_de_transport.19822","geometry":{"type":"MultiPolygon","coordinates":[[[[3.76304929,48.50579261,75.5],[3.76255102,48.50588127,75.5],[3.76261158,48.50604282,75.4],[3.76256372,48.5061034,75.4],[3.76150491,48.50628292,75.7],[3.76132129,48.50622382,75.7],[3.76115828,48.50581283,75.7],[3.76179174,48.50571071,75.9],[3.76181395,48.50574836,75.7],[3.762049,48.50571266,75.1],[3.76227856,48.50567161,75.7],[3.76226304,48.50562852,75.7],[3.76274517,48.50554716,75.5],[3.76276464,48.50558212,75.4],[3.7628227,48.50557185,75.4],[3.76289903,48.50560735,75.4],[3.76300569,48.50568043,75.2],[3.76304986,48.50573863,75.2],[3.76303518,48.50575311,75.2],[3.76304929,48.50579261,75.5]]]]},"geometry_name":"geometrie","properties":{"cleabs":"EQ_RESEA0000000129491250","nature":"Parking","nature_detaillee":null,"toponyme":null,"statut_du_toponyme":null,"importance":"5","numero":null,"fictif":false,"adresse_postale":null,"etat_de_l_objet":"En service","date_creation":"2008-04-29T09:19:34.471Z","date_modification":"2017-03-17T08:35:51.458Z","date_d_apparition":null,"date_de_confirmation":"2005-07-01Z","sources":null,"identifiants_sources":null,"methode_d_acquisition_planimetrique":"Photogrammétrie","precision_planimetrique":2.5,"methode_d_acquisition_altimetrique":"Photogrammétrie","precision_altimetrique":1.5,"insee_commune":"10323","commune":"ROMILLY-SUR-SEINE","identifiant_voie_ban":null,"id_ban_odonyme":null}},{"type":"Feature","id":"equipement_de_transport.64746","geometry":{"type":"MultiPolygon","coordinates":[[[[3.82288051,48.50162295,-1000],[3.82281283,48.50162342,-1000],[3.82281212,48.50157844,-1000],[3.8228798,48.50157797,-1000],[3.82288051,48.50162295,-1000]]]]},"geometry_name":"geometrie","properties":{"cleabs":"EQ_RESEA0000000312835745","nature":"Gare fret uniquement","nature_detaillee":null,"toponyme":"Arrêt de Fret de Châtres","statut_du_toponyme":"Collecté","importance":"5","numero":null,"fictif":true,"adresse_postale":null,"etat_de_l_objet":"En service","date_creation":"2012-09-11T10:48:03.879Z","date_modification":"2025-09-01T10:15:28.651Z","date_d_apparition":null,"date_de_confirmation":"2025-05-14Z","sources":null,"identifiants_sources":null,"methode_d_acquisition_planimetrique":"Calculé","precision_planimetrique":20,"methode_d_acquisition_altimetrique":"Pas de Z","precision_altimetrique":9999,"insee_commune":"10089","commune":"CHATRES","identifiant_voie_ban":null,"id_ban_odonyme":null}},{"type":"Feature","id":"equipement_de_transport.69097","geometry":{"type":"MultiPolygon","coordinates":[[[[3.76124558,48.50240537,76.5],[3.76126738,48.50241513,76.6],[3.76129201,48.50243296,76.6],[3.76130716,48.50245086,76.6],[3.761306,48.50246436,76.6],[3.7612912,48.50247075,76.6],[3.76103284,48.50267123,76.6],[3.76078241,48.50285905,76.6],[3.76059372,48.5030105,76.6],[3.76056435,48.50303858,76.6],[3.76034023,48.5030805,76.6],[3.76044853,48.50336049,76.6],[3.76005684,48.50342327,76.6],[3.75977206,48.50264151,76.6],[3.7605108,48.50251983,76.4],[3.76124558,48.50240537,76.5]]]]},"geometry_name":"geometrie","properties":{"cleabs":"EQ_RESEA0000000325186813","nature":"Parking","nature_detaillee":null,"toponyme":null,"statut_du_toponyme":null,"importance":"5","numero":null,"fictif":false,"adresse_postale":null,"etat_de_l_objet":"En service","date_creation":"2013-08-28T08:21:51.759Z","date_modification":null,"date_d_apparition":null,"date_de_confirmation":"2012-07-01Z","sources":null,"identifiants_sources":null,"methode_d_acquisition_planimetrique":"Photogrammétrie","precision_planimetrique":2.5,"methode_d_acquisition_altimetrique":"Photogrammétrie","precision_altimetrique":1.5,"insee_commune":"10220","commune":"MAIZIERES-LA-GRANDE-PAROISSE","identifiant_voie_ban":null,"id_ban_odonyme":null}},{"type":"Feature","id":"equipement_de_transport.69098","geometry":{"type":"MultiPolygon","coordinates":[[[[3.76379198,48.50352167,76],[3.7637343,48.5033718,76],[3.76401238,48.50331693,76],[3.76503754,48.5031556,76],[3.76512343,48.50310467,76],[3.76529309,48.50294884,76],[3.76536945,48.50289347,76],[3.76551222,48.50284397,76],[3.76557163,48.50283279,76],[3.76560279,48.50283439,76],[3.76577133,48.50288098,76],[3.76579593,48.50289702,76],[3.76583301,48.50293277,76],[3.76584971,48.50296415,76],[3.76585552,48.5029911,76],[3.76585073,48.50303431,76],[3.76584025,48.50305777,76],[3.76572677,48.50316735,75.9],[3.7656972,48.50318194,75.8],[3.76566625,48.50319473,75.8],[3.76548437,48.50325438,75.5],[3.76526438,48.50330078,75.4],[3.76395018,48.50350806,75.4],[3.76382718,48.50352144,75.7],[3.76379198,48.50352167,76]]]]},"geometry_name":"geometrie","properties":{"cleabs":"EQ_RESEA0000000325186814","nature":"Parking","nature_detaillee":null,"toponyme":null,"statut_du_toponyme":null,"importance":"5","numero":null,"fictif":false,"adresse_postale":null,"etat_de_l_objet":"En service","date_creation":"2013-08-28T08:21:51.759Z","date_modification":"2024-05-30T12:18:50.266Z","date_d_apparition":null,"date_de_confirmation":"2012-07-01Z","sources":null,"identifiants_sources":null,"methode_d_acquisition_planimetrique":"Photogrammétrie","precision_planimetrique":2.5,"methode_d_acquisition_altimetrique":"Photogrammétrie","precision_altimetrique":1.5,"insee_commune":"10220","commune":"MAIZIERES-LA-GRANDE-PAROISSE","identifiant_voie_ban":null,"id_ban_odonyme":null}},{"type":"Feature","id":"equipement_de_transport.118019","geometry":{"type":"MultiPolygon","coordinates":[[[[3.76033426,48.50332253,-1000],[3.76033361,48.50327756,-1000],[3.76026593,48.50327799,-1000],[3.76026658,48.50332297,-1000],[3.76033426,48.50332253,-1000]]]]},"geometry_name":"geometrie","properties":{"cleabs":"EQ_RESEA0000002334227805","nature":"Service dédié aux véhicules","nature_detaillee":"Borne de rechargement électrique","toponyme":null,"statut_du_toponyme":null,"importance":"6","numero":null,"fictif":true,"adresse_postale":"97 Avenue du Général de Gaulle","etat_de_l_objet":"En service","date_creation":"2023-08-28T14:12:22.355Z","date_modification":"2023-11-13T07:16:04.011Z","date_d_apparition":"2021-01-19Z","date_de_confirmation":"2023-11-10Z","sources":"Etalab/SDEA (Syndicat départemental d'énergie de l'Aube) Public","identifiants_sources":"Etalab_modif:FRS10ESVMF2","methode_d_acquisition_planimetrique":"Fichier numérique non métrique","precision_planimetrique":5,"methode_d_acquisition_altimetrique":"Pas de Z","precision_altimetrique":9999,"insee_commune":"10220","commune":"MAIZIERES-LA-GRANDE-PAROISSE","identifiant_voie_ban":null,"id_ban_odonyme":null}},{"type":"Feature","id":"equipement_de_transport.118671","geometry":{"type":"MultiPolygon","coordinates":[[[[3.76033426,48.50332253,-1000],[3.76033361,48.50327756,-1000],[3.76026593,48.50327799,-1000],[3.76026658,48.50332297,-1000],[3.76033426,48.50332253,-1000]]]]},"geometry_name":"geometrie","properties":{"cleabs":"EQ_RESEA0000002334228602","nature":"Service dédié aux véhicules","nature_detaillee":"Borne de rechargement électrique","toponyme":null,"statut_du_toponyme":null,"importance":"6","numero":null,"fictif":true,"adresse_postale":"97 Avenue du Général de Gaulle","etat_de_l_objet":"En service","date_creation":"2023-08-28T14:12:22.355Z","date_modification":"2023-11-28T22:32:48.213Z","date_d_apparition":"2021-01-19Z","date_de_confirmation":"2023-11-21Z","sources":"Etalab/SDEA (Syndicat départemental d'énergie de l'Aube) Public","identifiants_sources":"Etalab_modif:FRS10ESVMF1","methode_d_acquisition_planimetrique":"Fichier numérique non métrique","precision_planimetrique":5,"methode_d_acquisition_altimetrique":"Pas de Z","precision_altimetrique":9999,"insee_commune":"10220","commune":"MAIZIERES-LA-GRANDE-PAROISSE","identifiant_voie_ban":null,"id_ban_odonyme":null}},{"type":"Feature","id":"equipement_de_transport.123630","geometry":{"type":"MultiPolygon","coordinates":[[[[3.78168601,48.50123538,-1000],[3.78168534,48.5011904,-1000],[3.78161766,48.50119084,-1000],[3.78161833,48.50123582,-1000],[3.78168601,48.50123538,-1000]]]]},"geometry_name":"geometrie","properties":{"cleabs":"EQ_RESEA0000002334234752","nature":"Service dédié aux véhicules","nature_detaillee":"Borne de rechargement électrique","toponyme":null,"statut_du_toponyme":null,"importance":"6","numero":null,"fictif":true,"adresse_postale":"27 Avenue Du Général De Gaulle","etat_de_l_objet":"En service","date_creation":"2023-08-28T14:12:22.355Z","date_modification":"2023-11-28T22:32:48.213Z","date_d_apparition":"2022-04-01Z","date_de_confirmation":"2023-11-20Z","sources":"Etalab/SDEA (Syndicat départemental d'énergie de l'Aube) Public","identifiants_sources":"Etalab_modif:FRS10ENPMA2","methode_d_acquisition_planimetrique":"Fichier numérique non métrique","precision_planimetrique":5,"methode_d_acquisition_altimetrique":"Pas de Z","precision_altimetrique":9999,"insee_commune":"10220","commune":"MAIZIERES-LA-GRANDE-PAROISSE","identifiant_voie_ban":null,"id_ban_odonyme":null}},{"type":"Feature","id":"equipement_de_transport.124267","geometry":{"type":"MultiPolygon","coordinates":[[[[3.78583508,48.50918415,-1000],[3.7858344,48.50913917,-1000],[3.78576671,48.50913962,-1000],[3.78576739,48.5091846,-1000],[3.78583508,48.50918415,-1000]]]]},"geometry_name":"geometrie","properties":{"cleabs":"EQ_RESEA0000002334235554","nature":"Service dédié aux véhicules","nature_detaillee":"Borne de rechargement électrique","toponyme":null,"statut_du_toponyme":null,"importance":"6","numero":null,"fictif":true,"adresse_postale":"6 Rue de la République","etat_de_l_objet":"En service","date_creation":"2023-08-28T14:12:22.355Z","date_modification":"2023-11-28T22:32:48.213Z","date_d_apparition":"2021-01-19Z","date_de_confirmation":"2023-11-16Z","sources":"Etalab/SDEA (Syndicat départemental d'énergie de l'Aube) Public","identifiants_sources":"Etalab_modif:FRS10ESVSS1","methode_d_acquisition_planimetrique":"Fichier numérique non métrique","precision_planimetrique":5,"methode_d_acquisition_altimetrique":"Pas de Z","precision_altimetrique":9999,"insee_commune":"10220","commune":"MAIZIERES-LA-GRANDE-PAROISSE","identifiant_voie_ban":null,"id_ban_odonyme":null}},{"type":"Feature","id":"equipement_de_transport.125777","geometry":{"type":"MultiPolygon","coordinates":[[[[3.78168601,48.50123538,-1000],[3.78168534,48.5011904,-1000],[3.78161766,48.50119084,-1000],[3.78161833,48.50123582,-1000],[3.78168601,48.50123538,-1000]]]]},"geometry_name":"geometrie","properties":{"cleabs":"EQ_RESEA0000002334237392","nature":"Service dédié aux véhicules","nature_detaillee":"Borne de rechargement électrique","toponyme":null,"statut_du_toponyme":null,"importance":"6","numero":null,"fictif":true,"adresse_postale":"27 Avenue Du Général De Gaulle","etat_de_l_objet":"En service","date_creation":"2023-08-28T14:12:22.355Z","date_modification":"2023-11-28T22:32:48.213Z","date_d_apparition":"2022-08-04Z","date_de_confirmation":"2023-11-21Z","sources":"Etalab/SDEA (Syndicat départemental d'énergie de l'Aube) Public","identifiants_sources":"Etalab_modif:FRS10ENPMA3","methode_d_acquisition_planimetrique":"Fichier numérique non métrique","precision_planimetrique":5,"methode_d_acquisition_altimetrique":"Pas de Z","precision_altimetrique":9999,"insee_commune":"10220","commune":"MAIZIERES-LA-GRANDE-PAROISSE","identifiant_voie_ban":null,"id_ban_odonyme":null}},{"type":"Feature","id":"equipement_de_transport.127528","geometry":{"type":"MultiPolygon","coordinates":[[[[3.78583508,48.50918415,-1000],[3.7858344,48.50913917,-1000],[3.78576671,48.50913962,-1000],[3.78576739,48.5091846,-1000],[3.78583508,48.50918415,-1000]]]]},"geometry_name":"geometrie","properties":{"cleabs":"EQ_RESEA0000002334239593","nature":"Service dédié aux véhicules","nature_detaillee":"Borne de rechargement électrique","toponyme":null,"statut_du_toponyme":null,"importance":"6","numero":null,"fictif":true,"adresse_postale":"6 Rue de la République","etat_de_l_objet":"En service","date_creation":"2023-08-28T14:12:22.355Z","date_modification":"2023-11-28T22:32:48.213Z","date_d_apparition":"2021-01-19Z","date_de_confirmation":"2023-11-16Z","sources":"Etalab/SDEA (Syndicat départemental d'énergie de l'Aube) Public","identifiants_sources":"Etalab_modif:FRS10ESVSS2","methode_d_acquisition_planimetrique":"Fichier numérique non métrique","precision_planimetrique":5,"methode_d_acquisition_altimetrique":"Pas de Z","precision_altimetrique":9999,"insee_commune":"10220","commune":"MAIZIERES-LA-GRANDE-PAROISSE","identifiant_voie_ban":null,"id_ban_odonyme":null}},{"type":"Feature","id":"equipement_de_transport.127721","geometry":{"type":"MultiPolygon","coordinates":[[[[3.78168601,48.50123538,-1000],[3.78168534,48.5011904,-1000],[3.78161766,48.50119084,-1000],[3.78161833,48.50123582,-1000],[3.78168601,48.50123538,-1000]]]]},"geometry_name":"geometrie","properties":{"cleabs":"EQ_RESEA0000002334239820","nature":"Service dédié aux véhicules","nature_detaillee":"Borne de rechargement électrique","toponyme":null,"statut_du_toponyme":null,"importance":"6","numero":null,"fictif":true,"adresse_postale":"27 Avenue Du Général De Gaulle","etat_de_l_objet":"En service","date_creation":"2023-08-28T14:12:22.355Z","date_modification":"2023-11-28T22:32:48.213Z","date_d_apparition":"2022-04-01Z","date_de_confirmation":"2023-11-19Z","sources":"Etalab/SDEA (Syndicat départemental d'énergie de l'Aube) Public","identifiants_sources":"Etalab_modif:FRS10ENPMA1","methode_d_acquisition_planimetrique":"Fichier numérique non métrique","precision_planimetrique":5,"methode_d_acquisition_altimetrique":"Pas de Z","precision_altimetrique":9999,"insee_commune":"10220","commune":"MAIZIERES-LA-GRANDE-PAROISSE","identifiant_voie_ban":null,"id_ban_odonyme":null}},{"type":"Feature","id":"equipement_de_transport.181427","geometry":{"type":"MultiPolygon","coordinates":[[[[3.78064538,48.50117025,-1000],[3.7806291,48.50107679,-1000],[3.78066548,48.50106486,-1000],[3.7809876,48.50106094,-1000],[3.78104846,48.50105694,-1000],[3.78106561,48.50102714,-1000],[3.78103669,48.50090318,-1000],[3.78095419,48.50090822,-1000],[3.78091865,48.5007942,-1000],[3.78054929,48.50080743,-1000],[3.78053952,48.50069684,-1000],[3.78096314,48.50069045,-1000],[3.7809777,48.50066877,-1000],[3.78109273,48.50066621,-1000],[3.78111234,48.50080103,-1000],[3.78133841,48.50080134,-1000],[3.7813398,48.50089489,-1000],[3.78127629,48.50090251,-1000],[3.781164,48.50090684,-1000],[3.78118057,48.50102009,-1000],[3.78119855,48.50104516,-1000],[3.78125139,48.50104841,-1000],[3.78130004,48.50104269,-1000],[3.78157751,48.50103997,-1000],[3.78197552,48.50104095,-1000],[3.78198246,48.50114346,-1000],[3.78128006,48.50115528,-1000],[3.78128484,48.50111297,-1000],[3.78121861,48.5011197,-1000],[3.78107387,48.50112695,-1000],[3.78103866,48.50112628,-1000],[3.78103921,48.50116316,-1000],[3.78064538,48.50117025,-1000]]]]},"geometry_name":"geometrie","properties":{"cleabs":"EQ_RESEA0000002494346387","nature":"Parking","nature_detaillee":null,"toponyme":null,"statut_du_toponyme":null,"importance":"5","numero":null,"fictif":false,"adresse_postale":null,"etat_de_l_objet":"En service","date_creation":"2025-11-25T12:18:28.248Z","date_modification":null,"date_d_apparition":null,"date_de_confirmation":null,"sources":null,"identifiants_sources":null,"methode_d_acquisition_planimetrique":"Orthophotographie","precision_planimetrique":3,"methode_d_acquisition_altimetrique":"Pas de Z","precision_altimetrique":9999,"insee_commune":"10220","commune":null,"identifiant_voie_ban":null,"id_ban_odonyme":null}}]}