{"type":"FeatureCollection","metadata":{"name":"Bâtiments relevés manuellement sur orthophoto (V2.2) — couche non officielle, séparée et désactivable","version":"2.2","generatedBy":"scripts/build-manual-buildings.mjs","provenance":"orthophoto_manual_v2.2","decisionsSha256":"5af7e5ee32c143ff55cfcdef2199863d03325389d8b76b8be81954a96fe24609","count":12,"inCommune":12,"disable":"retirer ce fichier de la liste chargée par src/main.js (ou ?manual=0) suffit à revenir à la V2.1"},"features":[{"type":"Feature","id":"manual-v2.2:vis-U2","geometry":{"type":"Polygon","coordinates":[[[3.78678747,48.50619827],[3.78685054,48.50622439],[3.78681425,48.50626916],[3.78676544,48.50626409],[3.78675971,48.50624299],[3.78676681,48.50622],[3.78678747,48.50619827]]]},"properties":{"id":"manual-v2.2:vis-U2","source":"BD ORTHO IGN avril 2025 - relevé manuel V2.2","provenance":"orthophoto_manual_v2.2","confidence":"B","inCommune":true,"observation":"maison à toiture brune, rue du Maréchal-de-Lattre-de-Tassigny ; seule la toiture brune est relevée, la surface claire voisine (terrasse) ne l’est pas","sector":"Rue du Mal de Lattre de Tassigny (adresse BAN la plus proche, 20 m)","originalMissingId":"vis-U2","auditVersion":"2.2","manualGeometry":true,"evidence":["BD ORTHO IGN 20 cm (vol des 28–29 avril 2025) : toiture nettement visible et délimitable (maison à toiture brune, rue du Maréchal-de-Lattre-de-Tassigny ; seule la toiture brune est relevée, la surface claire voisine (terrasse) ne l’est pas)","recontrôle du 26/09/2026 : aucune empreinte BD TOPO (2 489 objets au service), Parcellaire Express (2 258), forme RNB ni OSM à cet endroit (data-sources/geo-audit-v2.1/recheck-16-sans-geometrie.json)"],"geometryMethod":"relevé manuel des angles de toiture sur l’orthophoto IGN (WMS-R ORTHOIMAGERY.ORTHOPHOTOS, 40 px/m, quadrillage de 1 m), polygone minimal ; précision estimée ± 0,5 à 1 m","reviewStatus":"relevé V2.2, à valider visuellement par l’utilisateur","uncertainty":"limite ouest sous la végétation, ± 1 m","category":"habitation","categoryLabel":"habitation","categoryNote":"maison selon l’observation (toiture brune à deux pans, attenante à une terrasse) ; usage résidentiel non établi par une source","areaM2":33.91,"parts":1,"holes":0,"rnb":null,"ign":null,"osm":null,"derived":{"wallHeight":null,"roofHeight":null,"floors":null,"roofMaterials":[],"roofMaterialCode":null,"wallMaterialCode":null,"usage":null,"nature":null,"lightConstruction":false,"heightAccuracy":null},"height":{"status":"unknown","value":null,"note":"aucune hauteur mesurée : le rendu utilise une hauteur par défaut estimée d’après la forme, à ne jamais présenter comme officielle"},"validation":{"confidence":"B","status":"relevé manuel sur orthophoto (V2.2), aucune géométrie publique disponible","evidence":["BD ORTHO IGN 20 cm (vol des 28–29 avril 2025) : toiture nettement visible et délimitable (maison à toiture brune, rue du Maréchal-de-Lattre-de-Tassigny ; seule la toiture brune est relevée, la surface claire voisine (terrasse) ne l’est pas)","recontrôle du 26/09/2026 : aucune empreinte BD TOPO (2 489 objets au service), Parcellaire Express (2 258), forme RNB ni OSM à cet endroit (data-sources/geo-audit-v2.1/recheck-16-sans-geometrie.json)"]},"audit":{"version":"2.2","status":"manuel","originalMissingId":"vis-U2"}}},{"type":"Feature","id":"manual-v2.2:vis-A","geometry":{"type":"Polygon","coordinates":[[[3.80727131,48.51174655],[3.80760595,48.51171567],[3.80758944,48.51165443],[3.80726032,48.51169175],[3.80727131,48.51174655]]]},"properties":{"id":"manual-v2.2:vis-A","source":"BD ORTHO IGN avril 2025 - relevé manuel V2.2","provenance":"orthophoto_manual_v2.2","confidence":"A","inCommune":true,"observation":"bâtiment à toit-terrasse brun-rose (≈ 25 × 6,5 m) sur la D20 à Poussey, au sud-est du château d’eau","sector":"Rue Joliot Curie (adresse BAN la plus proche, 6 m)","originalMissingId":"vis-A","auditVersion":"2.2","manualGeometry":true,"evidence":["BD ORTHO IGN 20 cm (vol des 28–29 avril 2025) : toiture nettement visible et délimitable (bâtiment à toit-terrasse brun-rose (≈ 25 × 6,5 m) sur la D20 à Poussey, au sud-est du château d’eau)","recontrôle du 26/09/2026 : aucune empreinte BD TOPO (2 489 objets au service), Parcellaire Express (2 258), forme RNB ni OSM à cet endroit (data-sources/geo-audit-v2.1/recheck-16-sans-geometrie.json)"],"geometryMethod":"relevé manuel des angles de toiture sur l’orthophoto IGN (WMS-R ORTHOIMAGERY.ORTHOPHOTOS, 40 px/m, quadrillage de 1 m), polygone minimal ; précision estimée ± 0,5 à 1 m","reviewStatus":"relevé V2.2, à valider visuellement par l’utilisateur","uncertainty":"arêtes nettes, ± 0,5 m","category":"usage_non_etabli","categoryLabel":"usage non établi","categoryNote":"bâtiment à toit-terrasse accolé au nord du grand bâtiment voisin, face au château d’eau ; usage non établi","areaM2":161.96,"parts":1,"holes":0,"rnb":null,"ign":null,"osm":null,"derived":{"wallHeight":null,"roofHeight":null,"floors":null,"roofMaterials":[],"roofMaterialCode":null,"wallMaterialCode":null,"usage":null,"nature":null,"lightConstruction":false,"heightAccuracy":null},"height":{"status":"unknown","value":null,"note":"aucune hauteur mesurée : le rendu utilise une hauteur par défaut estimée d’après la forme, à ne jamais présenter comme officielle"},"validation":{"confidence":"A","status":"relevé manuel sur orthophoto (V2.2), aucune géométrie publique disponible","evidence":["BD ORTHO IGN 20 cm (vol des 28–29 avril 2025) : toiture nettement visible et délimitable (bâtiment à toit-terrasse brun-rose (≈ 25 × 6,5 m) sur la D20 à Poussey, au sud-est du château d’eau)","recontrôle du 26/09/2026 : aucune empreinte BD TOPO (2 489 objets au service), Parcellaire Express (2 258), forme RNB ni OSM à cet endroit (data-sources/geo-audit-v2.1/recheck-16-sans-geometrie.json)"]},"audit":{"version":"2.2","status":"manuel","originalMissingId":"vis-A"}}},{"type":"Feature","id":"manual-v2.2:vis-F","geometry":{"type":"Polygon","coordinates":[[[3.78798028,48.50522956],[3.78826186,48.50534572],[3.7882938,48.50530845],[3.78798102,48.50517018],[3.78798028,48.50522956]]]},"properties":{"id":"manual-v2.2:vis-F","source":"BD ORTHO IGN avril 2025 - relevé manuel V2.2","provenance":"orthophoto_manual_v2.2","confidence":"A","inCommune":true,"observation":"long bâtiment (≈ 27 × 6 m) à toiture bleu-gris, rue Maurice-Renault","sector":"Rue Maurice Renault (adresse BAN la plus proche, 35 m)","originalMissingId":"vis-F","auditVersion":"2.2","manualGeometry":true,"evidence":["BD ORTHO IGN 20 cm (vol des 28–29 avril 2025) : toiture nettement visible et délimitable (long bâtiment (≈ 27 × 6 m) à toiture bleu-gris, rue Maurice-Renault)","recontrôle du 26/09/2026 : aucune empreinte BD TOPO (2 489 objets au service), Parcellaire Express (2 258), forme RNB ni OSM à cet endroit (data-sources/geo-audit-v2.1/recheck-16-sans-geometrie.json)"],"geometryMethod":"relevé manuel des angles de toiture sur l’orthophoto IGN (WMS-R ORTHOIMAGERY.ORTHOPHOTOS, 40 px/m, quadrillage de 1 m), polygone minimal ; précision estimée ± 0,5 à 1 m","reviewStatus":"relevé V2.2, à valider visuellement par l’utilisateur","uncertainty":"extrémité ouest au ras d’une haie, ± 1 m","category":"usage_non_etabli","categoryLabel":"usage non établi","categoryNote":"long bâtiment à toiture bleu-gris, grange ou hangar probable ; usage non établi","areaM2":134.99,"parts":1,"holes":0,"rnb":null,"ign":null,"osm":null,"derived":{"wallHeight":null,"roofHeight":null,"floors":null,"roofMaterials":[],"roofMaterialCode":null,"wallMaterialCode":null,"usage":null,"nature":null,"lightConstruction":false,"heightAccuracy":null},"height":{"status":"unknown","value":null,"note":"aucune hauteur mesurée : le rendu utilise une hauteur par défaut estimée d’après la forme, à ne jamais présenter comme officielle"},"validation":{"confidence":"A","status":"relevé manuel sur orthophoto (V2.2), aucune géométrie publique disponible","evidence":["BD ORTHO IGN 20 cm (vol des 28–29 avril 2025) : toiture nettement visible et délimitable (long bâtiment (≈ 27 × 6 m) à toiture bleu-gris, rue Maurice-Renault)","recontrôle du 26/09/2026 : aucune empreinte BD TOPO (2 489 objets au service), Parcellaire Express (2 258), forme RNB ni OSM à cet endroit (data-sources/geo-audit-v2.1/recheck-16-sans-geometrie.json)"]},"audit":{"version":"2.2","status":"manuel","originalMissingId":"vis-F"}}},{"type":"Feature","id":"manual-v2.2:vis-D1","geometry":{"type":"Polygon","coordinates":[[[3.78491127,48.50815991],[3.78507727,48.50815162],[3.7850682,48.5080887],[3.7849072,48.50809633],[3.78491127,48.50815991]]]},"properties":{"id":"manual-v2.2:vis-D1","source":"BD ORTHO IGN avril 2025 - relevé manuel V2.2","provenance":"orthophoto_manual_v2.2","confidence":"A","inCommune":true,"observation":"serre (≈ 12 × 7 m) entre la cour et le grand bâtiment, rue du Général-Leclerc","sector":"Rue du General Leclerc (adresse BAN la plus proche, 50 m)","originalMissingId":"vis-D1","auditVersion":"2.2","manualGeometry":true,"evidence":["BD ORTHO IGN 20 cm (vol des 28–29 avril 2025) : toiture nettement visible et délimitable (serre (≈ 12 × 7 m) entre la cour et le grand bâtiment, rue du Général-Leclerc)","recontrôle du 26/09/2026 : aucune empreinte BD TOPO (2 489 objets au service), Parcellaire Express (2 258), forme RNB ni OSM à cet endroit (data-sources/geo-audit-v2.1/recheck-16-sans-geometrie.json)"],"geometryMethod":"relevé manuel des angles de toiture sur l’orthophoto IGN (WMS-R ORTHOIMAGERY.ORTHOPHOTOS, 40 px/m, quadrillage de 1 m), polygone minimal ; précision estimée ± 0,5 à 1 m","reviewStatus":"relevé V2.2, à valider visuellement par l’utilisateur","uncertainty":"± 0,5 m","category":"serre","categoryLabel":"serre","categoryNote":"serre vitrée","areaM2":85.34,"parts":1,"holes":0,"rnb":null,"ign":null,"osm":null,"derived":{"wallHeight":null,"roofHeight":null,"floors":null,"roofMaterials":[],"roofMaterialCode":null,"wallMaterialCode":null,"usage":null,"nature":null,"lightConstruction":true,"heightAccuracy":null},"height":{"status":"unknown","value":null,"note":"aucune hauteur mesurée : le rendu utilise une hauteur par défaut estimée d’après la forme, à ne jamais présenter comme officielle"},"validation":{"confidence":"A","status":"relevé manuel sur orthophoto (V2.2), aucune géométrie publique disponible","evidence":["BD ORTHO IGN 20 cm (vol des 28–29 avril 2025) : toiture nettement visible et délimitable (serre (≈ 12 × 7 m) entre la cour et le grand bâtiment, rue du Général-Leclerc)","recontrôle du 26/09/2026 : aucune empreinte BD TOPO (2 489 objets au service), Parcellaire Express (2 258), forme RNB ni OSM à cet endroit (data-sources/geo-audit-v2.1/recheck-16-sans-geometrie.json)"]},"audit":{"version":"2.2","status":"manuel","originalMissingId":"vis-D1"}}},{"type":"Feature","id":"manual-v2.2:vis-H1","geometry":{"type":"Polygon","coordinates":[[[3.76816392,48.50511552],[3.76828177,48.50509272],[3.76822781,48.50498511],[3.76812173,48.50500784],[3.76816392,48.50511552]]]},"properties":{"id":"manual-v2.2:vis-H1","source":"BD ORTHO IGN avril 2025 - relevé manuel V2.2","provenance":"orthophoto_manual_v2.2","confidence":"A","inCommune":true,"observation":"bâtiment à toit plat blanc (≈ 12,5 × 8,5 m), rue du Pot-Bancelin","sector":"Rue du Pot Bancelin (adresse BAN la plus proche, 20 m)","originalMissingId":"vis-H1","auditVersion":"2.2","manualGeometry":true,"evidence":["BD ORTHO IGN 20 cm (vol des 28–29 avril 2025) : toiture nettement visible et délimitable (bâtiment à toit plat blanc (≈ 12,5 × 8,5 m), rue du Pot-Bancelin)","recontrôle du 26/09/2026 : aucune empreinte BD TOPO (2 489 objets au service), Parcellaire Express (2 258), forme RNB ni OSM à cet endroit (data-sources/geo-audit-v2.1/recheck-16-sans-geometrie.json)"],"geometryMethod":"relevé manuel des angles de toiture sur l’orthophoto IGN (WMS-R ORTHOIMAGERY.ORTHOPHOTOS, 40 px/m, quadrillage de 1 m), polygone minimal ; précision estimée ± 0,5 à 1 m","reviewStatus":"relevé V2.2, à valider visuellement par l’utilisateur","uncertainty":"± 0,5 m","category":"usage_non_etabli","categoryLabel":"usage non établi","categoryNote":"bâtiment à toit plat blanc ; usage non établi","areaM2":107.96,"parts":1,"holes":0,"rnb":null,"ign":null,"osm":null,"derived":{"wallHeight":null,"roofHeight":null,"floors":null,"roofMaterials":[],"roofMaterialCode":null,"wallMaterialCode":null,"usage":null,"nature":null,"lightConstruction":false,"heightAccuracy":null},"height":{"status":"unknown","value":null,"note":"aucune hauteur mesurée : le rendu utilise une hauteur par défaut estimée d’après la forme, à ne jamais présenter comme officielle"},"validation":{"confidence":"A","status":"relevé manuel sur orthophoto (V2.2), aucune géométrie publique disponible","evidence":["BD ORTHO IGN 20 cm (vol des 28–29 avril 2025) : toiture nettement visible et délimitable (bâtiment à toit plat blanc (≈ 12,5 × 8,5 m), rue du Pot-Bancelin)","recontrôle du 26/09/2026 : aucune empreinte BD TOPO (2 489 objets au service), Parcellaire Express (2 258), forme RNB ni OSM à cet endroit (data-sources/geo-audit-v2.1/recheck-16-sans-geometrie.json)"]},"audit":{"version":"2.2","status":"manuel","originalMissingId":"vis-H1"}}},{"type":"Feature","id":"manual-v2.2:vis-H2","geometry":{"type":"Polygon","coordinates":[[[3.76844965,48.5051116],[3.76858659,48.50508868],[3.76854527,48.50496596],[3.76839494,48.50498106],[3.76844965,48.5051116]]]},"properties":{"id":"manual-v2.2:vis-H2","source":"BD ORTHO IGN avril 2025 - relevé manuel V2.2","provenance":"orthophoto_manual_v2.2","confidence":"A","inCommune":true,"observation":"bâtiment à toiture grise (≈ 14,5 × 11 m), rue du Pot-Bancelin","sector":"Rue du Pot Bancelin (adresse BAN la plus proche, 17 m)","originalMissingId":"vis-H2","auditVersion":"2.2","manualGeometry":true,"evidence":["BD ORTHO IGN 20 cm (vol des 28–29 avril 2025) : toiture nettement visible et délimitable (bâtiment à toiture grise (≈ 14,5 × 11 m), rue du Pot-Bancelin)","recontrôle du 26/09/2026 : aucune empreinte BD TOPO (2 489 objets au service), Parcellaire Express (2 258), forme RNB ni OSM à cet endroit (data-sources/geo-audit-v2.1/recheck-16-sans-geometrie.json)"],"geometryMethod":"relevé manuel des angles de toiture sur l’orthophoto IGN (WMS-R ORTHOIMAGERY.ORTHOPHOTOS, 40 px/m, quadrillage de 1 m), polygone minimal ; précision estimée ± 0,5 à 1 m","reviewStatus":"relevé V2.2, à valider visuellement par l’utilisateur","uncertainty":"± 0,5 m","category":"usage_non_etabli","categoryLabel":"usage non établi","categoryNote":"bâtiment à grande toiture grise ; usage non établi","areaM2":156.84,"parts":1,"holes":0,"rnb":null,"ign":null,"osm":null,"derived":{"wallHeight":null,"roofHeight":null,"floors":null,"roofMaterials":[],"roofMaterialCode":null,"wallMaterialCode":null,"usage":null,"nature":null,"lightConstruction":false,"heightAccuracy":null},"height":{"status":"unknown","value":null,"note":"aucune hauteur mesurée : le rendu utilise une hauteur par défaut estimée d’après la forme, à ne jamais présenter comme officielle"},"validation":{"confidence":"A","status":"relevé manuel sur orthophoto (V2.2), aucune géométrie publique disponible","evidence":["BD ORTHO IGN 20 cm (vol des 28–29 avril 2025) : toiture nettement visible et délimitable (bâtiment à toiture grise (≈ 14,5 × 11 m), rue du Pot-Bancelin)","recontrôle du 26/09/2026 : aucune empreinte BD TOPO (2 489 objets au service), Parcellaire Express (2 258), forme RNB ni OSM à cet endroit (data-sources/geo-audit-v2.1/recheck-16-sans-geometrie.json)"]},"audit":{"version":"2.2","status":"manuel","originalMissingId":"vis-H2"}}},{"type":"Feature","id":"manual-v2.2:vis-I","geometry":{"type":"Polygon","coordinates":[[[3.76818291,48.50594998],[3.7683817,48.50588869],[3.76836923,48.50586025],[3.7681646,48.50592005],[3.76818291,48.50594998]]]},"properties":{"id":"manual-v2.2:vis-I","source":"BD ORTHO IGN avril 2025 - relevé manuel V2.2","provenance":"orthophoto_manual_v2.2","confidence":"B","inCommune":true,"observation":"dépendance allongée (≈ 16 × 3,5 m) à toiture brune, chemin de la Guide","sector":"Le Chemin de la Guide (adresse BAN la plus proche, 60 m)","originalMissingId":"vis-I","auditVersion":"2.2","manualGeometry":true,"evidence":["BD ORTHO IGN 20 cm (vol des 28–29 avril 2025) : toiture nettement visible et délimitable (dépendance allongée (≈ 16 × 3,5 m) à toiture brune, chemin de la Guide)","recontrôle du 26/09/2026 : aucune empreinte BD TOPO (2 489 objets au service), Parcellaire Express (2 258), forme RNB ni OSM à cet endroit (data-sources/geo-audit-v2.1/recheck-16-sans-geometrie.json)"],"geometryMethod":"relevé manuel des angles de toiture sur l’orthophoto IGN (WMS-R ORTHOIMAGERY.ORTHOPHOTOS, 40 px/m, quadrillage de 1 m), polygone minimal ; précision estimée ± 0,5 à 1 m","reviewStatus":"relevé V2.2, à valider visuellement par l’utilisateur","uncertainty":"bord sud dans l’ombre des arbres, ± 1 m","category":"annexe","categoryLabel":"annexe / dépendance","categoryNote":"dépendance allongée à toiture brune","areaM2":55.99,"parts":1,"holes":0,"rnb":null,"ign":null,"osm":null,"derived":{"wallHeight":null,"roofHeight":null,"floors":null,"roofMaterials":[],"roofMaterialCode":null,"wallMaterialCode":null,"usage":null,"nature":null,"lightConstruction":false,"heightAccuracy":null},"height":{"status":"unknown","value":null,"note":"aucune hauteur mesurée : le rendu utilise une hauteur par défaut estimée d’après la forme, à ne jamais présenter comme officielle"},"validation":{"confidence":"B","status":"relevé manuel sur orthophoto (V2.2), aucune géométrie publique disponible","evidence":["BD ORTHO IGN 20 cm (vol des 28–29 avril 2025) : toiture nettement visible et délimitable (dépendance allongée (≈ 16 × 3,5 m) à toiture brune, chemin de la Guide)","recontrôle du 26/09/2026 : aucune empreinte BD TOPO (2 489 objets au service), Parcellaire Express (2 258), forme RNB ni OSM à cet endroit (data-sources/geo-audit-v2.1/recheck-16-sans-geometrie.json)"]},"audit":{"version":"2.2","status":"manuel","originalMissingId":"vis-I"}}},{"type":"Feature","id":"manual-v2.2:vis-P1","geometry":{"type":"Polygon","coordinates":[[[3.79173619,48.49920852],[3.79192465,48.49920169],[3.79191848,48.4991518],[3.79173543,48.49915833],[3.79173619,48.49920852]]]},"properties":{"id":"manual-v2.2:vis-P1","source":"BD ORTHO IGN avril 2025 - relevé manuel V2.2","provenance":"orthophoto_manual_v2.2","confidence":"A","inCommune":true,"observation":"bâtiment à toiture sombre (≈ 14 × 5,5 m) accolé à l’est du long bâtiment, rue de la Chefferie","sector":"Rue de la Chefferie (adresse BAN la plus proche, 26 m)","originalMissingId":"vis-P1","auditVersion":"2.2","manualGeometry":true,"evidence":["BD ORTHO IGN 20 cm (vol des 28–29 avril 2025) : toiture nettement visible et délimitable (bâtiment à toiture sombre (≈ 14 × 5,5 m) accolé à l’est du long bâtiment, rue de la Chefferie)","recontrôle du 26/09/2026 : aucune empreinte BD TOPO (2 489 objets au service), Parcellaire Express (2 258), forme RNB ni OSM à cet endroit (data-sources/geo-audit-v2.1/recheck-16-sans-geometrie.json)"],"geometryMethod":"relevé manuel des angles de toiture sur l’orthophoto IGN (WMS-R ORTHOIMAGERY.ORTHOPHOTOS, 40 px/m, quadrillage de 1 m), polygone minimal ; précision estimée ± 0,5 à 1 m","reviewStatus":"relevé V2.2, à valider visuellement par l’utilisateur","uncertainty":"± 0,5 m","category":"annexe","categoryLabel":"annexe / dépendance","categoryNote":"dépendance accolée au long bâtiment","areaM2":76.53,"parts":1,"holes":0,"rnb":null,"ign":null,"osm":null,"derived":{"wallHeight":null,"roofHeight":null,"floors":null,"roofMaterials":[],"roofMaterialCode":null,"wallMaterialCode":null,"usage":null,"nature":null,"lightConstruction":false,"heightAccuracy":null},"height":{"status":"unknown","value":null,"note":"aucune hauteur mesurée : le rendu utilise une hauteur par défaut estimée d’après la forme, à ne jamais présenter comme officielle"},"validation":{"confidence":"A","status":"relevé manuel sur orthophoto (V2.2), aucune géométrie publique disponible","evidence":["BD ORTHO IGN 20 cm (vol des 28–29 avril 2025) : toiture nettement visible et délimitable (bâtiment à toiture sombre (≈ 14 × 5,5 m) accolé à l’est du long bâtiment, rue de la Chefferie)","recontrôle du 26/09/2026 : aucune empreinte BD TOPO (2 489 objets au service), Parcellaire Express (2 258), forme RNB ni OSM à cet endroit (data-sources/geo-audit-v2.1/recheck-16-sans-geometrie.json)"]},"audit":{"version":"2.2","status":"manuel","originalMissingId":"vis-P1"}}},{"type":"Feature","id":"manual-v2.2:vis-Q","geometry":{"type":"Polygon","coordinates":[[[3.77476787,48.50282446],[3.77482201,48.50282411],[3.77481939,48.50275665],[3.77476687,48.502757],[3.77476787,48.50282446]]]},"properties":{"id":"manual-v2.2:vis-Q","source":"BD ORTHO IGN avril 2025 - relevé manuel V2.2","provenance":"orthophoto_manual_v2.2","confidence":"C","inCommune":true,"observation":"abri à toiture gris sombre (≈ 7,5 × 4 m) dans les jardins à l’ouest de l’avenue du Général-de-Gaulle","sector":"Avenue du General de Gaulle (adresse BAN la plus proche, 62 m)","originalMissingId":"vis-Q","auditVersion":"2.2","manualGeometry":true,"evidence":["BD ORTHO IGN 20 cm (vol des 28–29 avril 2025) : toiture nettement visible et délimitable (abri à toiture gris sombre (≈ 7,5 × 4 m) dans les jardins à l’ouest de l’avenue du Général-de-Gaulle)","recontrôle du 26/09/2026 : aucune empreinte BD TOPO (2 489 objets au service), Parcellaire Express (2 258), forme RNB ni OSM à cet endroit (data-sources/geo-audit-v2.1/recheck-16-sans-geometrie.json)"],"geometryMethod":"relevé manuel des angles de toiture sur l’orthophoto IGN (WMS-R ORTHOIMAGERY.ORTHOPHOTOS, 40 px/m, quadrillage de 1 m), polygone minimal ; précision estimée ± 0,5 à 1 m","reviewStatus":"relevé V2.2, à valider visuellement par l’utilisateur","uncertainty":"bout nord sous un arbre ; seule la partie de toiture nette est relevée, ± 1 m","category":"abri","categoryLabel":"abri","categoryNote":"abri de jardin à toiture sombre","areaM2":29.55,"parts":1,"holes":0,"rnb":null,"ign":null,"osm":null,"derived":{"wallHeight":null,"roofHeight":null,"floors":null,"roofMaterials":[],"roofMaterialCode":null,"wallMaterialCode":null,"usage":null,"nature":null,"lightConstruction":true,"heightAccuracy":null},"height":{"status":"unknown","value":null,"note":"aucune hauteur mesurée : le rendu utilise une hauteur par défaut estimée d’après la forme, à ne jamais présenter comme officielle"},"validation":{"confidence":"C","status":"relevé manuel sur orthophoto (V2.2), aucune géométrie publique disponible","evidence":["BD ORTHO IGN 20 cm (vol des 28–29 avril 2025) : toiture nettement visible et délimitable (abri à toiture gris sombre (≈ 7,5 × 4 m) dans les jardins à l’ouest de l’avenue du Général-de-Gaulle)","recontrôle du 26/09/2026 : aucune empreinte BD TOPO (2 489 objets au service), Parcellaire Express (2 258), forme RNB ni OSM à cet endroit (data-sources/geo-audit-v2.1/recheck-16-sans-geometrie.json)"]},"audit":{"version":"2.2","status":"manuel","originalMissingId":"vis-Q"}}},{"type":"Feature","id":"manual-v2.2:vis-R1","geometry":{"type":"Polygon","coordinates":[[[3.77105407,48.50159723],[3.77112415,48.50159426],[3.771117,48.5015226],[3.77110502,48.50146258],[3.77103736,48.50146464],[3.77104866,48.50152439],[3.77105407,48.50159723]]]},"properties":{"id":"manual-v2.2:vis-R1","source":"BD ORTHO IGN avril 2025 - relevé manuel V2.2","provenance":"orthophoto_manual_v2.2","confidence":"B","inCommune":true,"observation":"hangar léger (≈ 15 × 5 m) à toiture grise et blanche, à l’ouest de l’avenue du Général-de-Gaulle","sector":"sans adresse à moins de 80 m (Avenue du General de Gaulle à 91 m)","originalMissingId":"vis-R1","auditVersion":"2.2","manualGeometry":true,"evidence":["BD ORTHO IGN 20 cm (vol des 28–29 avril 2025) : toiture nettement visible et délimitable (hangar léger (≈ 15 × 5 m) à toiture grise et blanche, à l’ouest de l’avenue du Général-de-Gaulle)","recontrôle du 26/09/2026 : aucune empreinte BD TOPO (2 489 objets au service), Parcellaire Express (2 258), forme RNB ni OSM à cet endroit (data-sources/geo-audit-v2.1/recheck-16-sans-geometrie.json)"],"geometryMethod":"relevé manuel des angles de toiture sur l’orthophoto IGN (WMS-R ORTHOIMAGERY.ORTHOPHOTOS, 40 px/m, quadrillage de 1 m), polygone minimal ; précision estimée ± 0,5 à 1 m","reviewStatus":"relevé V2.2, à valider visuellement par l’utilisateur","uncertainty":"± 0,5 m","category":"hangar","categoryLabel":"hangar","categoryNote":"hangar léger (deux travées claires)","areaM2":74.8,"parts":1,"holes":0,"rnb":null,"ign":null,"osm":null,"derived":{"wallHeight":null,"roofHeight":null,"floors":null,"roofMaterials":[],"roofMaterialCode":null,"wallMaterialCode":null,"usage":null,"nature":null,"lightConstruction":true,"heightAccuracy":null},"height":{"status":"unknown","value":null,"note":"aucune hauteur mesurée : le rendu utilise une hauteur par défaut estimée d’après la forme, à ne jamais présenter comme officielle"},"validation":{"confidence":"B","status":"relevé manuel sur orthophoto (V2.2), aucune géométrie publique disponible","evidence":["BD ORTHO IGN 20 cm (vol des 28–29 avril 2025) : toiture nettement visible et délimitable (hangar léger (≈ 15 × 5 m) à toiture grise et blanche, à l’ouest de l’avenue du Général-de-Gaulle)","recontrôle du 26/09/2026 : aucune empreinte BD TOPO (2 489 objets au service), Parcellaire Express (2 258), forme RNB ni OSM à cet endroit (data-sources/geo-audit-v2.1/recheck-16-sans-geometrie.json)"]},"audit":{"version":"2.2","status":"manuel","originalMissingId":"vis-R1"}}},{"type":"Feature","id":"manual-v2.2:vis-U3","geometry":{"type":"Polygon","coordinates":[[[3.78719594,48.50612692],[3.7872467,48.50612659],[3.7872459,48.50607306],[3.78719513,48.5060734],[3.78719594,48.50612692]]]},"properties":{"id":"manual-v2.2:vis-U3","source":"BD ORTHO IGN avril 2025 - relevé manuel V2.2","provenance":"orthophoto_manual_v2.2","confidence":"B","inCommune":true,"observation":"garage (≈ 6 × 3,75 m) à toiture grise, rue Albert-Benoist","sector":"Rue Albert Benoist (adresse BAN la plus proche, 23 m)","originalMissingId":"vis-U3","auditVersion":"2.2","manualGeometry":true,"evidence":["BD ORTHO IGN 20 cm (vol des 28–29 avril 2025) : toiture nettement visible et délimitable (garage (≈ 6 × 3,75 m) à toiture grise, rue Albert-Benoist)","recontrôle du 26/09/2026 : aucune empreinte BD TOPO (2 489 objets au service), Parcellaire Express (2 258), forme RNB ni OSM à cet endroit (data-sources/geo-audit-v2.1/recheck-16-sans-geometrie.json)"],"geometryMethod":"relevé manuel des angles de toiture sur l’orthophoto IGN (WMS-R ORTHOIMAGERY.ORTHOPHOTOS, 40 px/m, quadrillage de 1 m), polygone minimal ; précision estimée ± 0,5 à 1 m","reviewStatus":"relevé V2.2, à valider visuellement par l’utilisateur","uncertainty":"± 0,5 m","category":"garage","categoryLabel":"garage","categoryNote":"garage à toiture grise","areaM2":22.31,"parts":1,"holes":0,"rnb":null,"ign":null,"osm":null,"derived":{"wallHeight":null,"roofHeight":null,"floors":null,"roofMaterials":[],"roofMaterialCode":null,"wallMaterialCode":null,"usage":null,"nature":null,"lightConstruction":false,"heightAccuracy":null},"height":{"status":"unknown","value":null,"note":"aucune hauteur mesurée : le rendu utilise une hauteur par défaut estimée d’après la forme, à ne jamais présenter comme officielle"},"validation":{"confidence":"B","status":"relevé manuel sur orthophoto (V2.2), aucune géométrie publique disponible","evidence":["BD ORTHO IGN 20 cm (vol des 28–29 avril 2025) : toiture nettement visible et délimitable (garage (≈ 6 × 3,75 m) à toiture grise, rue Albert-Benoist)","recontrôle du 26/09/2026 : aucune empreinte BD TOPO (2 489 objets au service), Parcellaire Express (2 258), forme RNB ni OSM à cet endroit (data-sources/geo-audit-v2.1/recheck-16-sans-geometrie.json)"]},"audit":{"version":"2.2","status":"manuel","originalMissingId":"vis-U3"}}},{"type":"Feature","id":"manual-v2.2:v2.2-new-01","geometry":{"type":"Polygon","coordinates":[[[3.77464564,48.50290802],[3.77479853,48.50290253],[3.77479816,48.50287734],[3.77464512,48.50287294],[3.77464564,48.50290802]]]},"properties":{"id":"manual-v2.2:v2.2-new-01","source":"BD ORTHO IGN avril 2025 - relevé manuel V2.2","provenance":"orthophoto_manual_v2.2","confidence":"B","inCommune":true,"observation":"deux abris accolés (≈ 11 × 3,5 m), toitures rouge et grise, 10 m au nord de vis-Q ; constaté pendant le contrôle de vis-Q, absent de toutes les sources et non inventorié en V2.0.1","sector":"Avenue du General de Gaulle (adresse BAN la plus proche, 71 m)","originalMissingId":"v2.2-new-01","auditVersion":"2.2","manualGeometry":true,"evidence":["BD ORTHO IGN 20 cm (vol des 28–29 avril 2025) : toiture nettement visible et délimitable (deux abris accolés (≈ 11 × 3,5 m), toitures rouge et grise, 10 m au nord de vis-Q ; constaté pendant le contrôle de vis-Q, absent de toutes les sources et non inventorié en V2.0.1)","aucune empreinte BD TOPO, Parcellaire Express ni forme RNB à moins de 2 m (instantanés du dépôt, identiques au service le 26/09/2026)"],"geometryMethod":"relevé manuel des angles de toiture sur l’orthophoto IGN (WMS-R ORTHOIMAGERY.ORTHOPHOTOS, 40 px/m, quadrillage de 1 m), polygone minimal ; précision estimée ± 0,5 à 1 m","reviewStatus":"relevé V2.2, à valider visuellement par l’utilisateur","uncertainty":"± 0,5 m","category":"abri","categoryLabel":"abri","categoryNote":"deux abris de jardin accolés (toitures rouge et grise)","areaM2":37.85,"parts":1,"holes":0,"rnb":null,"ign":null,"osm":null,"derived":{"wallHeight":null,"roofHeight":null,"floors":null,"roofMaterials":[],"roofMaterialCode":null,"wallMaterialCode":null,"usage":null,"nature":null,"lightConstruction":true,"heightAccuracy":null},"height":{"status":"unknown","value":null,"note":"aucune hauteur mesurée : le rendu utilise une hauteur par défaut estimée d’après la forme, à ne jamais présenter comme officielle"},"validation":{"confidence":"B","status":"relevé manuel sur orthophoto (V2.2), aucune géométrie publique disponible","evidence":["BD ORTHO IGN 20 cm (vol des 28–29 avril 2025) : toiture nettement visible et délimitable (deux abris accolés (≈ 11 × 3,5 m), toitures rouge et grise, 10 m au nord de vis-Q ; constaté pendant le contrôle de vis-Q, absent de toutes les sources et non inventorié en V2.0.1)","aucune empreinte BD TOPO, Parcellaire Express ni forme RNB à moins de 2 m (instantanés du dépôt, identiques au service le 26/09/2026)"]},"audit":{"version":"2.2","status":"manuel","originalMissingId":"v2.2-new-01"}}}]}
