{"type":"Feature","properties":{"nom":"Maizières-la-Grande-Paroisse","code":"10220"},"geometry":{"type":"Polygon","coordinates":[[[3.785842,48.528778],[3.786019,48.528874],[3.78646,48.529007],[3.786598,48.528946],[3.786685,48.528823],[3.786615,48.528588],[3.786336,48.528433],[3.785882,48.528239],[3.785879,48.52803],[3.786002,48.527925],[3.786159,48.527894],[3.786383,48.527923],[3.786615,48.527999],[3.78688,48.528015],[3.78752,48.52797],[3.788092,48.527945],[3.789014,48.527834],[3.789731,48.527733],[3.789936,48.527727],[3.790353,48.527862],[3.790535,48.527966],[3.79084,48.528219],[3.791197,48.528616],[3.791602,48.528812],[3.791975,48.529021],[3.792667,48.529289],[3.793015,48.529309],[3.793202,48.529235],[3.793099,48.528996],[3.793085,48.528777],[3.793118,48.528629],[3.793364,48.528537],[3.793562,48.528537],[3.79395,48.528625],[3.794148,48.528754],[3.794256,48.528977],[3.794375,48.529141],[3.794584,48.52918],[3.795017,48.529179],[3.795178,48.529138],[3.795264,48.529038],[3.795245,48.528934],[3.795119,48.528866],[3.794721,48.528861],[3.794525,48.528804],[3.794296,48.528626],[3.794313,48.528385],[3.794594,48.528173],[3.794794,48.528135],[3.795518,48.52812],[3.795653,48.528138],[3.796014,48.528454],[3.796363,48.528631],[3.796965,48.528637],[3.797155,48.528681],[3.797292,48.528782],[3.795905,48.526485],[3.79669,48.526278],[3.798131,48.529096],[3.798339,48.52899],[3.798423,48.528717],[3.798184,48.528421],[3.797679,48.528015],[3.797806,48.527962],[3.798015,48.527988],[3.798604,48.528123],[3.798843,48.528162],[3.797984,48.526743],[3.801013,48.524552],[3.801098,48.525033],[3.801294,48.525362],[3.801664,48.525436],[3.802,48.525408],[3.8024,48.525339],[3.802701,48.52532],[3.803134,48.52519],[3.803274,48.525116],[3.803485,48.524918],[3.802202,48.5244],[3.802302,48.524266],[3.802263,48.52395],[3.802298,48.523814],[3.802427,48.523588],[3.802736,48.523338],[3.803075,48.523199],[3.803641,48.523056],[3.803756,48.523011],[3.804335,48.522866],[3.804558,48.522744],[3.804715,48.522469],[3.804819,48.522399],[3.805129,48.522367],[3.805437,48.522454],[3.805503,48.522565],[3.805317,48.523136],[3.805306,48.523495],[3.805382,48.52366],[3.80576,48.523779],[3.806082,48.523802],[3.806317,48.523767],[3.806554,48.52368],[3.806764,48.523471],[3.806905,48.523374],[3.807074,48.523335],[3.807339,48.52338],[3.807535,48.523482],[3.807711,48.523432],[3.808359,48.523152],[3.808776,48.522912],[3.808731,48.522668],[3.808751,48.522579],[3.809051,48.522421],[3.809713,48.522328],[3.810042,48.522231],[3.810382,48.522005],[3.810564,48.521694],[3.810763,48.521528],[3.811189,48.521472],[3.811356,48.521407],[3.811405,48.521255],[3.811654,48.521049],[3.812066,48.520928],[3.812372,48.520901],[3.812516,48.520917],[3.812847,48.521036],[3.812908,48.520941],[3.813313,48.52069],[3.815436,48.519657],[3.815768,48.519504],[3.816069,48.519394],[3.816443,48.51936],[3.816611,48.519289],[3.816811,48.519082],[3.817249,48.518832],[3.81778,48.518641],[3.818224,48.518408],[3.818422,48.518408],[3.818799,48.518607],[3.81927,48.518582],[3.819478,48.518512],[3.819622,48.518405],[3.81969,48.518249],[3.8199,48.518111],[3.820328,48.518029],[3.820442,48.517942],[3.820499,48.517777],[3.820842,48.517638],[3.821083,48.517454],[3.821462,48.517277],[3.82191,48.517011],[3.821948,48.516953],[3.821952,48.516652],[3.822119,48.516506],[3.823212,48.516035],[3.823946,48.515766],[3.824324,48.515639],[3.825373,48.515241],[3.824973,48.514766],[3.824683,48.514043],[3.824281,48.512842],[3.824147,48.512294],[3.824144,48.51209],[3.823999,48.512011],[3.823885,48.511731],[3.824534,48.511547],[3.824443,48.511397],[3.824242,48.511409],[3.822716,48.509095],[3.822616,48.50887],[3.822226,48.508246],[3.822058,48.507938],[3.821795,48.507511],[3.82164,48.507227],[3.820969,48.506133],[3.82021,48.504921],[3.819871,48.504326],[3.819552,48.50382],[3.818846,48.502624],[3.817346,48.499695],[3.817221,48.499291],[3.81708,48.499042],[3.816453,48.49813],[3.816072,48.497496],[3.815585,48.496788],[3.815167,48.496115],[3.814643,48.495246],[3.81449,48.494919],[3.814172,48.494381],[3.81399,48.494016],[3.81377,48.493621],[3.813534,48.493151],[3.81301,48.492253],[3.812795,48.491855],[3.812517,48.491419],[3.812076,48.490592],[3.811851,48.490223],[3.811571,48.489719],[3.810475,48.487667],[3.810348,48.487463],[3.809511,48.485884],[3.809339,48.485587],[3.809263,48.48554],[3.809207,48.485337],[3.808745,48.484516],[3.808575,48.484194],[3.807956,48.48311],[3.807721,48.482633],[3.807573,48.482399],[3.807123,48.481554],[3.808119,48.481212],[3.807228,48.479145],[3.807288,48.479061],[3.807257,48.478922],[3.807111,48.478734],[3.806781,48.478119],[3.801632,48.479361],[3.801234,48.478541],[3.800693,48.478662],[3.801393,48.48019],[3.799427,48.480566],[3.799279,48.480235],[3.796724,48.48069],[3.795937,48.480841],[3.795572,48.480319],[3.79227,48.481005],[3.792403,48.481222],[3.788813,48.481837],[3.78851,48.481225],[3.786749,48.481577],[3.784061,48.48205],[3.783552,48.482149],[3.783057,48.481279],[3.783256,48.481238],[3.782784,48.479986],[3.777848,48.48096],[3.777882,48.481061],[3.775949,48.481312],[3.776181,48.481592],[3.775806,48.481618],[3.771443,48.482192],[3.769055,48.482496],[3.768681,48.482559],[3.768933,48.483279],[3.767601,48.4835],[3.768468,48.486022],[3.765814,48.486331],[3.764763,48.486446],[3.763768,48.486606],[3.760725,48.487033],[3.759906,48.487122],[3.759837,48.486815],[3.758379,48.487149],[3.758405,48.487269],[3.757533,48.487428],[3.756766,48.487592],[3.757095,48.488607],[3.757548,48.490292],[3.75799,48.492129],[3.758072,48.492609],[3.758131,48.493122],[3.75811,48.493422],[3.758161,48.494014],[3.758221,48.494439],[3.758197,48.494652],[3.758212,48.495023],[3.758194,48.495392],[3.758219,48.495584],[3.758204,48.496055],[3.758368,48.4974],[3.758406,48.498035],[3.7582,48.498588],[3.758135,48.501488],[3.758262,48.502045],[3.758369,48.502444],[3.758653,48.50321],[3.758828,48.503527],[3.758945,48.503804],[3.758948,48.504044],[3.766982,48.503564],[3.767954,48.505388],[3.76741,48.506697],[3.760415,48.507333],[3.760487,48.507589],[3.760739,48.507967],[3.761265,48.508804],[3.761483,48.509264],[3.761519,48.509515],[3.761618,48.509879],[3.761877,48.510653],[3.76197,48.510973],[3.762028,48.51128],[3.762355,48.512224],[3.762602,48.512771],[3.762655,48.513512],[3.763034,48.51477],[3.763274,48.515381],[3.763802,48.51703],[3.763794,48.517239],[3.763955,48.51757],[3.764345,48.518714],[3.76434,48.519014],[3.764486,48.519859],[3.764371,48.519867],[3.764434,48.520113],[3.76449,48.520513],[3.764574,48.520861],[3.764566,48.521246],[3.765275,48.526041],[3.766361,48.526137],[3.766372,48.526374],[3.76665,48.526625],[3.766886,48.526734],[3.76609,48.5273],[3.76617,48.527488],[3.766281,48.527571],[3.766593,48.527731],[3.767013,48.527839],[3.767542,48.527884],[3.76821,48.527901],[3.76889,48.527904],[3.769469,48.527967],[3.769789,48.528038],[3.770235,48.528252],[3.770744,48.528625],[3.771086,48.528839],[3.771429,48.528951],[3.771803,48.528968],[3.772152,48.528817],[3.772341,48.528612],[3.772693,48.528641],[3.773155,48.528592],[3.773282,48.528661],[3.773301,48.528873],[3.773144,48.529092],[3.773173,48.5293],[3.773534,48.52955],[3.773624,48.529661],[3.773805,48.530101],[3.774107,48.530081],[3.774808,48.529869],[3.774946,48.529855],[3.775374,48.529929],[3.775943,48.529955],[3.776238,48.529951],[3.776458,48.529879],[3.776666,48.52974],[3.776962,48.529759],[3.777278,48.529841],[3.777571,48.529776],[3.777803,48.529788],[3.778147,48.52968],[3.778228,48.529591],[3.778343,48.529206],[3.778402,48.528777],[3.778594,48.52861],[3.778762,48.528582],[3.778919,48.528626],[3.779182,48.528794],[3.779527,48.528918],[3.779992,48.529129],[3.780167,48.529154],[3.780516,48.529079],[3.78092,48.528873],[3.781025,48.528772],[3.781061,48.52855],[3.781004,48.528436],[3.78074,48.528339],[3.780325,48.528418],[3.780116,48.528271],[3.780151,48.528161],[3.78042,48.527908],[3.780383,48.52757],[3.780471,48.527368],[3.780739,48.527234],[3.781075,48.527184],[3.781397,48.527203],[3.781517,48.527412],[3.781508,48.527725],[3.781661,48.527925],[3.781778,48.528249],[3.781894,48.528398],[3.782131,48.528556],[3.782272,48.52857],[3.782397,48.528497],[3.782474,48.52831],[3.782412,48.528116],[3.782436,48.527999],[3.782593,48.527837],[3.782431,48.527563],[3.782444,48.527457],[3.782707,48.527316],[3.782886,48.5273],[3.783275,48.527362],[3.783486,48.527325],[3.783768,48.527235],[3.784559,48.527098],[3.784901,48.527096],[3.785323,48.527262],[3.785476,48.527434],[3.78543,48.527621],[3.785185,48.527776],[3.785144,48.527848],[3.785251,48.528154],[3.785054,48.528457],[3.785108,48.528559],[3.785705,48.528711],[3.785842,48.528778]]]}}