{"type":"FeatureCollection","metadata":{"source":"IGN BD TOPO","license":"Licence Ouverte 2.0","retrievedAt":"2026-09-10T12:49:17.635Z","note":"Polygones nommés non fictifs uniquement ; sert à la sélection, sans modifier le terrain."},"features":[{"type":"Feature","id":"SURFACTI0000000009307504","geometry":{"type":"MultiPolygon","coordinates":[[[[3.78701795,48.50933376],[3.78713918,48.50938243],[3.78712851,48.5093933],[3.78711516,48.50940598],[3.78700479,48.50935903],[3.78699796,48.50935548],[3.78701795,48.50933376]]]]},"properties":{"name":"Mairie de Maizières-la-Grande-Paroisse","nature":"Mairie","precision":20}},{"type":"Feature","id":"SURFACTI0000000117790866","geometry":{"type":"MultiPolygon","coordinates":[[[[3.79505871,48.50413613],[3.79497241,48.50362302],[3.79501595,48.50327997],[3.79498889,48.50310202],[3.7955676,48.50305586],[3.79548267,48.5026327],[3.7965129,48.50254484],[3.79657361,48.50297715],[3.79673255,48.50399357],[3.79505871,48.50413613]]]]},"properties":{"name":"Seveal - Maizières-la-Grande-Paroisse","nature":"Divers industriel","precision":3}},{"type":"Feature","id":"SURFACTI0000000316172819","geometry":{"type":"MultiPolygon","coordinates":[[[[3.78694017,48.51118931],[3.78693897,48.51119921],[3.78687123,48.51119696],[3.78687104,48.51118437],[3.78685478,48.51118357],[3.78685351,48.51118898],[3.78683997,48.51118907],[3.78684005,48.51119447],[3.78681432,48.51119374],[3.78681418,48.51118474],[3.78679794,48.51118485],[3.78679803,48.51119115],[3.78677366,48.51119131],[3.78677353,48.51118231],[3.78675862,48.51118151],[3.78675739,48.51118962],[3.7867452,48.5111897],[3.78674398,48.5111987],[3.78675346,48.51119864],[3.7867509,48.51120855],[3.78653813,48.51119557],[3.78653319,48.51122709],[3.78651422,48.51122631],[3.7865117,48.51123892],[3.78652934,48.51124151],[3.7865219,48.51128654],[3.7865043,48.51128665],[3.7865031,48.51129746],[3.78651938,48.51129915],[3.78651308,48.51133068],[3.78660525,48.51133726],[3.78660403,48.51134627],[3.78661894,48.51134707],[3.78662152,48.51133896],[3.78669337,48.51134478],[3.78668671,48.51135202],[3.78668546,48.51135922],[3.78669235,48.51136727],[3.78670457,48.51136899],[3.78670339,48.5113807],[3.78672776,48.51138053],[3.78672789,48.51138953],[3.78674415,48.51139032],[3.78674402,48.51138133],[3.78682663,48.51138258],[3.78682676,48.51139157],[3.78684167,48.51139238],[3.78684153,48.51138338],[3.78690385,48.51138567],[3.78690534,48.51139465],[3.78691617,48.51139458],[3.78691874,48.51138557],[3.78698646,48.51138692],[3.7869961,48.51139765],[3.78700829,48.51139757],[3.78701353,48.51138584],[3.78705678,48.51138105],[3.78705773,48.51135406],[3.78708165,48.51132421],[3.78709797,48.5113286],[3.78710192,48.51132138],[3.7870883,48.51131607],[3.78708924,48.51128818],[3.78711621,48.5112808],[3.78711066,48.51127184],[3.78709043,48.51127737],[3.78706851,48.51126043],[3.78707651,48.51125228],[3.78706017,48.51124609],[3.78705218,48.51125514],[3.7870183,48.51125266],[3.78702036,48.51120947],[3.78703234,48.51119589],[3.78702143,48.51119057],[3.78700809,48.51120415],[3.78695252,48.51120002],[3.78695372,48.51119012],[3.78694017,48.51118931]]]]},"properties":{"name":"Église Saint-Denis","nature":"Culte chrétien","precision":20}},{"type":"Feature","id":"SURFACTI0000000358044861","geometry":{"type":"MultiPolygon","coordinates":[[[[3.7907359,48.50475604],[3.79223275,48.50463541],[3.79238856,48.5065263],[3.79083243,48.50657985],[3.7907359,48.50475604]]]]},"properties":{"name":"Stade de Maizières-la-Grande-Paroisse","nature":"Autre équipement sportif","precision":3}},{"type":"Feature","id":"SURFACTI0000002480229986","geometry":{"type":"MultiPolygon","coordinates":[[[[3.79673255,48.50399357],[3.79505871,48.50413613],[3.79497241,48.50362302],[3.79501595,48.50327997],[3.79498889,48.50310202],[3.7947764,48.5012286],[3.79473266,48.50093291],[3.79831214,48.50077127],[3.80318521,48.5005756],[3.80611996,48.50039379],[3.80613048,48.50046119],[3.8063825,48.50223806],[3.80650157,48.5031153],[3.80651592,48.50316828],[3.80654126,48.50331925],[3.79673255,48.50399357]]]]},"properties":{"name":"Zone Industrielle la Glacière","nature":"Zone industrielle","precision":20}}]}