{"type":"FeatureCollection","metadata":{"name":"Référentiel ferroviaire de Maizières-la-Grande-Paroisse (état actuel)","version":"1.9","generatedBy":"scripts/build-rail.mjs","layers":{"track":"une entité par voie physique (axe de la voie)","axis":"axes officiels BD TOPO (une ligne pour une voie double ; ne pas dédoubler)"},"sources":{"bdtopo":{"file":"data-sources/roads/bdtopo-troncon-de-voie-ferree.geojson","sha256":"25ad9e99dffdc06133908741bf5e675b7c05c72a531c603858505dab7bde6a55"},"osm":{"file":"public/data/maizieres.geojson","sha256":"ddc94faec8033d224ba06ada9d0f5c0802af21327ca4a0a106414355477ea991","snapshot":"2026-05-31T22:37:44Z"}},"statusValues":{"active":"voie principale en service (BD TOPO + OSM)","service":"voie de service en service (BD TOPO + OSM)","neutralized":"neutralisée (aucune documentée)","removed":"déposée (aucune documentée)","former_alignment":"ancienne emprise sans voie (couche historique)","unknown":"une seule source ; statut non établi"}},"features":[{"type":"Feature","id":"way/174931203","geometry":{"type":"LineString","coordinates":[[3.8102721,48.5009524],[3.8132822,48.5007982],[3.8135595,48.5007764],[3.8137131,48.5007544],[3.8138919,48.5007248],[3.8145758,48.5006086],[3.8148111,48.5005747],[3.8150222,48.5005517],[3.815152,48.5005409],[3.8152939,48.5005392],[3.8155567,48.5005439],[3.8157146,48.5005582],[3.8158742,48.5005757],[3.8159845,48.5005949],[3.8171941,48.5008388],[3.818737,48.5011585],[3.8199111,48.5014036],[3.8210952,48.5016548],[3.8213595,48.5017056],[3.8216229,48.5017438],[3.8218502,48.5017654]]},"properties":{"id":"way/174931203","layer":"track","kind":"spur","kindLabel":"embranchement / voie de service","network":"service","status":"service","statusConfidence":"A","statusEvidence":["OSM railway=rail service=spur","BD TOPO : En service"],"review":null,"trackRef":null,"line":null,"provenance":"osm+bdtopo","osmId":"way/174931203","bdtopoIds":["TRONFERR0000000009310437"],"bdtopoDistanceM":{"median":0.4,"max":1.09,"shareWithin":1},"gauge":1.435,"gaugeSource":"osm","electrification":{"current":"no","bdtopo":false,"planned":null},"maxspeed":null,"trackCountOnAxis":1,"lengthM":879.05,"inCommuneShare":0.66,"clippedByExtent":false,"maxGradePermil":6,"zReliableShare":1,"structures":[],"pinnedAtSwitch":[]}},{"type":"Feature","id":"way/174931204","geometry":{"type":"LineString","coordinates":[[3.8066074,48.502617],[3.8092105,48.5024058],[3.8097338,48.5023614],[3.8119862,48.5021715],[3.8149529,48.5019387],[3.8178732,48.5017118],[3.8180945,48.5017059],[3.8182686,48.5017109],[3.8186392,48.5017456],[3.81934,48.5018129],[3.8199704,48.5018842]]},"properties":{"id":"way/174931204","layer":"track","kind":"spur","kindLabel":"embranchement / voie de service","network":"service","status":"service","statusConfidence":"A","statusEvidence":["OSM railway=rail service=spur","BD TOPO : En service"],"review":null,"trackRef":null,"line":null,"provenance":"osm+bdtopo","osmId":"way/174931204","bdtopoIds":["TRONFERR0000000009310423","TRONFERR0000002007077895","TRONFERR0000002007077896","TRONFERR0000000009310426"],"bdtopoDistanceM":{"median":0.41,"max":1.98,"shareWithin":1},"gauge":1.435,"gaugeSource":"osm","electrification":{"current":"no","bdtopo":false,"planned":null},"maxspeed":null,"trackCountOnAxis":1,"lengthM":994.73,"inCommuneShare":0.87,"clippedByExtent":false,"maxGradePermil":10,"zReliableShare":1,"structures":[],"pinnedAtSwitch":[{"end":"B","to":"way/174931206","deltaM":0.03}]}},{"type":"Feature","id":"way/174931206","geometry":{"type":"LineString","coordinates":[[3.8253586,48.5017155],[3.8252585,48.5017178],[3.8251673,48.5017187],[3.8250502,48.5017161],[3.8248931,48.5017169],[3.8246885,48.5017232],[3.8233825,48.5018168],[3.8212267,48.5019854],[3.8209646,48.5019939],[3.8207411,48.5019932],[3.8205567,48.501984],[3.8203871,48.501966],[3.8199704,48.5018842],[3.8197102,48.5018293],[3.8189158,48.5016725],[3.8187843,48.5016474],[3.8186583,48.5016277],[3.8184176,48.5015973],[3.8176254,48.5015125],[3.817451,48.5014918],[3.817307,48.501466],[3.815734,48.5011394],[3.815461,48.5010843],[3.8152034,48.5010396],[3.8150668,48.5010229],[3.8149376,48.5010124],[3.8147219,48.5010076],[3.8145429,48.5010127],[3.8137258,48.5010614],[3.813567,48.5010775],[3.8133561,48.5011124],[3.8130032,48.5011762],[3.8128689,48.5011974],[3.8127661,48.5012111],[3.812667,48.5012183],[3.81154,48.5012772],[3.8107231,48.5013212],[3.8099207,48.501357],[3.8097469,48.5013683],[3.8095709,48.5013906],[3.8093814,48.5014328],[3.809143,48.5015064],[3.8090159,48.5015444],[3.8089185,48.5015672],[3.808836,48.5015824],[3.8087273,48.5015952],[3.807296,48.5017054],[3.8064198,48.5017781]]},"properties":{"id":"way/174931206","layer":"track","kind":"spur","kindLabel":"embranchement / voie de service","network":"service","status":"service","statusConfidence":"A","statusEvidence":["OSM railway=rail service=spur","BD TOPO : En service"],"review":null,"trackRef":null,"line":null,"provenance":"osm+bdtopo","osmId":"way/174931206","bdtopoIds":["TRONFERR0000000009310426","TRONFERR0000000009310464","TRONFERR0000000009310446","TRONFERR0000000009310437","TRONFERR0000000009310453"],"bdtopoDistanceM":{"median":0.27,"max":0.92,"shareWithin":1},"gauge":1.435,"gaugeSource":"osm","electrification":{"current":"no","bdtopo":false,"planned":null},"maxspeed":null,"trackCountOnAxis":1,"lengthM":1424.06,"inCommuneShare":0.63,"clippedByExtent":false,"maxGradePermil":10,"zReliableShare":1,"structures":[],"pinnedAtSwitch":[]}},{"type":"Feature","id":"way/174931207","geometry":{"type":"LineString","coordinates":[[3.8182325,48.5000389],[3.8183448,48.5000576],[3.8184376,48.5000751],[3.818606,48.5001054],[3.8187327,48.5001285],[3.8189029,48.5001647],[3.8193004,48.5002693],[3.8222944,48.5010505],[3.8228852,48.5012063],[3.8234138,48.5013437],[3.8237572,48.5014339],[3.8239355,48.501477],[3.8240769,48.5015052],[3.8242216,48.5015301],[3.8243265,48.5015459],[3.8244495,48.5015606],[3.8246139,48.5015819],[3.8247685,48.5016032],[3.825006,48.501627],[3.8251466,48.5016387],[3.8252404,48.501645],[3.8253844,48.50165],[3.825467,48.5016497],[3.8255708,48.501647],[3.8257192,48.5016379],[3.8259892,48.5016159],[3.8261052,48.50161],[3.8262378,48.5016081],[3.8264665,48.5016109],[3.8265876,48.5016108],[3.8267668,48.5016048]]},"properties":{"id":"way/174931207","layer":"track","kind":"spur","kindLabel":"embranchement / voie de service","network":"service","status":"service","statusConfidence":"A","statusEvidence":["OSM railway=rail service=spur","BD TOPO : En service"],"review":null,"trackRef":null,"line":null,"provenance":"osm+bdtopo","osmId":"way/174931207","bdtopoIds":["TRONFERR0000000009310447","TRONFERR0000000009310433","TRONFERR0000000009310459","TRONFERR0000000009310424"],"bdtopoDistanceM":{"median":1.81,"max":4.38,"shareWithin":0.8},"gauge":1.435,"gaugeSource":"osm","electrification":{"current":"no","bdtopo":false,"planned":null},"maxspeed":null,"trackCountOnAxis":1,"lengthM":662.22,"inCommuneShare":0,"clippedByExtent":false,"maxGradePermil":4,"zReliableShare":1,"structures":[],"pinnedAtSwitch":[{"end":"B","to":"way/174931217","deltaM":0.05}]}},{"type":"Feature","id":"way/174931208","geometry":{"type":"LineString","coordinates":[[3.821338,48.5014578],[3.8211684,48.501378],[3.8210913,48.5013361],[3.8210229,48.5012967],[3.8208522,48.5011849],[3.8205091,48.5009545],[3.8203865,48.5008809],[3.8202908,48.5008341],[3.8201848,48.5007951],[3.8200026,48.5007363],[3.8185932,48.5003631],[3.8171861,48.5]]},"properties":{"id":"way/174931208","layer":"track","kind":"spur","kindLabel":"embranchement / voie de service","network":"service","status":"unknown","statusConfidence":null,"statusEvidence":["OSM railway=rail service=spur","aucun axe BD TOPO à moins de 3 m sur 100 % du tracé","Orthophoto IGN 2025 : zone floutée (diffusion restreinte) ; aucune connexion au reste du réseau dans OSM"],"review":{"verdict":"non vérifiable","observation":"zone floutée (diffusion restreinte) ; aucune connexion au reste du réseau dans OSM"},"trackRef":null,"line":null,"provenance":"osm","osmId":"way/174931208","bdtopoIds":[],"bdtopoDistanceM":{"median":20.21,"max":43.91,"shareWithin":0},"gauge":null,"gaugeSource":null,"electrification":{"current":null,"bdtopo":null,"planned":null},"maxspeed":null,"trackCountOnAxis":null,"lengthM":351.62,"inCommuneShare":0.08,"clippedByExtent":false,"maxGradePermil":6,"zReliableShare":1,"structures":[],"pinnedAtSwitch":[{"end":"A","to":"way/174931209","deltaM":-0.01}]}},{"type":"Feature","id":"way/174931209","geometry":{"type":"LineString","coordinates":[[3.8163545,48.5003648],[3.8176662,48.5006374],[3.8205356,48.5012334],[3.8208541,48.5013019],[3.8210271,48.5013467],[3.8211641,48.5013894],[3.821338,48.5014578],[3.8215609,48.5015611],[3.8216789,48.5016105],[3.8218105,48.5016575],[3.8219035,48.5016856],[3.8219902,48.5017124],[3.8220761,48.5017323],[3.8221802,48.5017567],[3.8223104,48.5017749],[3.8224433,48.5017901]]},"properties":{"id":"way/174931209","layer":"track","kind":"spur","kindLabel":"embranchement / voie de service","network":"service","status":"unknown","statusConfidence":null,"statusEvidence":["OSM railway=rail service=spur","BD TOPO : En service","aucun axe BD TOPO à moins de 3 m sur 100 % du tracé","Orthophoto IGN 2025 : zone floutée (diffusion restreinte) ; extrémité à 2,95 m de la voie way/174931210 sans nœud commun"],"review":{"verdict":"non vérifiable","observation":"zone floutée (diffusion restreinte) ; extrémité à 2,95 m de la voie way/174931210 sans nœud commun"},"trackRef":null,"line":null,"provenance":"osm","osmId":"way/174931209","bdtopoIds":["TRONFERR0000000009310437"],"bdtopoDistanceM":{"median":31.96,"max":32.24,"shareWithin":0},"gauge":1.435,"gaugeSource":"bdtopo (largeur Normale)","electrification":{"current":"no","bdtopo":false,"planned":null},"maxspeed":null,"trackCountOnAxis":1,"lengthM":478.86,"inCommuneShare":0.23,"clippedByExtent":false,"maxGradePermil":5,"zReliableShare":1,"structures":[],"pinnedAtSwitch":[]}},{"type":"Feature","id":"way/174931210","geometry":{"type":"LineString","coordinates":[[3.8233825,48.5018168],[3.8227791,48.5018207],[3.8225235,48.5018182],[3.8223654,48.5018151],[3.8222348,48.5018067],[3.8218502,48.5017654],[3.8217627,48.5017468],[3.8217054,48.5017278],[3.8215989,48.5017043],[3.8213892,48.5016625],[3.821105,48.5016058],[3.8191063,48.5011877],[3.8166092,48.5006704],[3.816213,48.5005841]]},"properties":{"id":"way/174931210","layer":"track","kind":"spur","kindLabel":"embranchement / voie de service","network":"service","status":"service","statusConfidence":"B (OSM railway=rail + voie visible sur l’orthophoto)","statusEvidence":["OSM railway=rail service=spur","BD TOPO : En service","aucun axe BD TOPO à moins de 3 m sur 76 % du tracé","Orthophoto IGN 2025 : rails visibles sur la partie est ; reste du tracé en zone floutée"],"review":{"verdict":"visible","observation":"rails visibles sur la partie est ; reste du tracé en zone floutée"},"trackRef":null,"line":null,"provenance":"osm","osmId":"way/174931210","bdtopoIds":["TRONFERR0000000009310437","TRONFERR0000000009310446"],"bdtopoDistanceM":{"median":5.14,"max":5.74,"shareWithin":0.24},"gauge":1.435,"gaugeSource":"osm","electrification":{"current":"no","bdtopo":false,"planned":null},"maxspeed":null,"trackCountOnAxis":1,"lengthM":550.34,"inCommuneShare":0.25,"clippedByExtent":false,"maxGradePermil":7,"zReliableShare":1,"structures":[],"pinnedAtSwitch":[{"end":"A","to":"way/174931206","deltaM":0.04}]}},{"type":"Feature","id":"way/174931211","geometry":{"type":"LineString","coordinates":[[3.8253844,48.50165],[3.824991,48.501649],[3.8248628,48.5016444],[3.8247354,48.5016377],[3.8245928,48.5016216],[3.8244735,48.5016031],[3.8243487,48.5015878],[3.824198,48.5015688],[3.8240321,48.5015401],[3.8238658,48.5015055],[3.8237216,48.5014708],[3.8235267,48.5014226],[3.8233645,48.5013768],[3.8230925,48.50131],[3.821446,48.5008729],[3.8192824,48.5003129],[3.8182325,48.5000389],[3.8178061,48.4999237]]},"properties":{"id":"way/174931211","layer":"track","kind":"spur","kindLabel":"embranchement / voie de service","network":"service","status":"service","statusConfidence":"A","statusEvidence":["OSM railway=rail service=spur","BD TOPO : En service"],"review":null,"trackRef":null,"line":null,"provenance":"osm+bdtopo","osmId":"way/174931211","bdtopoIds":["TRONFERR0000000009310447","TRONFERR0000000009310465","TRONFERR0000000009310454","TRONFERR0000000009310433"],"bdtopoDistanceM":{"median":1.47,"max":3.44,"shareWithin":0.92},"gauge":1.435,"gaugeSource":"osm","electrification":{"current":"no","bdtopo":false,"planned":null},"maxspeed":null,"trackCountOnAxis":1,"lengthM":594.94,"inCommuneShare":0,"clippedByExtent":false,"maxGradePermil":2,"zReliableShare":1,"structures":[],"pinnedAtSwitch":[{"end":"A","to":"way/174931207","deltaM":0.02}]}},{"type":"Feature","id":"way/174931212","geometry":{"type":"LineString","coordinates":[[3.8222348,48.5018067],[3.8216713,48.5017819],[3.8210677,48.5016898],[3.8190562,48.5012683],[3.8160433,48.5006501]]},"properties":{"id":"way/174931212","layer":"track","kind":"spur","kindLabel":"embranchement / voie de service","network":"service","status":"service","statusConfidence":"B (OSM railway=rail + voie visible sur l’orthophoto)","statusEvidence":["OSM railway=rail service=spur","BD TOPO : En service","aucun axe BD TOPO à moins de 3 m sur 92 % du tracé","Orthophoto IGN 2025 : rails visibles sur la partie est ; reste du tracé en zone floutée"],"review":{"verdict":"visible","observation":"rails visibles sur la partie est ; reste du tracé en zone floutée"},"trackRef":null,"line":null,"provenance":"osm","osmId":"way/174931212","bdtopoIds":["TRONFERR0000000009310437"],"bdtopoDistanceM":{"median":4.51,"max":5.02,"shareWithin":0.08},"gauge":1.435,"gaugeSource":"osm","electrification":{"current":"no","bdtopo":false,"planned":null},"maxspeed":null,"trackCountOnAxis":1,"lengthM":476.22,"inCommuneShare":0.32,"clippedByExtent":false,"maxGradePermil":3,"zReliableShare":1,"structures":[],"pinnedAtSwitch":[{"end":"A","to":"way/174931210","deltaM":0.06}]}},{"type":"Feature","id":"way/174931213","geometry":{"type":"LineString","coordinates":[[3.8200123,48.5021348],[3.8197365,48.502171],[3.8195197,48.5022036],[3.8190644,48.5022808],[3.818874,48.5023082],[3.8186883,48.5023315],[3.8150634,48.5026095],[3.8112658,48.5029133],[3.8109567,48.5029233],[3.8106657,48.5029241],[3.810403,48.502921],[3.8101787,48.5029176],[3.8099234,48.5029207]]},"properties":{"id":"way/174931213","layer":"track","kind":"siding","kindLabel":"voie de garage / faisceau","network":"service","status":"service","statusConfidence":"A","statusEvidence":["OSM railway=rail service=siding","BD TOPO : En service"],"review":null,"trackRef":"2","line":null,"provenance":"osm+bdtopo","osmId":"way/174931213","bdtopoIds":["TRONFERR0000000009310430","TRONFERR0000000009310462","TRONFERR0000000009310458","TRONFERR0000000009310457","TRONFERR0000000009310427","TRONFERR0000000009310439"],"bdtopoDistanceM":{"median":0.74,"max":1.55,"shareWithin":1},"gauge":1.435,"gaugeSource":"osm","electrification":{"current":"no","bdtopo":false,"planned":null},"maxspeed":null,"trackCountOnAxis":1,"lengthM":751.57,"inCommuneShare":0.86,"clippedByExtent":false,"maxGradePermil":7,"zReliableShare":1,"structures":[],"pinnedAtSwitch":[{"end":"A","to":"way/233599049","deltaM":0.12},{"end":"B","to":"way/233599049","deltaM":0.02}]}},{"type":"Feature","id":"way/174931214","geometry":{"type":"LineString","coordinates":[[3.8103547,48.502891],[3.8109143,48.5028838],[3.8111561,48.5028724],[3.811383,48.5028595],[3.8130566,48.5027201],[3.8150492,48.5025673],[3.8184419,48.5023071],[3.8187371,48.5022797],[3.8189394,48.5022602],[3.8191827,48.5022228],[3.8194678,48.5021746]]},"properties":{"id":"way/174931214","layer":"track","kind":"siding","kindLabel":"voie de garage / faisceau","network":"service","status":"service","statusConfidence":"A","statusEvidence":["OSM railway=rail service=siding","BD TOPO : En service"],"review":null,"trackRef":"3","line":null,"provenance":"osm+bdtopo","osmId":"way/174931214","bdtopoIds":["TRONFERR0000000009310431","TRONFERR0000000009310439","TRONFERR0000000009310429","TRONFERR0000000009310460"],"bdtopoDistanceM":{"median":0.73,"max":1.32,"shareWithin":1},"gauge":1.435,"gaugeSource":"osm","electrification":{"current":"no","bdtopo":false,"planned":null},"maxspeed":null,"trackCountOnAxis":1,"lengthM":678.44,"inCommuneShare":0.89,"clippedByExtent":false,"maxGradePermil":2,"zReliableShare":1,"structures":[],"pinnedAtSwitch":[{"end":"A","to":"way/233599049","deltaM":0},{"end":"B","to":"way/233599049","deltaM":0.02}]}},{"type":"Feature","id":"way/174931216","geometry":{"type":"LineString","coordinates":[[3.810403,48.502921],[3.8107377,48.5029465],[3.8109451,48.5029605],[3.8111282,48.5029648],[3.8113498,48.502952],[3.813205,48.5027983],[3.8150758,48.5026478],[3.81848,48.5023866],[3.8187241,48.5023656],[3.8188789,48.5023457],[3.8190336,48.5023151],[3.8195197,48.5022036]]},"properties":{"id":"way/174931216","layer":"track","kind":"siding","kindLabel":"voie de garage / faisceau","network":"service","status":"service","statusConfidence":"A","statusEvidence":["OSM railway=rail service=siding","BD TOPO : En service"],"review":null,"trackRef":"1","line":null,"provenance":"osm+bdtopo","osmId":"way/174931216","bdtopoIds":["TRONFERR0000000009310428","TRONFERR0000000009310430","TRONFERR0000000009310462","TRONFERR0000000009310457"],"bdtopoDistanceM":{"median":0.78,"max":1.15,"shareWithin":1},"gauge":1.435,"gaugeSource":"osm","electrification":{"current":"no","bdtopo":false,"planned":null},"maxspeed":null,"trackCountOnAxis":1,"lengthM":680.46,"inCommuneShare":0.89,"clippedByExtent":false,"maxGradePermil":3,"zReliableShare":1,"structures":[],"pinnedAtSwitch":[{"end":"A","to":"way/174931213","deltaM":0},{"end":"B","to":"way/174931213","deltaM":0.05}]}},{"type":"Feature","id":"way/174931217","geometry":{"type":"LineString","coordinates":[[3.8201109,48.5021264],[3.8211607,48.502043],[3.8220186,48.5019776],[3.8249819,48.5017459],[3.8253586,48.5017155],[3.8267668,48.5016048],[3.8281096,48.5014988],[3.8285262,48.5014733],[3.828714,48.5014676],[3.8291583,48.5014653],[3.8293669,48.5014663],[3.8296828,48.5014699],[3.8297831,48.5014692],[3.8299001,48.5014659],[3.8300067,48.5014601],[3.8301806,48.501447],[3.8320321,48.5013206]]},"properties":{"id":"way/174931217","layer":"track","kind":"spur","kindLabel":"embranchement / voie de service","network":"service","status":"service","statusConfidence":"A","statusEvidence":["OSM railway=rail service=spur","BD TOPO : En service"],"review":null,"trackRef":"4","line":null,"provenance":"osm+bdtopo","osmId":"way/174931217","bdtopoIds":["TRONFERR0000000009310424","TRONFERR0000000009310436","TRONFERR0000000009310453","TRONFERR0000000009310458","TRONFERR0000000009310433","TRONFERR0000000009310446"],"bdtopoDistanceM":{"median":0.54,"max":1.66,"shareWithin":1},"gauge":1.435,"gaugeSource":"osm","electrification":{"current":"no","bdtopo":false,"planned":null},"maxspeed":null,"trackCountOnAxis":1,"lengthM":885.75,"inCommuneShare":0,"clippedByExtent":false,"maxGradePermil":14,"zReliableShare":1,"structures":[],"pinnedAtSwitch":[{"end":"A","to":"way/233599049","deltaM":0}]}},{"type":"Feature","id":"way/233599039","geometry":{"type":"LineString","coordinates":[[3.7934752,48.5043144],[3.7936688,48.5043032],[3.7938496,48.5042902],[3.7941897,48.5042682],[3.7945381,48.5042442],[3.795227,48.5041899],[3.796258,48.5041111],[3.797232,48.5040349],[3.79858,48.5039317],[3.8002328,48.5038021],[3.8016576,48.5036906]]},"properties":{"id":"way/233599039","layer":"track","kind":"spur","kindLabel":"embranchement / voie de service","network":"service","status":"service","statusConfidence":"A","statusEvidence":["OSM railway=rail service=spur","BD TOPO : En service"],"review":null,"trackRef":null,"line":null,"provenance":"osm+bdtopo","osmId":"way/233599039","bdtopoIds":["TRONFERR0000000009310487","TRONFERR0000000009310488","TRONFERR0000000009310480","TRONFERR0000000009310489","TRONFERR0000000009310466"],"bdtopoDistanceM":{"median":0.94,"max":4.84,"shareWithin":0.98},"gauge":1.435,"gaugeSource":"osm","electrification":{"current":"no","bdtopo":false,"planned":null},"maxspeed":null,"trackCountOnAxis":1,"lengthM":608.41,"inCommuneShare":1,"clippedByExtent":false,"maxGradePermil":10,"zReliableShare":1,"structures":[],"pinnedAtSwitch":[]}},{"type":"Feature","id":"way/233599042","geometry":{"type":"LineString","coordinates":[[3.7942632,48.5042286],[3.7946532,48.5041941],[3.7952099,48.5041489],[3.7963885,48.5040585],[3.7977099,48.5039553],[3.7978598,48.5039413],[3.7979946,48.5039349],[3.7980875,48.5039338],[3.7982108,48.5039342],[3.7983142,48.5039361],[3.7984366,48.503935],[3.79858,48.5039317]]},"properties":{"id":"way/233599042","layer":"track","kind":"spur","kindLabel":"embranchement / voie de service","network":"service","status":"service","statusConfidence":"B (OSM railway=rail + voie visible sur l’orthophoto)","statusEvidence":["OSM railway=rail service=spur","BD TOPO : En service","aucun axe BD TOPO à moins de 3 m sur 51 % du tracé","Orthophoto IGN 2025 : voie de service visible, parallèle à la voie BD TOPO voisine"],"review":{"verdict":"visible","observation":"voie de service visible, parallèle à la voie BD TOPO voisine"},"trackRef":null,"line":null,"provenance":"osm","osmId":"way/233599042","bdtopoIds":["TRONFERR0000000009310488","TRONFERR0000000009310490","TRONFERR0000000009310466","TRONFERR0000000009310485","TRONFERR0000000009310487","TRONFERR0000000009310480"],"bdtopoDistanceM":{"median":3.17,"max":3.72,"shareWithin":0.49},"gauge":1.435,"gaugeSource":"osm","electrification":{"current":"no","bdtopo":false,"planned":null},"maxspeed":null,"trackCountOnAxis":1,"lengthM":320.84,"inCommuneShare":1,"clippedByExtent":false,"maxGradePermil":8,"zReliableShare":1,"structures":[],"pinnedAtSwitch":[{"end":"A","to":"way/233599046","deltaM":-0.17},{"end":"B","to":"way/233599039","deltaM":-0.02}]}},{"type":"Feature","id":"way/233599043","geometry":{"type":"LineString","coordinates":[[3.8149529,48.5019387],[3.8146967,48.5019436],[3.8145294,48.5019383],[3.8143678,48.5019238],[3.8141914,48.5018965],[3.8137812,48.5018062],[3.8136265,48.5017819],[3.81345,48.5017652],[3.8132644,48.5017568],[3.8131223,48.5017591],[3.8129482,48.501769],[3.8116458,48.5018665],[3.8105116,48.5019556]]},"properties":{"id":"way/233599043","layer":"track","kind":"spur","kindLabel":"embranchement / voie de service","network":"service","status":"service","statusConfidence":"A","statusEvidence":["OSM railway=rail service=spur","BD TOPO : En service"],"review":null,"trackRef":null,"line":null,"provenance":"osm+bdtopo","osmId":"way/233599043","bdtopoIds":["TRONFERR0000002007077896","TRONFERR0000002007077895"],"bdtopoDistanceM":{"median":0.64,"max":1.35,"shareWithin":1},"gauge":1.435,"gaugeSource":"osm","electrification":{"current":"no","bdtopo":false,"planned":null},"maxspeed":null,"trackCountOnAxis":1,"lengthM":331.91,"inCommuneShare":1,"clippedByExtent":false,"maxGradePermil":3,"zReliableShare":1,"structures":[],"pinnedAtSwitch":[{"end":"A","to":"way/174931204","deltaM":-0.03}]}},{"type":"Feature","id":"way/233599046","geometry":{"type":"LineString","coordinates":[[3.7925603,48.5044773],[3.7927864,48.5044529],[3.7929104,48.504436],[3.7930577,48.5044132],[3.7933019,48.504376],[3.7936617,48.5043191],[3.7938496,48.5042902],[3.7940448,48.5042626],[3.7942632,48.5042286],[3.7947201,48.5041602],[3.795063,48.5041045],[3.7954168,48.504052],[3.7955733,48.5040264],[3.7957124,48.5040109],[3.7959082,48.5039915],[3.7960339,48.5039797],[3.7962646,48.5039633],[3.7963658,48.503958],[3.7965218,48.5039535],[3.7966548,48.5039537],[3.7968316,48.503955],[3.7970517,48.5039587],[3.7972637,48.5039598],[3.7974405,48.5039605],[3.797541,48.5039622],[3.7977099,48.5039553]]},"properties":{"id":"way/233599046","layer":"track","kind":"spur","kindLabel":"embranchement / voie de service","network":"service","status":"service","statusConfidence":"A","statusEvidence":["OSM railway=rail service=spur","BD TOPO : En service"],"review":null,"trackRef":null,"line":null,"provenance":"osm+bdtopo","osmId":"way/233599046","bdtopoIds":["TRONFERR0000000009310466","TRONFERR0000000009310489","TRONFERR0000000009310490","TRONFERR0000000009310467","TRONFERR0000000009310481"],"bdtopoDistanceM":{"median":0.96,"max":2.89,"shareWithin":1},"gauge":1.435,"gaugeSource":"osm","electrification":{"current":"no","bdtopo":false,"planned":null},"maxspeed":null,"trackCountOnAxis":1,"lengthM":386.58,"inCommuneShare":1,"clippedByExtent":false,"maxGradePermil":10,"zReliableShare":1,"structures":[],"pinnedAtSwitch":[{"end":"A","to":"way/721610239","deltaM":-0.01}]}},{"type":"Feature","id":"way/233599048","geometry":{"type":"LineString","coordinates":[[3.8171941,48.5008388],[3.8169516,48.5007725],[3.8167843,48.5007194],[3.8166092,48.5006704]]},"properties":{"id":"way/233599048","layer":"track","kind":"spur","kindLabel":"embranchement / voie de service","network":"service","status":"unknown","statusConfidence":null,"statusEvidence":["OSM railway=rail service=spur","BD TOPO : En service","aucun axe BD TOPO à moins de 3 m sur 46 % du tracé","Orthophoto IGN 2025 : zone floutée (diffusion restreinte)"],"review":{"verdict":"non vérifiable","observation":"zone floutée (diffusion restreinte)"},"trackRef":null,"line":null,"provenance":"osm","osmId":"way/233599048","bdtopoIds":["TRONFERR0000000009310437"],"bdtopoDistanceM":{"median":2.95,"max":5.37,"shareWithin":0.54},"gauge":1.435,"gaugeSource":"osm","electrification":{"current":"no","bdtopo":false,"planned":null},"maxspeed":null,"trackCountOnAxis":1,"lengthM":47.1,"inCommuneShare":1,"clippedByExtent":false,"maxGradePermil":0,"zReliableShare":1,"structures":[],"pinnedAtSwitch":[{"end":"A","to":"way/174931203","deltaM":0.01},{"end":"B","to":"way/174931210","deltaM":0.03}]}},{"type":"Feature","id":"way/233599049","geometry":{"type":"LineString","coordinates":[[3.8201109,48.5021264],[3.8200123,48.5021348],[3.8194678,48.5021746],[3.8189283,48.5022196],[3.8184244,48.5022529],[3.8150245,48.5025182],[3.8129895,48.5026737],[3.8109815,48.502846],[3.8103547,48.502891],[3.8099234,48.5029207],[3.8096691,48.5029455],[3.8094381,48.5029723],[3.8091508,48.5030193],[3.8086024,48.5031122],[3.8083799,48.5031315],[3.8082321,48.5031368],[3.808066,48.5031406],[3.8078368,48.5031414]]},"properties":{"id":"way/233599049","layer":"track","kind":"spur","kindLabel":"embranchement / voie de service","network":"service","status":"service","statusConfidence":"A","statusEvidence":["OSM railway=rail service=spur","BD TOPO : En service"],"review":null,"trackRef":"4","line":null,"provenance":"osm+bdtopo","osmId":"way/233599049","bdtopoIds":["TRONFERR0000000009310429","TRONFERR0000000009310427","TRONFERR0000000009310439","TRONFERR0000000009310460","TRONFERR0000000009310458"],"bdtopoDistanceM":{"median":1.04,"max":11.14,"shareWithin":0.96},"gauge":1.435,"gaugeSource":"osm","electrification":{"current":"no","bdtopo":false,"planned":null},"maxspeed":null,"trackCountOnAxis":1,"lengthM":914.45,"inCommuneShare":0.87,"clippedByExtent":false,"maxGradePermil":6,"zReliableShare":1,"structures":[],"pinnedAtSwitch":[{"end":"A","to":"way/612311100","deltaM":0.13}]}},{"type":"Feature","id":"way/233599051","geometry":{"type":"LineString","coordinates":[[3.7967788,48.5039253],[3.7970286,48.5039118],[3.7973115,48.5038935],[3.7976736,48.5038647],[3.7981323,48.5038292],[3.7990648,48.503757]]},"properties":{"id":"way/233599051","layer":"track","kind":"spur","kindLabel":"embranchement / voie de service","network":"service","status":"service","statusConfidence":"B (OSM railway=rail + voie visible sur l’orthophoto)","statusEvidence":["OSM railway=rail service=spur","BD TOPO : En service","aucun axe BD TOPO à moins de 3 m sur 21 % du tracé","Orthophoto IGN 2025 : voie de service visible au sud du faisceau ouest"],"review":{"verdict":"visible","observation":"voie de service visible au sud du faisceau ouest"},"trackRef":null,"line":null,"provenance":"osm","osmId":"way/233599051","bdtopoIds":["TRONFERR0000000009310481"],"bdtopoDistanceM":{"median":0.71,"max":6.11,"shareWithin":0.79},"gauge":1.435,"gaugeSource":"osm","electrification":{"current":"no","bdtopo":false,"planned":null},"maxspeed":null,"trackCountOnAxis":1,"lengthM":169.91,"inCommuneShare":1,"clippedByExtent":false,"maxGradePermil":2,"zReliableShare":1,"structures":[],"pinnedAtSwitch":[]}},{"type":"Feature","id":"way/233599052","geometry":{"type":"LineString","coordinates":[[3.7963885,48.5040585],[3.7965692,48.504037],[3.7966881,48.5040181],[3.7968775,48.5039854],[3.7970517,48.5039587],[3.797276,48.5039182],[3.7974173,48.5038948],[3.7975207,48.50388],[3.7976736,48.5038647]]},"properties":{"id":"way/233599052","layer":"track","kind":"spur","kindLabel":"embranchement / voie de service","network":"service","status":"service","statusConfidence":"A","statusEvidence":["OSM railway=rail service=spur","BD TOPO : En service"],"review":null,"trackRef":null,"line":null,"provenance":"osm+bdtopo","osmId":"way/233599052","bdtopoIds":["TRONFERR0000000009310481","TRONFERR0000000009310485","TRONFERR0000000009310466"],"bdtopoDistanceM":{"median":0.63,"max":2.98,"shareWithin":1},"gauge":1.435,"gaugeSource":"osm","electrification":{"current":"no","bdtopo":false,"planned":null},"maxspeed":null,"trackCountOnAxis":1,"lengthM":97.42,"inCommuneShare":1,"clippedByExtent":false,"maxGradePermil":1,"zReliableShare":1,"structures":[],"pinnedAtSwitch":[{"end":"A","to":"way/233599042","deltaM":-0.01},{"end":"B","to":"way/233599051","deltaM":0}]}},{"type":"Feature","id":"way/612311100","geometry":{"type":"LineString","coordinates":[[3.8201109,48.5021264],[3.820271,48.5021186],[3.8203539,48.5021183],[3.8205604,48.5021203],[3.8224288,48.5021398],[3.8226642,48.5021421],[3.8227822,48.5021413],[3.8229395,48.5021333]]},"properties":{"id":"way/612311100","layer":"track","kind":"crossover","kindLabel":"communication (liaison entre voies principales)","network":"principal","status":"active","statusConfidence":"A","statusEvidence":["OSM railway=rail service=crossover","BD TOPO : En service"],"review":null,"trackRef":"J1357","line":{"operator":"SNCF Réseau","ref":"1000"},"provenance":"osm+bdtopo","osmId":"way/612311100","bdtopoIds":["TRONFERR0000000009310435","TRONFERR0000000009310434","TRONFERR0000000009310436","TRONFERR0000000009310458"],"bdtopoDistanceM":{"median":0.9,"max":1.92,"shareWithin":1},"gauge":1.435,"gaugeSource":"osm","electrification":{"current":"no","bdtopo":false,"planned":"contact_line 25 kV 50 Hz (travaux en cours d’après OSM)"},"maxspeed":null,"trackCountOnAxis":1,"lengthM":209.04,"inCommuneShare":0,"clippedByExtent":false,"maxGradePermil":12,"zReliableShare":1,"structures":[],"pinnedAtSwitch":[{"end":"B","to":"way/721610237","deltaM":0.01}]}},{"type":"Feature","id":"way/721610237","geometry":{"type":"LineString","coordinates":[[3.74990534,48.50782959],[3.7604867,48.5070086],[3.7677504,48.5064453],[3.7858351,48.505034],[3.7922786,48.5045312],[3.7925631,48.5045089],[3.7991278,48.5039971],[3.8071216,48.5033708],[3.8096682,48.5031742],[3.8129774,48.5029148],[3.8189808,48.5024456],[3.8229395,48.5021333],[3.83231445,48.50140021]]},"properties":{"id":"way/721610237","layer":"track","kind":"main","kindLabel":"voie principale","network":"principal","status":"active","statusConfidence":"A","statusEvidence":["OSM railway=rail usage=main","BD TOPO : En service"],"review":null,"trackRef":"1","line":{"ref":"1000","name":"Ligne de Paris-Est à Mulhouse-Ville","operator":"SNCF Réseau","sncfReseau":"1000,1,V1,0.709,491.135"},"provenance":"osm+bdtopo","osmId":"way/721610237","bdtopoIds":["TRONFERR0000000009310471","TRONFERR0000000009310467","TRONFERR0000000009310425","TRONFERR0000000009310468","TRONFERR0000000009310434","TRONFERR0000000009310482"],"bdtopoDistanceM":{"median":1.11,"max":2.71,"shareWithin":1},"gauge":1.435,"gaugeSource":"osm","electrification":{"current":"no","bdtopo":false,"planned":"contact_line 25 kV 50 Hz (travaux en cours d’après OSM)"},"maxspeed":150,"trackCountOnAxis":2,"lengthM":6129.32,"inCommuneShare":0.62,"clippedByExtent":true,"maxGradePermil":6,"zReliableShare":0.99,"structures":["ouvrage:TRONFERR0000000009310482"],"pinnedAtSwitch":[{"levelCrossing":"PN70","deltaM":0.12},{"levelCrossing":"PN71","deltaM":0.16},{"levelCrossing":"PN73","deltaM":0.15},{"levelCrossing":"PN74","deltaM":0.15}]}},{"type":"Feature","id":"way/721610239","geometry":{"type":"LineString","coordinates":[[3.74989876,48.5077963],[3.7604931,48.5069743],[3.7677438,48.5064088],[3.7858327,48.5050023],[3.7922743,48.5044998],[3.7925603,48.5044773],[3.7991244,48.5039629],[3.8071138,48.5033372],[3.8096595,48.5031416],[3.8129743,48.5028825],[3.8189722,48.5024122],[3.8224288,48.5021398],[3.822931,48.5021005],[3.83232092,48.50136627]]},"properties":{"id":"way/721610239","layer":"track","kind":"main","kindLabel":"voie principale","network":"principal","status":"active","statusConfidence":"A","statusEvidence":["OSM railway=rail usage=main","BD TOPO : En service"],"review":null,"trackRef":"2","line":{"ref":"1000","name":"Ligne de Paris-Est à Mulhouse-Ville","operator":"SNCF Réseau","sncfReseau":"1000,1,V2,0.682,491.081"},"provenance":"osm+bdtopo","osmId":"way/721610239","bdtopoIds":["TRONFERR0000000009310471","TRONFERR0000000009310425","TRONFERR0000000009310468","TRONFERR0000000009310467","TRONFERR0000000009310434","TRONFERR0000000009310427","TRONFERR0000000009310489","TRONFERR0000000009310435"],"bdtopoDistanceM":{"median":2.58,"max":4.38,"shareWithin":0.85},"gauge":1.435,"gaugeSource":"osm","electrification":{"current":"no","bdtopo":false,"planned":"contact_line 25 kV 50 Hz (travaux en cours d’après OSM)"},"maxspeed":150,"trackCountOnAxis":2,"lengthM":6130.29,"inCommuneShare":0.62,"clippedByExtent":true,"maxGradePermil":7,"zReliableShare":0.99,"structures":["ouvrage:TRONFERR0000000009310482"],"pinnedAtSwitch":[{"levelCrossing":"PN70","deltaM":0.08},{"levelCrossing":"PN71","deltaM":0.15},{"levelCrossing":"PN73","deltaM":0.15},{"levelCrossing":"PN74","deltaM":0.11}]}},{"type":"Feature","id":"way/1239452991","geometry":{"type":"LineString","coordinates":[[3.8086024,48.5031122],[3.8079314,48.5032266],[3.8075962,48.5032827],[3.8074909,48.5032978],[3.8073689,48.5033124],[3.8071138,48.5033372]]},"properties":{"id":"way/1239452991","layer":"track","kind":"siding","kindLabel":"voie de garage / faisceau","network":"service","status":"service","statusConfidence":"A","statusEvidence":["OSM railway=rail service=siding","BD TOPO : En service"],"review":null,"trackRef":null,"line":null,"provenance":"osm+bdtopo","osmId":"way/1239452991","bdtopoIds":["TRONFERR0000000009310427","TRONFERR0000000009310468"],"bdtopoDistanceM":{"median":0.51,"max":2.16,"shareWithin":1},"gauge":1.435,"gaugeSource":"osm","electrification":{"current":"no","bdtopo":false,"planned":null},"maxspeed":null,"trackCountOnAxis":1,"lengthM":112.87,"inCommuneShare":1,"clippedByExtent":false,"maxGradePermil":9,"zReliableShare":1,"structures":[],"pinnedAtSwitch":[{"end":"A","to":"way/233599049","deltaM":0.14},{"end":"B","to":"way/721610239","deltaM":-0.06}]}},{"type":"Feature","id":"TRONFERR0000000009310423","geometry":{"type":"LineString","coordinates":[[3.81491472,48.50194594,82.3],[3.81186036,48.50218816,82.4],[3.80970918,48.50235938,82.1],[3.80957942,48.50237196,82.1],[3.80932138,48.5024061,81.8],[3.80663189,48.50260972,81.5]]},"properties":{"id":"TRONFERR0000000009310423","layer":"axis","nature":"Voie de service","trackCount":1,"position":"sol","state":"En service","electrified":false,"gauge":"Normale","precisionM":2.5,"representedBy":["way/174931204"],"review":null}},{"type":"Feature","id":"TRONFERR0000000009310424","geometry":{"type":"LineString","coordinates":[[3.82673716,48.50161327,85.5],[3.82706715,48.50159298,85.6],[3.82737811,48.50156742,85.8],[3.82769039,48.50154006,85.8],[3.82799326,48.50151726,85.8],[3.82826368,48.50149648,85.8],[3.82847328,48.50148152,85.8],[3.82869249,48.5014755,85.8],[3.82891442,48.50147035,85.7],[3.82918378,48.50146847,85.7],[3.82946543,48.5014728,85.6],[3.82971729,48.50147734,85.6],[3.82995275,48.5014712,85.6],[3.8302083,48.50145232,85.6],[3.83062618,48.50142511,85.6],[3.83204878,48.50132879,85.4]]},"properties":{"id":"TRONFERR0000000009310424","layer":"axis","nature":"Voie de service","trackCount":1,"position":"sol","state":"En service","electrified":false,"gauge":"Normale","precisionM":2.5,"representedBy":["way/174931207","way/174931217"],"review":null}},{"type":"Feature","id":"TRONFERR0000000009310425","geometry":{"type":"LineString","coordinates":[[3.82240559,48.50215702,84.3],[3.82201072,48.50218405,84.1],[3.82126046,48.50225221,83.5],[3.81875634,48.50244672,82.5],[3.81572343,48.5026763,82.5],[3.81466756,48.50276811,82.5],[3.81296373,48.50289133,82.5],[3.81040691,48.50309592,82.1],[3.80983106,48.50315113,82.3],[3.80787856,48.50330386,81.8],[3.80725913,48.50334316,81.5]]},"properties":{"id":"TRONFERR0000000009310425","layer":"axis","nature":"Voie ferrée principale","trackCount":2,"position":"sol","state":"En service","electrified":false,"gauge":"Normale","precisionM":2.5,"representedBy":["way/721610237","way/721610239"],"review":null}},{"type":"Feature","id":"TRONFERR0000000009310426","geometry":{"type":"LineString","coordinates":[[3.82006648,48.5019078,83],[3.81951103,48.50179468,83.2],[3.8188782,48.50166769,83.2],[3.81868406,48.50163214,83.3],[3.81847518,48.50160569,83.3],[3.81814568,48.50157108,83.1],[3.81780131,48.50153746,82.8],[3.81757209,48.50150935,82.7],[3.81742555,48.50148787,82.7],[3.81641925,48.50128337,82.6],[3.81574293,48.50114408,82.6],[3.81538032,48.5010692,82],[3.81520529,48.50104341,82.2],[3.81504668,48.5010292,82.3],[3.81487591,48.50101598,82.4],[3.81475806,48.50101139,82.4],[3.81459022,48.50101254,82.4],[3.81428184,48.50102995,82.4],[3.81394645,48.50105114,82.4],[3.81366111,48.50107019,82.8],[3.81355974,48.50108078,82.8],[3.81341389,48.50110337,82.8],[3.81293606,48.501193,82.8],[3.81281042,48.50120916,82.8],[3.81272661,48.50121693,82.8],[3.80980489,48.50136822,82.8],[3.80965889,48.50138091,82.8],[3.80954816,48.50139876,82.8],[3.80944425,48.50142016,82.8],[3.80925823,48.50147181,82.8],[3.80909388,48.50152421,82.8],[3.80898601,48.50155193,82.8],[3.80884151,48.50157451,82.8],[3.80870371,48.50159254,82.8],[3.80641872,48.5017763,82.8]]},"properties":{"id":"TRONFERR0000000009310426","layer":"axis","nature":"Voie de service","trackCount":1,"position":"sol","state":"En service","electrified":false,"gauge":"Normale","precisionM":2.5,"representedBy":["way/174931204","way/174931206"],"review":null}},{"type":"Feature","id":"TRONFERR0000000009310427","geometry":{"type":"LineString","coordinates":[[3.81009961,48.50292079,82],[3.80994539,48.50292814,82.2],[3.80971146,48.50294593,82.2],[3.80950067,48.50297165,82.3],[3.80918462,48.50301879,82.3],[3.80895105,48.50305996,82.3],[3.8085824,48.50312005,82.2],[3.80835018,48.50316121,82.1],[3.80805715,48.50320909,81.8],[3.80773034,48.50326169,81.7],[3.8074549,48.50330854,81.7],[3.80725913,48.50334316,81.5]]},"properties":{"id":"TRONFERR0000000009310427","layer":"axis","nature":"Voie de service","trackCount":1,"position":"sol","state":"En service","electrified":false,"gauge":"Normale","precisionM":2.5,"representedBy":["way/174931213","way/233599049","way/721610239","way/1239452991"],"review":null}},{"type":"Feature","id":"TRONFERR0000000009310428","geometry":{"type":"LineString","coordinates":[[3.81942581,48.50223249,82.7],[3.8192531,48.50226876,82.8],[3.81903323,48.50231976,82.8],[3.81888071,48.5023487,82.8],[3.81874291,48.50236674,82.8],[3.81857658,48.50237869,82.8],[3.81795744,48.50243513,82.6],[3.81584405,48.5025981,82.8],[3.81373609,48.50276279,82.7],[3.81303702,48.50281616,82.6],[3.81200547,48.50290508,82.5],[3.81144433,48.5029485,82.3],[3.81129151,48.50295854,82.3],[3.81116164,48.50296482,82.3],[3.81104523,48.50296562,82.2],[3.81090571,48.50296027,82.1],[3.81075937,48.50295137,82.1],[3.81061027,48.5029398,82.1],[3.81044223,48.50292835,82]]},"properties":{"id":"TRONFERR0000000009310428","layer":"axis","nature":"Voie de service","trackCount":1,"position":"sol","state":"En service","electrified":false,"gauge":"Normale","precisionM":2.5,"representedBy":["way/174931216"],"review":null}},{"type":"Feature","id":"TRONFERR0000000009310429","geometry":{"type":"LineString","coordinates":[[3.81062291,48.50288123,82.3],[3.81092034,48.50285581,82.2],[3.81132051,48.5028207,82.2],[3.81182892,48.50278124,82.2],[3.81235762,48.50274074,82.2],[3.81288355,48.50269666,82.2],[3.81357717,48.50264153,82.3],[3.81437617,48.50257218,82.3],[3.81516727,48.50251728,82.3],[3.81569594,48.50247587,82.3],[3.81614889,48.50243947,82.3],[3.81647335,48.50241115,82.4],[3.81675196,48.50239394,82.4],[3.81714408,48.50236426,82.4],[3.81752541,48.50233644,82.4],[3.81794585,48.50229936,82.4],[3.81833255,48.50226881,82.4],[3.81870035,48.50224199,82.5],[3.8190885,48.50221772,82.5],[3.81943325,48.50218835,82.7]]},"properties":{"id":"TRONFERR0000000009310429","layer":"axis","nature":"Voie de service","trackCount":1,"position":"sol","state":"En service","electrified":false,"gauge":"Normale","precisionM":2.5,"representedBy":["way/174931214","way/233599049"],"review":null}},{"type":"Feature","id":"TRONFERR0000000009310430","geometry":{"type":"LineString","coordinates":[[3.81044223,48.50292835,82],[3.81081055,48.50293483,82.3],[3.81102716,48.50293515,82.2],[3.81122735,48.50292389,82.1],[3.8114491,48.50290708,82.1],[3.81183983,48.50287383,82.1],[3.81237111,48.50282521,82.1],[3.81316352,48.50276761,82.2],[3.81376653,48.5027176,82.4],[3.81434797,48.50267404,82.4],[3.81495241,48.50262941,82.5],[3.81550136,48.50258606,82.5],[3.81628827,48.50252308,82.4],[3.81689131,48.50247575,82.4],[3.81758361,48.50242241,82.4],[3.81819341,48.50237503,82.4],[3.81855314,48.50235096,82.4],[3.81876811,48.50233328,82.5],[3.81893425,48.50230965,82.5],[3.81910976,48.50227875,82.5],[3.81928935,48.50224962,82.6],[3.81942581,48.50223249,82.7]]},"properties":{"id":"TRONFERR0000000009310430","layer":"axis","nature":"Voie de service","trackCount":1,"position":"sol","state":"En service","electrified":false,"gauge":"Normale","precisionM":2.5,"representedBy":["way/174931213","way/174931216"],"review":null}},{"type":"Feature","id":"TRONFERR0000000009310431","geometry":{"type":"LineString","coordinates":[[3.81943325,48.50218835,82.7],[3.81926456,48.5022228,82.9],[3.8190228,48.50225866,82.8],[3.81881064,48.50228261,82.8],[3.81855239,48.50230328,82.8],[3.81812516,48.50233861,82.9],[3.81745177,48.50238913,82.9],[3.81684058,48.50243471,82.8],[3.8162565,48.50248191,82.8],[3.81559663,48.50253142,82.7],[3.81494493,48.50258358,82.7],[3.81425128,48.50263691,82.8],[3.81350759,48.50269419,82.7],[3.81283152,48.50274649,82.6],[3.81179843,48.50282283,82.4],[3.81126715,48.50287144,82.4],[3.81102904,48.50288116,82.4],[3.81078541,48.50288462,82.3],[3.81062291,48.50288123,82.3]]},"properties":{"id":"TRONFERR0000000009310431","layer":"axis","nature":"Voie de service","trackCount":1,"position":"sol","state":"En service","electrified":false,"gauge":"Normale","precisionM":2.5,"representedBy":["way/174931214"],"review":null}},{"type":"Feature","id":"TRONFERR0000000009310433","geometry":{"type":"LineString","coordinates":[[3.82513754,48.50164508,84.7],[3.82553967,48.50164948,84.9],[3.8260833,48.50161332,84.9],[3.82624572,48.50161129,84.9],[3.82673716,48.50161327,84.8]]},"properties":{"id":"TRONFERR0000000009310433","layer":"axis","nature":"Voie de service","trackCount":1,"position":"sol","state":"En service","electrified":false,"gauge":"Normale","precisionM":2.5,"representedBy":["way/174931207","way/174931211","way/174931217"],"review":null}},{"type":"Feature","id":"TRONFERR0000000009310434","geometry":{"type":"LineString","coordinates":[[3.84491866,48.5004004,85.5],[3.84320042,48.50054485,85.5],[3.84043124,48.5007462,86],[3.83741373,48.50099601,85.4],[3.83707304,48.5010245,86],[3.8345513,48.50121048,84.7],[3.83204604,48.50141247,85.9],[3.83030989,48.50154157,86],[3.82826025,48.50170792,85.4],[3.82334405,48.50209025,84.3],[3.82259627,48.50214401,84.5],[3.82240559,48.50215702,84.3]]},"properties":{"id":"TRONFERR0000000009310434","layer":"axis","nature":"Voie ferrée principale","trackCount":2,"position":"sol","state":"En service","electrified":false,"gauge":"Normale","precisionM":2.5,"representedBy":["way/612311100","way/721610237","way/721610239"],"review":null}},{"type":"Feature","id":"TRONFERR0000000009310435","geometry":{"type":"LineString","coordinates":[[3.82240559,48.50215702,84.3],[3.82221185,48.50214667,84.3],[3.82183133,48.5021394,84.3],[3.82144681,48.50213577,84.3],[3.820931,48.50213393,83.4],[3.82072924,48.50213083,83.3],[3.82053154,48.5021277,83.3],[3.82031494,48.50212739,83.1],[3.82027434,48.50212857,83.7]]},"properties":{"id":"TRONFERR0000000009310435","layer":"axis","nature":"Voie de service","trackCount":1,"position":"sol","state":"En service","electrified":false,"gauge":"Normale","precisionM":2.5,"representedBy":["way/612311100","way/721610239"],"review":null}},{"type":"Feature","id":"TRONFERR0000000009310436","geometry":{"type":"LineString","coordinates":[[3.82534038,48.50171744,84.8],[3.82113679,48.50204884,83.3],[3.82027434,48.50212857,82.6]]},"properties":{"id":"TRONFERR0000000009310436","layer":"axis","nature":"Voie de service","trackCount":1,"position":"sol","state":"En service","electrified":false,"gauge":"Normale","precisionM":2.5,"representedBy":["way/174931217","way/612311100"],"review":null}},{"type":"Feature","id":"TRONFERR0000000009310437","geometry":{"type":"LineString","coordinates":[[3.80830563,48.50105996,83.1],[3.80900097,48.50102914,83.1],[3.81043467,48.5009492,83],[3.81228236,48.50085291,82.8],[3.81335226,48.50079521,82.8],[3.81356993,48.50077753,82.8],[3.81373204,48.50075573,82.8],[3.81401021,48.50071064,82.6],[3.81477309,48.50058396,83],[3.81492171,48.50056585,83.1],[3.81505693,48.50055592,83.1],[3.81528281,48.50054358,83.1],[3.81552385,48.50054912,83.1],[3.81569323,48.50055965,83.1],[3.8158749,48.5005773,84],[3.81602822,48.50059964,83.6],[3.81721658,48.50084787,83.4],[3.82108718,48.50164705,83.8],[3.82145243,48.5017165,83.7],[3.82163018,48.50174316,83.7],[3.82178754,48.50176366,83.7],[3.82204245,48.50178978,83.7],[3.8223488,48.50181555,83.9],[3.82267789,48.50182407,84.1],[3.82338048,48.5018237,84.4]]},"properties":{"id":"TRONFERR0000000009310437","layer":"axis","nature":"Voie de service","trackCount":1,"position":"sol","state":"En service","electrified":false,"gauge":"Normale","precisionM":2.5,"representedBy":["way/174931203","way/174931206","way/174931209","way/174931210","way/174931212","way/233599048"],"review":null}},{"type":"Feature","id":"TRONFERR0000000009310439","geometry":{"type":"LineString","coordinates":[[3.81009961,48.50292079,82],[3.81047554,48.50289394,82.2],[3.81062291,48.50288123,82.3]]},"properties":{"id":"TRONFERR0000000009310439","layer":"axis","nature":"Voie de service","trackCount":1,"position":"sol","state":"En service","electrified":false,"gauge":"Normale","precisionM":2.5,"representedBy":["way/174931213","way/174931214","way/233599049"],"review":null}},{"type":"Feature","id":"TRONFERR0000000009310446","geometry":{"type":"LineString","coordinates":[[3.82338048,48.5018237,84.4],[3.82467987,48.50172473,84.8],[3.82489092,48.50171606,84.8],[3.82505063,48.50171406,84.8],[3.82534038,48.50171744,84.8]]},"properties":{"id":"TRONFERR0000000009310446","layer":"axis","nature":"Voie de service","trackCount":1,"position":"sol","state":"En service","electrified":false,"gauge":"Normale","precisionM":2.5,"representedBy":["way/174931206","way/174931210","way/174931217"],"review":null}},{"type":"Feature","id":"TRONFERR0000000009310447","geometry":{"type":"LineString","coordinates":[[3.82409638,48.50155065,84.5],[3.82208841,48.50100768,84.3],[3.8216698,48.50090172,84.2],[3.82100522,48.50073448,84.1],[3.81971681,48.50040871,84.1],[3.81779374,48.49992266,84.1]]},"properties":{"id":"TRONFERR0000000009310447","layer":"axis","nature":"Voie de service","trackCount":1,"position":"sol","state":"En service","electrified":false,"gauge":"Normale","precisionM":2.5,"representedBy":["way/174931207","way/174931211"],"review":null}},{"type":"Feature","id":"TRONFERR0000000009310453","geometry":{"type":"LineString","coordinates":[[3.82534038,48.50171744,84.8],[3.82673716,48.50161327,84.8]]},"properties":{"id":"TRONFERR0000000009310453","layer":"axis","nature":"Voie de service","trackCount":1,"position":"sol","state":"En service","electrified":false,"gauge":"Normale","precisionM":2.5,"representedBy":["way/174931206","way/174931217"],"review":null}},{"type":"Feature","id":"TRONFERR0000000009310454","geometry":{"type":"LineString","coordinates":[[3.82513754,48.50164508,84.7],[3.82487766,48.50164778,84.6],[3.82472585,48.50163534,84.5],[3.82439753,48.50158994,84.5],[3.82409638,48.50155065,84.5]]},"properties":{"id":"TRONFERR0000000009310454","layer":"axis","nature":"Voie de service","trackCount":1,"position":"sol","state":"En service","electrified":false,"gauge":"Normale","precisionM":2.5,"representedBy":["way/174931211"],"review":null}},{"type":"Feature","id":"TRONFERR0000000009310457","geometry":{"type":"LineString","coordinates":[[3.81044223,48.50292835,82],[3.81029182,48.50291948,82],[3.81009961,48.50292079,82]]},"properties":{"id":"TRONFERR0000000009310457","layer":"axis","nature":"Voie de service","trackCount":1,"position":"sol","state":"En service","electrified":false,"gauge":"Normale","precisionM":2.5,"representedBy":["way/174931213","way/174931216"],"review":null}},{"type":"Feature","id":"TRONFERR0000000009310458","geometry":{"type":"LineString","coordinates":[[3.82027434,48.50212857,82.6],[3.81978339,48.50215805,82.6]]},"properties":{"id":"TRONFERR0000000009310458","layer":"axis","nature":"Voie de service","trackCount":1,"position":"sol","state":"En service","electrified":false,"gauge":"Normale","precisionM":2.5,"representedBy":["way/174931213","way/174931217","way/233599049","way/612311100"],"review":null}},{"type":"Feature","id":"TRONFERR0000000009310459","geometry":{"type":"LineString","coordinates":[[3.82513754,48.50164508,85],[3.82452023,48.5015585,85.5],[3.82438033,48.50152888,85.5],[3.82415213,48.50148009,85.5],[3.82313282,48.50122446,85.5]]},"properties":{"id":"TRONFERR0000000009310459","layer":"axis","nature":"Voie de service","trackCount":1,"position":"sol","state":"En service","electrified":false,"gauge":"Normale","precisionM":2.5,"representedBy":["way/174931207"],"review":"tracé BD TOPO décalé et en biais ; les rails visibles suivent la voie OSM way/174931207"}},{"type":"Feature","id":"TRONFERR0000000009310460","geometry":{"type":"LineString","coordinates":[[3.81943325,48.50218835,82.7],[3.81978339,48.50215805,82.8]]},"properties":{"id":"TRONFERR0000000009310460","layer":"axis","nature":"Voie de service","trackCount":1,"position":"sol","state":"En service","electrified":false,"gauge":"Normale","precisionM":2.5,"representedBy":["way/174931214","way/233599049"],"review":null}},{"type":"Feature","id":"TRONFERR0000000009310462","geometry":{"type":"LineString","coordinates":[[3.81978339,48.50215805,82.8],[3.81966205,48.50218948,83],[3.81946359,48.50222413,82.9],[3.81942581,48.50223249,82.7]]},"properties":{"id":"TRONFERR0000000009310462","layer":"axis","nature":"Voie de service","trackCount":1,"position":"sol","state":"En service","electrified":false,"gauge":"Normale","precisionM":2.5,"representedBy":["way/174931213","way/174931216"],"review":null}},{"type":"Feature","id":"TRONFERR0000000009310464","geometry":{"type":"LineString","coordinates":[[3.82006648,48.5019078,83],[3.82025384,48.50194249,83.1],[3.82041672,48.50197015,83.1],[3.82053472,48.50198463,83.1],[3.82062279,48.50198942,83.1],[3.82083547,48.50199875,83.1],[3.82111699,48.501995,83.3],[3.82138879,48.50197513,83.3],[3.82197831,48.50192967,84],[3.82338048,48.5018237,84.4]]},"properties":{"id":"TRONFERR0000000009310464","layer":"axis","nature":"Voie de service","trackCount":1,"position":"sol","state":"En service","electrified":false,"gauge":"Normale","precisionM":2.5,"representedBy":["way/174931206"],"review":null}},{"type":"Feature","id":"TRONFERR0000000009310465","geometry":{"type":"LineString","coordinates":[[3.82409638,48.50155065,84.5],[3.82373516,48.50147848,84.3],[3.82330034,48.50137534,84.3],[3.82194403,48.50103747,84.3],[3.82165318,48.50096391,84.3],[3.81976257,48.50047857,84.3],[3.81969054,48.50046017,84.3],[3.81774013,48.49995722,84.3]]},"properties":{"id":"TRONFERR0000000009310465","layer":"axis","nature":"Voie de service","trackCount":1,"position":"sol","state":"En service","electrified":false,"gauge":"Normale","precisionM":2.5,"representedBy":["way/174931211"],"review":"tracé BD TOPO décalé ; les rails visibles suivent la voie OSM way/174931211"}},{"type":"Feature","id":"TRONFERR0000000009310466","geometry":{"type":"LineString","coordinates":[[3.79387787,48.50429337,80.8],[3.79428716,48.50423306,81.1],[3.79473422,48.50416439,80.9],[3.79517313,48.50409308,81],[3.79562591,48.50404417,81.2],[3.79599226,48.50400933,81.1],[3.79643845,48.50397216,81.2],[3.79672254,48.50395856,81.2],[3.7970381,48.50396724,81.3]]},"properties":{"id":"TRONFERR0000000009310466","layer":"axis","nature":"Voie de service","trackCount":1,"position":"sol","state":"En service","electrified":false,"gauge":"Normale","precisionM":2.5,"representedBy":["way/233599039","way/233599042","way/233599046","way/233599052"],"review":null}},{"type":"Feature","id":"TRONFERR0000000009310467","geometry":{"type":"LineString","coordinates":[[3.79273671,48.50447911,80],[3.79227154,48.5045146,79.7],[3.79129795,48.50459126,79.5],[3.79045839,48.50466792,79],[3.78947515,48.50473293,79],[3.78845974,48.50481974,79],[3.78802831,48.5048487,79],[3.78719946,48.50491806,79],[3.78664498,48.50495682,79],[3.78622994,48.50499555,78.5],[3.78584454,48.50502509,78],[3.78391369,48.50518629,76.8],[3.78010972,48.50547761,76.3],[3.77214491,48.5061054,76.4]]},"properties":{"id":"TRONFERR0000000009310467","layer":"axis","nature":"Voie ferrée principale","trackCount":2,"position":"sol","state":"En service","electrified":false,"gauge":"Normale","precisionM":2.5,"representedBy":["way/233599046","way/721610237","way/721610239"],"review":null}},{"type":"Feature","id":"TRONFERR0000000009310468","geometry":{"type":"LineString","coordinates":[[3.80725913,48.50334316,81.5],[3.80705357,48.50335715,81.4],[3.80546223,48.5034912,80.8],[3.80461025,48.50355005,80.6],[3.80374082,48.50361891,86.1],[3.80353269,48.50364191,80.9],[3.80253056,48.50370896,80.9],[3.80171382,48.50377115,81.1],[3.80160701,48.50377996,80.5],[3.800328,48.50389024,80.5],[3.79977351,48.50392726,81],[3.79913142,48.50399006,81],[3.79848099,48.50403941,81],[3.7976208,48.50409377,81],[3.79595771,48.50423087,80.5],[3.79498537,48.50429946,80.1],[3.79376731,48.50441286,80],[3.7929585,48.50446324,79.9],[3.79273671,48.50447911,80]]},"properties":{"id":"TRONFERR0000000009310468","layer":"axis","nature":"Voie ferrée principale","trackCount":2,"position":"sol","state":"En service","electrified":false,"gauge":"Normale","precisionM":2.5,"representedBy":["way/721610237","way/721610239","way/1239452991"],"review":null}},{"type":"Feature","id":"TRONFERR0000000009310471","geometry":{"type":"LineString","coordinates":[[3.7718961,48.50612591,76.4],[3.76973504,48.50628837,76.5],[3.76862609,48.50637111,76.5],[3.767766,48.50643605,76],[3.76146818,48.50692369,75.5],[3.76049719,48.50699828,74.1],[3.75867432,48.50714667,75.5],[3.74737369,48.50800996,76.5],[3.74618096,48.50810832,76.4],[3.74598078,48.50812217,76.3],[3.74475566,48.50822791,76.5],[3.7441432,48.50828842,76.5],[3.743785,48.50832935,76.4],[3.74335248,48.50838064,76.4],[3.74307541,48.50841476,76.4],[3.74257004,48.50848449,76.4],[3.74159888,48.50864709,76.1],[3.74079416,48.50880324,75.9],[3.74061861,48.50883583,75.9],[3.74034185,48.50889153,76],[3.74008001,48.50894983,76.6],[3.73988299,48.50899604,76.9],[3.73957262,48.50906905,77],[3.73847578,48.50934575,77.1],[3.73825588,48.509402,77.1],[3.73783369,48.50951437,77.1],[3.73762473,48.50957864,76.5],[3.73742251,48.50964017,77],[3.73724073,48.50971147,77],[3.73718544,48.50972711,76.3],[3.73687258,48.50981631,77],[3.73672846,48.50987028,77],[3.73658703,48.50992244,76.9]]},"properties":{"id":"TRONFERR0000000009310471","layer":"axis","nature":"Voie ferrée principale","trackCount":2,"position":"sol","state":"En service","electrified":false,"gauge":"Normale","precisionM":2.5,"representedBy":["way/721610237","way/721610239"],"review":null}},{"type":"Feature","id":"TRONFERR0000000009310480","geometry":{"type":"LineString","coordinates":[[3.79636985,48.50409047,81.3],[3.79784238,48.50397533,81.1]]},"properties":{"id":"TRONFERR0000000009310480","layer":"axis","nature":"Voie de service","trackCount":1,"position":"sol","state":"En service","electrified":false,"gauge":"Normale","precisionM":2.5,"representedBy":["way/233599039","way/233599042"],"review":null}},{"type":"Feature","id":"TRONFERR0000000009310481","geometry":{"type":"LineString","coordinates":[[3.79905488,48.50376477,81.4],[3.79823406,48.50382606,81.1],[3.79772565,48.50386636,81.4],[3.79737284,48.50390112,81.5],[3.7970381,48.50396724,81.3]]},"properties":{"id":"TRONFERR0000000009310481","layer":"axis","nature":"Voie de service","trackCount":1,"position":"sol","state":"En service","electrified":false,"gauge":"Normale","precisionM":2.5,"representedBy":["way/233599046","way/233599051","way/233599052"],"review":null}},{"type":"Feature","id":"TRONFERR0000000009310482","geometry":{"type":"LineString","coordinates":[[3.77214491,48.5061054,76.4],[3.77202862,48.50611515,76.4],[3.7718961,48.50612591,76.4]]},"properties":{"id":"TRONFERR0000000009310482","layer":"axis","nature":"Voie ferrée principale","trackCount":2,"position":"pont","state":"En service","electrified":false,"gauge":"Normale","precisionM":2.5,"representedBy":["way/721610237"],"review":null}},{"type":"Feature","id":"TRONFERR0000000009310485","geometry":{"type":"LineString","coordinates":[[3.7970381,48.50396724,81.3],[3.79673152,48.50401517,81.2],[3.79636985,48.50409047,81.3]]},"properties":{"id":"TRONFERR0000000009310485","layer":"axis","nature":"Voie de service","trackCount":1,"position":"sol","state":"En service","electrified":false,"gauge":"Normale","precisionM":2.5,"representedBy":["way/233599042","way/233599052"],"review":null}},{"type":"Feature","id":"TRONFERR0000000009310487","geometry":{"type":"LineString","coordinates":[[3.79784238,48.50397533,81.1],[3.79842411,48.50394893,81.2],[3.79919755,48.50388796,81.1],[3.80035368,48.50379831,81],[3.80114206,48.50374082,81.6],[3.8016707,48.50369587,81.5]]},"properties":{"id":"TRONFERR0000000009310487","layer":"axis","nature":"Voie de service","trackCount":1,"position":"sol","state":"En service","electrified":false,"gauge":"Normale","precisionM":2.5,"representedBy":["way/233599039","way/233599042"],"review":null}},{"type":"Feature","id":"TRONFERR0000000009310488","geometry":{"type":"LineString","coordinates":[[3.79387787,48.50429337,80.8],[3.79474589,48.50421919,81.2],[3.79565318,48.50414655,81],[3.79636985,48.50409047,81.3]]},"properties":{"id":"TRONFERR0000000009310488","layer":"axis","nature":"Voie de service","trackCount":1,"position":"sol","state":"En service","electrified":false,"gauge":"Normale","precisionM":2.5,"representedBy":["way/233599039","way/233599042"],"review":null}},{"type":"Feature","id":"TRONFERR0000000009310489","geometry":{"type":"LineString","coordinates":[[3.79273671,48.50447911,80],[3.7930675,48.50442023,80.3],[3.79357538,48.50434397,80.3],[3.79387787,48.50429337,80.8]]},"properties":{"id":"TRONFERR0000000009310489","layer":"axis","nature":"Voie de service","trackCount":1,"position":"sol","state":"En service","electrified":false,"gauge":"Normale","precisionM":2.5,"representedBy":["way/233599039","way/233599046","way/721610239"],"review":null}},{"type":"Feature","id":"TRONFERR0000000009310490","geometry":{"type":"LineString","coordinates":[[3.7970381,48.50396724,81.3],[3.79706519,48.50396795,81.2],[3.79755798,48.50396825,81.2],[3.79784238,48.50397533,81.1]]},"properties":{"id":"TRONFERR0000000009310490","layer":"axis","nature":"Voie de service","trackCount":1,"position":"sol","state":"En service","electrified":false,"gauge":"Normale","precisionM":2.5,"representedBy":["way/233599042","way/233599046"],"review":null}},{"type":"Feature","id":"TRONFERR0000002007077895","geometry":{"type":"LineString","coordinates":[[3.82006648,48.5019078,83],[3.81979514,48.50187008,82.8],[3.81934493,48.50182101,82.7],[3.81848664,48.50173336,82.3],[3.8182928,48.50171671,82.3],[3.81813834,48.50170787,82.3],[3.81792179,48.50171116,82.3],[3.81762563,48.5017312,82.3],[3.81491472,48.50194594,82.3]]},"properties":{"id":"TRONFERR0000002007077895","layer":"axis","nature":"Voie de service","trackCount":1,"position":"sol","state":"En service","electrified":false,"gauge":"Normale","precisionM":2.5,"representedBy":["way/174931204","way/233599043"],"review":null}},{"type":"Feature","id":"TRONFERR0000002007077896","geometry":{"type":"LineString","coordinates":[[3.80996779,48.50201125,83.1],[3.81305727,48.50176434,82.6],[3.81327513,48.50175836,82.6],[3.81339158,48.50176026,82.6],[3.81350138,48.5017694,82.5],[3.81363424,48.50178199,82.3],[3.81383111,48.50181932,82.3],[3.81408782,48.50187424,82.3],[3.8142766,48.50191343,82.3],[3.81442451,48.50193581,82.3],[3.81455731,48.50194479,82.3],[3.81470086,48.50194831,82.3],[3.81491472,48.50194594,82.3]]},"properties":{"id":"TRONFERR0000002007077896","layer":"axis","nature":"Voie de service","trackCount":1,"position":"sol","state":"En service","electrified":false,"gauge":"Normale","precisionM":2.5,"representedBy":["way/174931204","way/233599043"],"review":null}}]}
