{"type":"FeatureCollection","metadata":{"note":"Couche séparée : emprise déclarée (OSM) et équipements BD TOPO. Aucune plateforme ni ballast n’est estimé ici."},"features":[{"type":"Feature","id":"way/476362753","geometry":{"type":"Polygon","coordinates":[[[3.7696932,48.5063473],[3.7676759,48.5064868],[3.7614802,48.5069753],[3.7592453,48.5071461],[3.7496431,48.5079006],[3.7466759,48.5081233],[3.7455448,48.508218],[3.7455287,48.5080984],[3.7496162,48.5077725],[3.7524518,48.5075541],[3.7542907,48.5074124],[3.7595748,48.5070053],[3.7604482,48.5069377],[3.7685828,48.5063082],[3.7690709,48.5062673],[3.7698327,48.5062016],[3.7696932,48.5063473]]]},"properties":{"id":"way/476362753","kind":"emprise ferroviaire (OSM landuse=railway)","source":"OSM (BDOrtho IGN)","official":false}},{"type":"Feature","id":"way/1218217668","geometry":{"type":"Polygon","coordinates":[[[3.7921956,48.5044527],[3.7922171,48.50458],[3.7907551,48.5046987],[3.7859327,48.505058],[3.7859193,48.5049502],[3.7869434,48.5048758],[3.7921956,48.5044527]]]},"properties":{"id":"way/1218217668","kind":"emprise ferroviaire (OSM landuse=railway)","source":"OSM","official":false}},{"type":"Feature","id":"way/1218217884","geometry":{"type":"Polygon","coordinates":[[[3.8396763,48.500744],[3.8449037,48.5003253],[3.8449439,48.5004622],[3.8437031,48.5005552],[3.8400999,48.500839],[3.8303286,48.5016076],[3.8038149,48.5036861],[3.803794,48.5035646],[3.8068717,48.5033299],[3.8076733,48.5032302],[3.807798,48.5031023],[3.8084404,48.5030721],[3.8089031,48.5029663],[3.8109952,48.5026215],[3.818956,48.502012],[3.820796,48.5020315],[3.8207987,48.5019586],[3.8212708,48.5019391],[3.8212842,48.5018733],[3.8217401,48.5018218],[3.8217831,48.5017187],[3.821995,48.501685],[3.8225582,48.5017685],[3.8233843,48.501772],[3.8245323,48.5016956],[3.824527,48.5016547],[3.8240924,48.501605],[3.8222283,48.5011607],[3.817715,48.4999641],[3.8177584,48.4998926],[3.8181876,48.5000054],[3.8184719,48.5000614],[3.8187589,48.5001156],[3.8222447,48.5010283],[3.8222592,48.501006],[3.8236552,48.5013651],[3.8241219,48.5014664],[3.8248837,48.5015659],[3.825396,48.5016032],[3.8259646,48.5015694],[3.8265681,48.5015819],[3.8282016,48.5014415],[3.8287085,48.5014237],[3.8294408,48.5014273],[3.8297559,48.5014024],[3.8304754,48.5013491],[3.8304654,48.5011642],[3.8348159,48.5010363],[3.8348642,48.5011251],[3.8396763,48.500744]]]},"properties":{"id":"way/1218217884","kind":"emprise ferroviaire (OSM landuse=railway)","source":"OSM","official":false}},{"type":"Feature","id":"way/1218218639","geometry":{"type":"Polygon","coordinates":[[[3.8035226,48.5037394],[3.793754,48.5044893],[3.7923485,48.5045702],[3.7923284,48.504452],[3.792771,48.5044209],[3.793353,48.5043303],[3.7933584,48.5042725],[3.7942515,48.5041988],[3.7948644,48.5041099],[3.7952346,48.5040166],[3.7991801,48.5036861],[3.7992096,48.5038282],[3.801747,48.5036274],[3.8017689,48.503719],[3.8036822,48.5035731],[3.8037077,48.5037296],[3.8035226,48.5037394]]]},"properties":{"id":"way/1218218639","kind":"emprise ferroviaire (OSM landuse=railway)","source":"OSM","official":false}},{"type":"Feature","id":"EQ_RESEA0000000009311221","geometry":{"type":"MultiPolygon","coordinates":[[[[3.81868847,48.50200097,82.1],[3.81893859,48.50198035,82.1],[3.81906726,48.50198486,82.1],[3.81922452,48.50199907,82.1],[3.81942956,48.50203904,82.1],[3.81978339,48.50215805,82.6],[3.81946921,48.50223759,82.5],[3.81916714,48.50231254,82.6],[3.81896067,48.50235445,82.6],[3.81880396,48.50237532,82.6],[3.81840645,48.50240685,82.6],[3.81115945,48.50299812,82.5],[3.81094958,48.50299596,82],[3.81078559,48.50298358,82],[3.81063504,48.50296572,82],[3.81047357,48.50294163,82],[3.81024584,48.50292249,82.1],[3.81007512,48.50291286,82.1],[3.81033274,48.50276356,82.3],[3.81043359,48.50271969,82.3],[3.81050772,48.50269849,82.3],[3.81082363,48.50264236,82.3],[3.81110181,48.50259728,82.3],[3.81329359,48.50242486,82.3],[3.81757574,48.50209139,82.1],[3.81868847,48.50200097,82.1]]]]},"properties":{"id":"EQ_RESEA0000000009311221","kind":"Aire de triage","source":"BD TOPO equipement_de_transport","official":true,"fictif":false,"inCommune":true}},{"type":"Feature","id":"EQ_RESEA0000000312835745","geometry":{"type":"MultiPolygon","coordinates":[[[[3.82288051,48.50162295,-1000],[3.82281283,48.50162342,-1000],[3.82281212,48.50157844,-1000],[3.8228798,48.50157797,-1000],[3.82288051,48.50162295,-1000]]]]},"properties":{"id":"EQ_RESEA0000000312835745","kind":"Gare fret uniquement — Arrêt de Fret de Châtres","source":"BD TOPO equipement_de_transport","official":true,"fictif":true,"inCommune":false}}]}
