{"type":"FeatureCollection","features":[{"type":"Feature","id":"detail_hydrographique.153975","geometry":{"type":"Point","coordinates":[3.75369517,48.50085846]},"geometry_name":"geometrie","properties":{"cleabs":"PAIHYDRO0000002206127456","nature":"Citerne","nature_detaillee":"DFCI","persistance":null,"toponyme":null,"statut_du_toponyme":null,"importance":"5","etat_de_l_objet":"En service","date_creation":"2019-12-20T15:44:53.986Z","date_modification":null,"date_d_apparition":null,"date_de_confirmation":null,"sources":null,"identifiants_sources":null,"methode_d_acquisition_planimetrique":"Orthophotographie","precision_planimetrique":3,"insee_commune":"10323","identifiant_voie_ban":null,"id_ban_odonyme":null}},{"type":"Feature","id":"detail_hydrographique.164301","geometry":{"type":"Point","coordinates":[3.82788577,48.50019553]},"geometry_name":"geometrie","properties":{"cleabs":"PAIHYDRO0000002330331344","nature":"Citerne","nature_detaillee":"DFCI","persistance":"Permanent","toponyme":null,"statut_du_toponyme":null,"importance":"5","etat_de_l_objet":"En service","date_creation":"2023-02-24T16:47:08.439Z","date_modification":"2023-03-14T15:11:26.701Z","date_d_apparition":null,"date_de_confirmation":null,"sources":null,"identifiants_sources":null,"methode_d_acquisition_planimetrique":"Orthophotographie","precision_planimetrique":3,"insee_commune":"10089","identifiant_voie_ban":null,"id_ban_odonyme":null}},{"type":"Feature","id":"detail_hydrographique.176052","geometry":{"type":"Point","coordinates":[3.76100229,48.49645765]},"geometry_name":"geometrie","properties":{"cleabs":"PAIHYDRO0000002492550943","nature":"Citerne","nature_detaillee":"DFCI","persistance":null,"toponyme":null,"statut_du_toponyme":null,"importance":"5","etat_de_l_objet":"En service","date_creation":"2025-09-08T10:39:06.263Z","date_modification":null,"date_d_apparition":null,"date_de_confirmation":null,"sources":null,"identifiants_sources":null,"methode_d_acquisition_planimetrique":"Orthophotographie","precision_planimetrique":3,"insee_commune":"10220","identifiant_voie_ban":null,"id_ban_odonyme":null}},{"type":"Feature","id":"detail_hydrographique.176053","geometry":{"type":"Point","coordinates":[3.7504905,48.50092193]},"geometry_name":"geometrie","properties":{"cleabs":"PAIHYDRO0000002492550944","nature":"Citerne","nature_detaillee":"DFCI","persistance":null,"toponyme":null,"statut_du_toponyme":null,"importance":"5","etat_de_l_objet":"En service","date_creation":"2025-09-08T10:39:06.263Z","date_modification":null,"date_d_apparition":null,"date_de_confirmation":null,"sources":null,"identifiants_sources":null,"methode_d_acquisition_planimetrique":"Orthophotographie","precision_planimetrique":3,"insee_commune":"10323","identifiant_voie_ban":null,"id_ban_odonyme":null}}],"totalFeatures":4,"numberMatched":4,"numberReturned":4,"timeStamp":"2026-09-26T05:23:03.952Z","crs":{"type":"name","properties":{"name":"urn:ogc:def:crs:EPSG::4326"}}}