{"type":"FeatureCollection","metadata":{"source":"BD TOPO plan d’eau","typename":"BDTOPO_V3:plan_d_eau","service":"https://data.geopf.fr/wfs/ows","request":"GetFeature BDTOPO_V3:plan_d_eau BBOX 755390,6819514,761486,6826372 EPSG:2154 (emprise du terrain V1.7)","retrievedAt":"2026-09-25T03:50:16.996Z","license":"Licence Ouverte Etalab 2.0 — © IGN / ASP","crs":"CRS84"},"features":[{"type":"Feature","id":"plan_d_eau.14084","geometry":{"type":"MultiPolygon","coordinates":[[[[3.79533988,48.5348321],[3.79504435,48.53499601],[3.79484657,48.53508459],[3.79463248,48.53516969],[3.79440156,48.53503809],[3.79432773,48.53490364],[3.79441134,48.53478973],[3.79528341,48.53441326],[3.7954896,48.53434351],[3.79550845,48.53433619],[3.79559195,48.5343932],[3.7956828,48.53448885],[3.79570703,48.53456786],[3.79562279,48.53464039],[3.79547681,48.53475022],[3.79533988,48.5348321]]]]},"geometry_name":"geometrie","properties":{"cleabs":"PLANDEAU0000002000761970","code_hydrographique":"03P0000002000761970","nature":"Retenue","toponyme":null,"statut_du_toponyme":null,"importance":"3","date_creation":"2017-01-24T15:06:18.918Z","date_modification":"2021-09-11T05:29:49.269Z","date_d_apparition":null,"date_de_confirmation":null,"sources":null,"identifiants_sources":null,"statut":"Validé","influence_de_la_maree":null,"caractere_permanent":null,"altitude_moyenne":null,"referentiel_de_l_altitude_moyenne":null,"mode_d_obtention_de_l_altitude_moy":null,"precision_de_l_altitude_moyenne":null,"hauteur_d_eau_maximale":null,"mode_d_obtention_de_la_hauteur":null,"commentaire_sur_l_objet_hydro":null}},{"type":"Feature","id":"plan_d_eau.23188","geometry":{"type":"MultiPolygon","coordinates":[[[[3.79680823,48.53224488],[3.79731669,48.53272456],[3.79749517,48.5328817],[3.79752627,48.53296695],[3.79752587,48.53302993],[3.79751156,48.53306871],[3.79748639,48.53310576],[3.797449,48.53314109],[3.7973872,48.53317479],[3.79731605,48.53321665],[3.79718847,48.53328948],[3.797066,48.53334158],[3.79699718,48.53335913],[3.79692431,48.53337671],[3.79677182,48.53341462],[3.79670027,48.53343039],[3.79658417,48.53345636],[3.79650721,48.53347307],[3.79644373,48.53348519],[3.79633691,48.5334976],[3.7962408,48.53350184],[3.79615679,48.5334997],[3.79596286,48.53348481],[3.79582587,48.53347313],[3.79567799,48.53345793],[3.7955127,48.53345544],[3.79542362,48.53347672],[3.79536047,48.53351043],[3.79523954,48.53357511],[3.79519245,48.53359612],[3.79514124,48.53361355],[3.79506575,48.53363745],[3.79502661,48.53364671],[3.79495631,48.53365617],[3.79486635,48.53361899],[3.79480295,48.53354745],[3.79478089,48.5335215],[3.79476118,48.53347216],[3.7947935,48.53337029],[3.7949006,48.5332868],[3.79498924,48.53323673],[3.79538752,48.53306134],[3.79550056,48.53301201],[3.79554771,48.5329955],[3.79560554,48.53296812],[3.79564173,48.53294269],[3.79567496,48.53290109],[3.79568525,48.53286503],[3.79567361,48.53281204],[3.79563227,48.53276553],[3.79557617,48.53272812],[3.79548027,48.5326568],[3.79538174,48.53259088],[3.79528728,48.53252494],[3.79525565,48.53249367],[3.79524023,48.53245959],[3.79528637,48.53237561],[3.79543236,48.53226668],[3.79553788,48.53216882],[3.79558603,48.53212802],[3.7956597,48.53207355],[3.79572247,48.53201465],[3.79584003,48.53190681],[3.79587464,48.53186699],[3.79593162,48.53178385],[3.79592574,48.5317533],[3.79590618,48.53171385],[3.79582903,48.531628],[3.79577912,48.53155277],[3.79580948,48.53141133],[3.79586597,48.53138486],[3.79594043,48.53138256],[3.79603049,48.53142604],[3.79608059,48.53151387],[3.79608953,48.53156778],[3.79611588,48.53160809],[3.79619444,48.53169752],[3.79627034,48.53178968],[3.79636883,48.53185289],[3.79647273,48.53191607],[3.79651928,48.53194904],[3.79655377,48.53199019],[3.79659911,48.53203217],[3.79664986,48.53207411],[3.79680823,48.53224488]],[[3.79652241,48.53242222],[3.79641671,48.53241933],[3.79639918,48.53242484],[3.79638041,48.53243756],[3.79637118,48.53245382],[3.79635949,48.53248718],[3.79635711,48.53250879],[3.79636855,48.53254829],[3.79640417,48.53257504],[3.79647054,48.5325746],[3.79655152,48.53255516],[3.7966146,48.53251696],[3.79661692,48.53249175],[3.79660431,48.53246395],[3.79657692,48.53244434],[3.79652241,48.53242222]]]]},"geometry_name":"geometrie","properties":{"cleabs":"PLANDEAU0000002000761971","code_hydrographique":"03P0000002000761971","nature":"Plan d'eau de gravière","toponyme":null,"statut_du_toponyme":null,"importance":"3","date_creation":"2017-01-24T15:06:18.918Z","date_modification":"2021-09-11T05:29:49.269Z","date_d_apparition":null,"date_de_confirmation":null,"sources":null,"identifiants_sources":null,"statut":"Validé","influence_de_la_maree":null,"caractere_permanent":null,"altitude_moyenne":null,"referentiel_de_l_altitude_moyenne":null,"mode_d_obtention_de_l_altitude_moy":null,"precision_de_l_altitude_moyenne":null,"hauteur_d_eau_maximale":null,"mode_d_obtention_de_la_hauteur":null,"commentaire_sur_l_objet_hydro":null}},{"type":"Feature","id":"plan_d_eau.26456","geometry":{"type":"MultiPolygon","coordinates":[[[[3.83112546,48.51619543],[3.83112084,48.51616037],[3.83115601,48.51607286],[3.83137632,48.51579064],[3.83149758,48.51566654],[3.83165541,48.51545762],[3.83176205,48.51526615],[3.83184848,48.51516569],[3.83191805,48.51511302],[3.83199518,48.51510978],[3.83208192,48.51511457],[3.83218643,48.51513004],[3.83223693,48.51515487],[3.83228339,48.51518154],[3.83230698,48.51521736],[3.83234483,48.51538442],[3.83237917,48.51550023],[3.83244988,48.5156041],[3.83261968,48.51572346],[3.833247,48.51600244],[3.83350835,48.51608788],[3.83368037,48.51617663],[3.83372846,48.51622038],[3.83374416,48.51627065],[3.83374268,48.51634802],[3.83378828,48.51649075],[3.833887,48.51673835],[3.83389455,48.51687234],[3.8338682,48.51691841],[3.83381355,48.51697277],[3.833695,48.51701139],[3.83362745,48.51702176],[3.83356219,48.51700512],[3.83349218,48.51694534],[3.83340057,48.51680474],[3.83331662,48.51671986],[3.83320304,48.51664509],[3.83315011,48.5165519],[3.83317067,48.51648248],[3.83321016,48.51641113],[3.83325374,48.51634156],[3.83324923,48.5163137],[3.83309871,48.5162149],[3.83296729,48.51612496],[3.83290341,48.51611011],[3.83281523,48.51609993],[3.8327811,48.51608218],[3.8327445,48.51607974],[3.83269994,48.51608814],[3.83265995,48.51612801],[3.83263668,48.51619744],[3.83262922,48.51632434],[3.83263451,48.51640167],[3.83262683,48.51642962],[3.83260553,48.51645316],[3.83256781,48.51646512],[3.8324988,48.5164683],[3.83242955,48.51645619],[3.83231995,48.51646145],[3.83225373,48.51647001],[3.8321807,48.51647592],[3.83209289,48.51648913],[3.83201725,48.51650136],[3.83193748,48.51650911],[3.83187804,48.51651763],[3.83185503,48.51651869],[3.83179113,48.51650204],[3.83172269,48.51645574],[3.83164481,48.5164122],[3.83154232,48.51635354],[3.83145765,48.51630826],[3.83141814,48.51629324],[3.83135157,48.51627931],[3.83127454,48.51628884],[3.83120397,48.51627944],[3.83115757,48.51625638],[3.83112546,48.51619543]],[[3.83165225,48.51619804],[3.83159692,48.51621012],[3.83157691,48.51622915],[3.8315705,48.51625169],[3.83158857,48.51628125],[3.83164313,48.51630606],[3.83170718,48.5163317],[3.83177284,48.51637352],[3.83182488,48.51641004],[3.83189428,48.51643205],[3.83194157,48.51642542],[3.83196674,48.51639016],[3.83196081,48.51635781],[3.8319536,48.51632997],[3.83188361,48.51627109],[3.83181501,48.51621489],[3.83173483,48.51619656],[3.83165225,48.51619804]]]]},"geometry_name":"geometrie","properties":{"cleabs":"PLANDEAU0000002000761972","code_hydrographique":"03P0000002000761972","nature":"Retenue","toponyme":null,"statut_du_toponyme":null,"importance":"3","date_creation":"2017-01-24T15:06:18.918Z","date_modification":"2025-03-18T19:08:02.221Z","date_d_apparition":null,"date_de_confirmation":null,"sources":null,"identifiants_sources":null,"statut":"Validé","influence_de_la_maree":null,"caractere_permanent":null,"altitude_moyenne":null,"referentiel_de_l_altitude_moyenne":null,"mode_d_obtention_de_l_altitude_moy":null,"precision_de_l_altitude_moyenne":null,"hauteur_d_eau_maximale":null,"mode_d_obtention_de_la_hauteur":null,"commentaire_sur_l_objet_hydro":null}},{"type":"Feature","id":"plan_d_eau.9718","geometry":{"type":"MultiPolygon","coordinates":[[[[3.82988724,48.51556084],[3.82935012,48.51516156],[3.82914076,48.51493811],[3.82909852,48.51483585],[3.82912864,48.5146854],[3.82918759,48.51455994],[3.82947888,48.51439867],[3.82997277,48.51411994],[3.83023471,48.51398766],[3.8303851,48.51399291],[3.8305089,48.51402983],[3.83057459,48.51407345],[3.830594,48.5141021],[3.8305639,48.51416799],[3.83053601,48.51420237],[3.83052037,48.51424116],[3.8305224,48.51428343],[3.83056241,48.51433083],[3.83060587,48.51433862],[3.83065465,48.51434098],[3.83070493,48.51435232],[3.83075414,48.51438167],[3.83080814,48.51437139],[3.8308922,48.51429254],[3.83092968,48.51426529],[3.83100517,48.51424407],[3.83109855,48.51424072],[3.83118425,48.51426531],[3.83128907,48.51430056],[3.83159,48.51449187],[3.83165865,48.51455167],[3.83168907,48.51459194],[3.83169258,48.51464229],[3.83168792,48.51469001],[3.83165222,48.51474424],[3.8316136,48.51478499],[3.83155619,48.51483667],[3.83150655,48.51486581],[3.83145425,48.51489766],[3.83143213,48.51495449],[3.83139719,48.51505639],[3.83137281,48.51514203],[3.83123989,48.51529859],[3.83113414,48.51546127],[3.83101969,48.51558802],[3.83091108,48.51574081],[3.83079509,48.51585588],[3.83067487,48.51587471],[3.83050291,48.51587501],[3.83037804,48.51585699],[3.83018737,48.51578725],[3.82997105,48.51563763],[3.82988724,48.51556084]]]]},"geometry_name":"geometrie","properties":{"cleabs":"PLANDEAU0000002000761973","code_hydrographique":"03P0000002000761973","nature":"Retenue","toponyme":null,"statut_du_toponyme":null,"importance":"3","date_creation":"2017-01-24T15:06:18.918Z","date_modification":"2021-09-11T05:29:49.269Z","date_d_apparition":null,"date_de_confirmation":null,"sources":null,"identifiants_sources":null,"statut":"Validé","influence_de_la_maree":null,"caractere_permanent":null,"altitude_moyenne":null,"referentiel_de_l_altitude_moyenne":null,"mode_d_obtention_de_l_altitude_moy":null,"precision_de_l_altitude_moyenne":null,"hauteur_d_eau_maximale":null,"mode_d_obtention_de_la_hauteur":null,"commentaire_sur_l_objet_hydro":null}},{"type":"Feature","id":"plan_d_eau.11722","geometry":{"type":"MultiPolygon","coordinates":[[[[3.75952624,48.52914775],[3.75897898,48.52933026],[3.75878129,48.52942778],[3.75869593,48.52942563],[3.75864208,48.52944846],[3.75856989,48.5295146],[3.75853158,48.52958141],[3.75851606,48.52963189],[3.75858926,48.52972948],[3.75935742,48.53086528],[3.75942997,48.5309179],[3.75952342,48.5309173],[3.75975791,48.53083484],[3.76029206,48.53068119],[3.76045791,48.53062975],[3.76059995,48.53052358],[3.76063383,48.53043161],[3.7605951,48.53037608],[3.76054437,48.53033412],[3.76049408,48.53032185],[3.76043992,48.53032309],[3.76034159,48.53036061],[3.76027134,48.53037365],[3.76018184,48.53036613],[3.7601068,48.53032882],[3.76005681,48.53024368],[3.76004468,48.5301547],[3.76006845,48.53011226],[3.76014212,48.53005512],[3.76022861,48.53004197],[3.76030443,48.53003968],[3.7603752,48.53006352],[3.76047674,48.53015373],[3.76056129,48.53019277],[3.76073832,48.53025821],[3.7608248,48.53033773],[3.76092157,48.53037939],[3.76098672,48.53038887],[3.76102937,48.53043447],[3.76105857,48.53048646],[3.76106614,48.53054129],[3.76106523,48.53057188],[3.76100753,48.53060914],[3.76096722,48.53063189],[3.76083457,48.53073079],[3.76076116,48.53080593],[3.76061584,48.53087253],[3.76046495,48.53092837],[3.76029241,48.53098615],[3.76015092,48.53103654],[3.76007107,48.53104064],[3.76000038,48.5310231],[3.75991365,48.53102006],[3.75976748,48.53102819],[3.75969172,48.53103407],[3.75967707,48.53105126],[3.75968725,48.53109977],[3.75973984,48.5311768],[3.75976765,48.531227],[3.75978629,48.53129795],[3.75984323,48.53139475],[3.75989003,48.53144663],[3.75992847,48.53148237],[3.7599829,48.53149911],[3.76007219,48.53149224],[3.76015024,48.53145666],[3.760523,48.53128875],[3.76073675,48.53117763],[3.76090351,48.53109469],[3.76104871,48.53102],[3.76107493,48.53096045],[3.76110253,48.5309018],[3.76118843,48.53084818],[3.76129518,48.5308304],[3.76139824,48.53083874],[3.76147146,48.53084366],[3.76155063,48.53079278],[3.76158488,48.53072599],[3.76159212,48.53066477],[3.76151648,48.53058609],[3.76141098,48.5305031],[3.76135205,48.5304558],[3.7613404,48.5304001],[3.76141098,48.53031688],[3.7615516,48.53020623],[3.7616187,48.53016351],[3.76171314,48.53013772],[3.76183327,48.53010906],[3.76189545,48.53010057],[3.7619415,48.53010027],[3.76198381,48.53012249],[3.76200743,48.53016372],[3.76200139,48.53021414],[3.76201965,48.530259],[3.76205106,48.53027679],[3.7621284,48.53028619],[3.7622288,48.53029725],[3.76226148,48.53030963],[3.76232652,48.53031101],[3.76243204,48.53030224],[3.76253735,48.53027907],[3.76262759,48.53024431],[3.76276909,48.53019482],[3.76283074,48.53014945],[3.7628613,48.53010877],[3.76287251,48.53004122],[3.76285841,48.53000353],[3.76280485,48.5299526],[3.76276053,48.52988541],[3.76273111,48.52981813],[3.76273704,48.52976052],[3.7627703,48.52971892],[3.76278871,48.52968102],[3.76277856,48.5296352],[3.76274938,48.52958411],[3.76269109,48.52948823],[3.76261195,48.52935469],[3.76254951,48.52925254],[3.76246506,48.52912623],[3.76236729,48.52901621],[3.76221791,48.52889572],[3.76215162,48.52880798],[3.76212186,48.52871731],[3.7621054,48.52870302],[3.76205515,48.52869345],[3.76199836,48.52870011],[3.76196747,48.5287183],[3.76194106,48.52876525],[3.76193233,48.52881658],[3.76192273,48.52890211],[3.76190074,48.52897332],[3.7618447,48.52903125],[3.76176678,48.52907493],[3.76168195,48.52910966],[3.76159847,48.52914348],[3.76142344,48.52921567],[3.76130913,48.52927218],[3.76128788,48.52930111],[3.7612683,48.52935161],[3.76123342,48.52937522],[3.76117639,48.52936479],[3.76105587,48.5292738],[3.76098357,48.52923828],[3.76093478,48.5292359],[3.76087266,48.52924889],[3.76083201,48.52924735],[3.76080331,48.52922954],[3.76076213,48.52919202],[3.76068287,48.52914395],[3.7605764,48.52908705],[3.76047958,48.52904179],[3.76029888,48.52900337],[3.76018088,48.52899153],[3.75996451,48.5290154],[3.75952624,48.52914775]],[[3.76163371,48.52979818],[3.7615866,48.52981827],[3.76152971,48.52981863],[3.76148334,48.52979644],[3.76145692,48.52974893],[3.76146593,48.52971649],[3.76152511,48.52968822],[3.76158194,48.52968426],[3.76161603,48.52970023],[3.76164757,48.52972702],[3.76165083,48.52976478],[3.76163371,48.52979818]]]]},"geometry_name":"geometrie","properties":{"cleabs":"PLANDEAU0000002000762050","code_hydrographique":"03P0000002000762050","nature":"Plan d'eau de gravière","toponyme":null,"statut_du_toponyme":null,"importance":"3","date_creation":"2017-01-24T15:06:18.918Z","date_modification":"2021-09-11T05:29:49.269Z","date_d_apparition":null,"date_de_confirmation":null,"sources":null,"identifiants_sources":null,"statut":"Validé","influence_de_la_maree":null,"caractere_permanent":null,"altitude_moyenne":null,"referentiel_de_l_altitude_moyenne":null,"mode_d_obtention_de_l_altitude_moy":null,"precision_de_l_altitude_moyenne":null,"hauteur_d_eau_maximale":null,"mode_d_obtention_de_la_hauteur":null,"commentaire_sur_l_objet_hydro":null}},{"type":"Feature","id":"plan_d_eau.34211","geometry":{"type":"MultiPolygon","coordinates":[[[[3.75703102,48.53071909],[3.75703963,48.53065876],[3.75711355,48.53061871],[3.75815809,48.5302603],[3.75827779,48.53020196],[3.75832333,48.53016659],[3.75834333,48.53014487],[3.75838644,48.5301284],[3.75843108,48.53012452],[3.75848041,48.53016379],[3.7586272,48.53038595],[3.7587833,48.53059637],[3.75878358,48.53061616],[3.75877572,48.5306342],[3.75872313,48.53065073],[3.75868956,48.53067073],[3.75868453,48.53069775],[3.75871067,48.53072547],[3.75873808,48.53074779],[3.75877337,48.53075296],[3.75882086,48.53075896],[3.75886298,48.53076768],[3.7589613,48.53091639],[3.75893718,48.53093454],[3.7588737,48.53094664],[3.75881323,48.53098031],[3.75879956,48.53106496],[3.75886466,48.5311644],[3.75885451,48.53121215],[3.75882711,48.53128429],[3.75868344,48.53137157],[3.75868258,48.53140576],[3.75869545,48.53145246],[3.75872972,48.53148103],[3.75874501,48.53150792],[3.75874529,48.53152681],[3.75870774,48.53155314],[3.75857048,48.53161518],[3.75853756,48.53168017],[3.75843108,48.53190395],[3.75838552,48.53193843],[3.7582763,48.53197241],[3.75824508,48.53196811],[3.75816561,48.53190474],[3.75795192,48.53173968],[3.75760419,48.53139105],[3.75703975,48.53076042],[3.75703102,48.53071909]],[[3.75800142,48.53113482],[3.75800461,48.53116809],[3.75817104,48.53134335],[3.75820229,48.53135035],[3.75823473,48.53134564],[3.75827498,48.5313193],[3.75830537,48.53126603],[3.758317,48.53122727],[3.75827257,48.53115199],[3.75823682,48.53111533],[3.75822038,48.53110284],[3.75815914,48.53108254],[3.75810765,48.53108107],[3.75803342,48.53109953],[3.75801332,48.53111496],[3.75800142,48.53113482]]]]},"geometry_name":"geometrie","properties":{"cleabs":"PLANDEAU0000002000762051","code_hydrographique":"03P0000002000762051","nature":"Plan d'eau de gravière","toponyme":null,"statut_du_toponyme":null,"importance":"3","date_creation":"2017-01-24T15:06:18.918Z","date_modification":"2025-11-27T19:08:51.720Z","date_d_apparition":null,"date_de_confirmation":null,"sources":null,"identifiants_sources":null,"statut":"Validé","influence_de_la_maree":null,"caractere_permanent":null,"altitude_moyenne":null,"referentiel_de_l_altitude_moyenne":null,"mode_d_obtention_de_l_altitude_moy":null,"precision_de_l_altitude_moyenne":null,"hauteur_d_eau_maximale":null,"mode_d_obtention_de_la_hauteur":null,"commentaire_sur_l_objet_hydro":null}},{"type":"Feature","id":"plan_d_eau.17916","geometry":{"type":"MultiPolygon","coordinates":[[[[3.75147474,48.52947509],[3.75139113,48.52950081],[3.75043492,48.52988109],[3.75025858,48.52995777],[3.75012966,48.53003505],[3.75012959,48.53012501],[3.75023213,48.53019184],[3.7503412,48.53024153],[3.75039457,48.53027987],[3.75034411,48.53035036],[3.75014398,48.53056303],[3.75007876,48.53064351],[3.75007651,48.53077037],[3.75004432,48.53088662],[3.74982645,48.53109041],[3.74974107,48.53108735],[3.74972633,48.53100378],[3.74972732,48.53088322],[3.74964823,48.53084594],[3.74952121,48.53086743],[3.74940708,48.53093742],[3.74920892,48.5310988],[3.74920764,48.53119866],[3.74926553,48.53126847],[3.74929536,48.53136544],[3.74931905,48.53141207],[3.74930605,48.53144993],[3.74934114,48.53153608],[3.74944702,48.5315525],[3.7496177,48.53155322],[3.74982048,48.53152586],[3.75004582,48.53146506],[3.75024113,48.53138916],[3.75034101,48.53126978],[3.75038394,48.53114626],[3.75052503,48.53106711],[3.75067397,48.53096901],[3.75078999,48.53084143],[3.75090031,48.530695],[3.75114847,48.53043164],[3.75167222,48.53011797],[3.75183157,48.52999011],[3.75195849,48.52986786],[3.75207981,48.52973305],[3.75218074,48.52959298],[3.75215901,48.52949416],[3.7518826,48.52948691],[3.75177643,48.52954516],[3.75166508,48.52961963],[3.751535,48.52961595],[3.7515055,48.52954237],[3.75150848,48.52946678],[3.75147474,48.52947509]]]]},"geometry_name":"geometrie","properties":{"cleabs":"PLANDEAU0000002000762052","code_hydrographique":"03P0000002000762052","nature":"Plan d'eau de gravière","toponyme":null,"statut_du_toponyme":null,"importance":"3","date_creation":"2017-01-24T15:06:18.918Z","date_modification":"2021-09-11T05:29:49.269Z","date_d_apparition":null,"date_de_confirmation":null,"sources":null,"identifiants_sources":null,"statut":"Validé","influence_de_la_maree":null,"caractere_permanent":null,"altitude_moyenne":null,"referentiel_de_l_altitude_moyenne":null,"mode_d_obtention_de_l_altitude_moy":null,"precision_de_l_altitude_moyenne":null,"hauteur_d_eau_maximale":null,"mode_d_obtention_de_la_hauteur":null,"commentaire_sur_l_objet_hydro":null}}]}