{"type":"FeatureCollection","metadata":{"source":"BD TOPO cimetière","typename":"BDTOPO_V3:cimetiere","service":"https://data.geopf.fr/wfs/ows","request":"GetFeature BDTOPO_V3:cimetiere BBOX 755390,6819514,761486,6826372 EPSG:2154 (emprise du terrain V1.7)","retrievedAt":"2026-09-25T03:50:18.190Z","license":"Licence Ouverte Etalab 2.0 — © IGN / ASP","crs":"CRS84"},"features":[{"type":"Feature","id":"cimetiere.6614","geometry":{"type":"MultiPolygon","coordinates":[[[[3.78437654,48.51196734,77.4],[3.78544191,48.51204307,78.7],[3.78538875,48.51229082,77.9],[3.78537483,48.51235568,79],[3.78548456,48.51235946,78.8],[3.78558614,48.51236148,78.8],[3.78546634,48.51267984,77.7],[3.78538818,48.51288548,77.8],[3.78422241,48.51279781,77.6],[3.78427519,48.51243402,77.5],[3.78437654,48.51196734,77.4]]]]},"geometry_name":"geometrie","properties":{"cleabs":"CIMETIER0000000009336542","nature":"Civil","nature_detaillee":null,"toponyme":null,"statut_du_toponyme":null,"importance":"5","etat_de_l_objet":"En service","date_creation":"2006-08-01T10:22:14.818Z","date_modification":null,"date_d_apparition":null,"date_de_confirmation":null,"sources":null,"identifiants_sources":null,"methode_d_acquisition_planimetrique":"Photogrammétrie","precision_planimetrique":2.5,"methode_d_acquisition_altimetrique":"Photogrammétrie","precision_altimetrique":1.5}},{"type":"Feature","id":"cimetiere.44541","geometry":{"type":"MultiPolygon","coordinates":[[[[3.83064292,48.53344009,79.2],[3.83074125,48.53366161,78.7],[3.83076975,48.53366501,78.7],[3.83078865,48.53366128,78.7],[3.83116614,48.53346252,78.5],[3.83119375,48.53341015,78.5],[3.83119424,48.53335527,78.5],[3.83118829,48.53332203,78.3],[3.83119087,48.53331391,78.2],[3.8311624,48.53331231,78.2],[3.83111163,48.53327128,78.2],[3.83112771,48.53326038,78.2],[3.83112083,48.53325323,78.2],[3.83110204,48.53326415,78.2],[3.83104993,48.53322403,78.2],[3.83106872,48.53321311,78.2],[3.83109427,48.53320123,78.2],[3.83104605,48.53315029,78.2],[3.83094697,48.53305203,77.8],[3.83079781,48.53295681,77.8],[3.83061845,48.53300664,78.5],[3.83047792,48.53311378,78.5],[3.83064292,48.53344009,79.2]]]]},"geometry_name":"geometrie","properties":{"cleabs":"CIMETIER0000000065142628","nature":"Civil","nature_detaillee":null,"toponyme":null,"statut_du_toponyme":null,"importance":"5","etat_de_l_objet":"En service","date_creation":"2007-03-07T12:15:41.776Z","date_modification":"2021-05-12T12:18:49.525Z","date_d_apparition":null,"date_de_confirmation":null,"sources":null,"identifiants_sources":null,"methode_d_acquisition_planimetrique":"Photogrammétrie","precision_planimetrique":2.5,"methode_d_acquisition_altimetrique":"Photogrammétrie","precision_altimetrique":1.5}}]}