{"type":"FeatureCollection","metadata":{"source":"BD TOPO réservoir","typename":"BDTOPO_V3:reservoir","service":"https://data.geopf.fr/wfs/ows","request":"GetFeature BDTOPO_V3:reservoir BBOX 755390,6819514,761486,6826372 EPSG:2154 (emprise du terrain V1.7)","retrievedAt":"2026-09-25T03:50:18.382Z","license":"Licence Ouverte Etalab 2.0 — © IGN / ASP","crs":"CRS84"},"features":[{"type":"Feature","id":"reservoir.72344","geometry":{"type":"MultiPolygon","coordinates":[[[[3.80533358,48.51883617,77.2],[3.80526965,48.51881771,77.5],[3.80524371,48.51880439,77.5],[3.80523664,48.51878465,77.4],[3.80524312,48.51876571,77.5],[3.80526057,48.5187557,77.5],[3.80527678,48.51875289,77.5],[3.80530658,48.51875359,77.5],[3.80533648,48.51876058,77.5],[3.80536367,48.51876759,77.5],[3.8053814,48.51877557,77.5],[3.80540048,48.51878354,77.5],[3.80540743,48.51879518,77.5],[3.80540768,48.51881138,77.5],[3.80538771,48.518834,77.5],[3.8053607,48.51883868,77.5],[3.80533358,48.51883617,77.2]]]]},"geometry_name":"geometrie","properties":{"cleabs":"RESERVOI0000000009337591","nature":"Réservoir d'eau ou château d'eau au sol","etat_de_l_objet":"En service","date_creation":"2006-08-01T10:22:14.818Z","date_modification":"2022-08-03T13:45:26.507Z","date_d_apparition":null,"date_de_confirmation":null,"sources":null,"identifiants_sources":"","methode_d_acquisition_planimetrique":"Photogrammétrie","precision_planimetrique":2.5,"methode_d_acquisition_altimetrique":"Photogrammétrie","precision_altimetrique":1.5,"altitude_minimale_sol":76,"altitude_minimale_toit":null,"hauteur":1.5,"altitude_maximale_toit":78.2,"altitude_maximale_sol":76.6,"origine_du_batiment":"Imagerie aérienne","volume":null}},{"type":"Feature","id":"reservoir.84329","geometry":{"type":"MultiPolygon","coordinates":[[[[3.81522815,48.50155605,120.5],[3.81522302,48.50157497,120.5],[3.81521242,48.50158944,120.5],[3.81518819,48.5015986,120.5],[3.81516659,48.50160235,120.5],[3.8151422,48.50160072,120.5],[3.8151177,48.50159189,120.5],[3.81510396,48.50157939,120.5],[3.81509827,48.50156144,120.5],[3.81509802,48.50154524,120.5],[3.81511001,48.50153257,120.5],[3.81512879,48.50152164,120.5],[3.81515307,48.50151608,120.5],[3.81517746,48.50151771,120.5],[3.81520192,48.50152384,120.5],[3.81521838,48.50153722,120.5],[3.8152254,48.50155337,120.5],[3.81522815,48.50155605,120.5]]]]},"geometry_name":"geometrie","properties":{"cleabs":"RESERVOI0000000009337621","nature":"Château d'eau","etat_de_l_objet":"En service","date_creation":"2006-08-01T10:22:14.818Z","date_modification":"2024-03-20T09:50:06.897Z","date_d_apparition":null,"date_de_confirmation":null,"sources":null,"identifiants_sources":"","methode_d_acquisition_planimetrique":"BDTopo","precision_planimetrique":2.5,"methode_d_acquisition_altimetrique":"BDTopo","precision_altimetrique":1.5,"altitude_minimale_sol":null,"altitude_minimale_toit":null,"hauteur":null,"altitude_maximale_toit":null,"altitude_maximale_sol":null,"origine_du_batiment":"Imagerie aérienne","volume":null}},{"type":"Feature","id":"reservoir.13851","geometry":{"type":"MultiPolygon","coordinates":[[[[3.79602487,48.50366006,90.5],[3.79602232,48.50367087,90.5],[3.79601312,48.50368892,90.5],[3.79599439,48.50370344,90.5],[3.79597016,48.5037126,90.5],[3.79594046,48.5037182,90.5],[3.79591331,48.50371298,90.5],[3.79588882,48.50370505,90.5],[3.79586967,48.50369258,90.5],[3.79585587,48.50367468,90.5],[3.79585424,48.5036567,90.5],[3.79586209,48.50363865,90.5],[3.79587538,48.50362237,90.5],[3.79590229,48.5036114,90.5],[3.79592924,48.50360312,90.5],[3.79595634,48.50360474,90.5],[3.79598352,48.50361175,90.5],[3.79600266,48.50362422,90.5],[3.79601915,48.5036403,90.5],[3.79602487,48.50366006,90.5]]]]},"geometry_name":"geometrie","properties":{"cleabs":"RESERVOI0000000009337623","nature":"Réservoir industriel","etat_de_l_objet":"En service","date_creation":"2006-08-01T10:22:14.818Z","date_modification":"2019-07-03T06:36:32.482Z","date_d_apparition":null,"date_de_confirmation":null,"sources":null,"identifiants_sources":"","methode_d_acquisition_planimetrique":"BDTopo","precision_planimetrique":2.5,"methode_d_acquisition_altimetrique":"BDTopo","precision_altimetrique":1.5,"altitude_minimale_sol":81,"altitude_minimale_toit":null,"hauteur":9.5,"altitude_maximale_toit":null,"altitude_maximale_sol":null,"origine_du_batiment":"Imagerie aérienne","volume":null}},{"type":"Feature","id":"reservoir.13849","geometry":{"type":"MultiPolygon","coordinates":[[[[3.79620338,48.50364806,90.4],[3.79620084,48.50365888,90.4],[3.79619299,48.50367692,90.4],[3.7961756,48.50369053,90.4],[3.7961514,48.50370149,90.4],[3.79612167,48.50370529,90.4],[3.79609457,48.50370367,90.4],[3.79607007,48.50369484,90.4],[3.79604821,48.50368149,90.4],[3.79603578,48.50366538,90.4],[3.79603277,48.50364561,90.4],[3.79604062,48.50362756,90.4],[3.79605664,48.50361306,90.4],[3.7960781,48.50359942,90.4],[3.79610509,48.50359384,90.4],[3.79613487,48.50359364,90.4],[3.79615937,48.50360248,90.4],[3.79618389,48.50361221,90.4],[3.79619768,48.50362921,90.4],[3.79620338,48.50364806,90.4]]]]},"geometry_name":"geometrie","properties":{"cleabs":"RESERVOI0000000009337625","nature":"Réservoir industriel","etat_de_l_objet":"En service","date_creation":"2006-08-01T10:22:14.818Z","date_modification":"2019-07-03T06:36:32.482Z","date_d_apparition":null,"date_de_confirmation":null,"sources":null,"identifiants_sources":"","methode_d_acquisition_planimetrique":"BDTopo","precision_planimetrique":2.5,"methode_d_acquisition_altimetrique":"BDTopo","precision_altimetrique":1.5,"altitude_minimale_sol":81,"altitude_minimale_toit":null,"hauteur":9.4,"altitude_maximale_toit":null,"altitude_maximale_sol":null,"origine_du_batiment":"Imagerie aérienne","volume":null}},{"type":"Feature","id":"reservoir.13848","geometry":{"type":"MultiPolygon","coordinates":[[[[3.79587888,48.50358546,87.2],[3.79614518,48.50355939,87.1],[3.79616002,48.50355569,87.1],[3.79616256,48.50354488,87.1],[3.79616086,48.5035224,87.1],[3.79615635,48.50349274,87.1],[3.79613595,48.50348658,87.1],[3.79611563,48.50348582,87.1],[3.79586684,48.50350548,87.1],[3.7958534,48.50351186,87.1],[3.79584553,48.50352901,87.1],[3.79585155,48.50356855,87.1],[3.79585576,48.50357842,87.1],[3.79587888,48.50358546,87.2]]]]},"geometry_name":"geometrie","properties":{"cleabs":"RESERVOI0000000009337626","nature":"Réservoir industriel","etat_de_l_objet":"En service","date_creation":"2006-08-01T10:22:14.818Z","date_modification":"2019-07-03T06:36:32.482Z","date_d_apparition":null,"date_de_confirmation":null,"sources":null,"identifiants_sources":"","methode_d_acquisition_planimetrique":"Photogrammétrie","precision_planimetrique":2.5,"methode_d_acquisition_altimetrique":"Photogrammétrie","precision_altimetrique":1.5,"altitude_minimale_sol":81,"altitude_minimale_toit":null,"hauteur":6.2,"altitude_maximale_toit":null,"altitude_maximale_sol":null,"origine_du_batiment":"Imagerie aérienne","volume":null}},{"type":"Feature","id":"reservoir.75908","geometry":{"type":"MultiPolygon","coordinates":[[[[3.7587208,48.50689628,81],[3.75868842,48.50690458,81],[3.75868011,48.50689114,81],[3.7586693,48.50689301,81],[3.7586596,48.50687778,81],[3.75867172,48.5068732,81],[3.75866752,48.50686333,81],[3.75869722,48.50685775,81],[3.75871995,48.50683781,81],[3.75875512,48.50683579,81],[3.75877958,48.50684193,81],[3.75879058,48.50685355,81],[3.75879616,48.50686521,81],[3.75879364,48.50687782,81],[3.75878165,48.50689139,81],[3.75875335,48.50690057,81],[3.75873306,48.5069016,81],[3.7587208,48.50689628,81]]]]},"geometry_name":"geometrie","properties":{"cleabs":"RESERVOI0000000300132141","nature":"Réservoir industriel","etat_de_l_objet":"En service","date_creation":"2012-04-17T08:50:34.619Z","date_modification":"2022-10-07T11:00:14.015Z","date_d_apparition":null,"date_de_confirmation":null,"sources":null,"identifiants_sources":"","methode_d_acquisition_planimetrique":"BDParcellaire recalée","precision_planimetrique":3,"methode_d_acquisition_altimetrique":"Interpolation bâti BDTopo","precision_altimetrique":2.5,"altitude_minimale_sol":75,"altitude_minimale_toit":81,"hauteur":6,"altitude_maximale_toit":82.5,"altitude_maximale_sol":75,"origine_du_batiment":"Cadastre","volume":null}},{"type":"Feature","id":"reservoir.28051","geometry":{"type":"MultiPolygon","coordinates":[[[[3.75861977,48.50693201,81.9],[3.75858339,48.50694394,81.9],[3.75855621,48.50693692,81.9],[3.75853839,48.50692174,81.9],[3.7585408,48.50690103,81.9],[3.7585596,48.50689011,81.9],[3.75858519,48.50688095,81.9],[3.75861377,48.50689157,81.9],[3.75863302,48.50691213,81.9],[3.75861977,48.50693201,81.9]]]]},"geometry_name":"geometrie","properties":{"cleabs":"RESERVOI0000000300132142","nature":"Réservoir industriel","etat_de_l_objet":"En service","date_creation":"2012-04-17T08:50:34.619Z","date_modification":"2022-10-07T11:00:14.015Z","date_d_apparition":null,"date_de_confirmation":null,"sources":null,"identifiants_sources":"","methode_d_acquisition_planimetrique":"BDParcellaire recalée","precision_planimetrique":3,"methode_d_acquisition_altimetrique":"Interpolation bâti BDTopo","precision_altimetrique":2.5,"altitude_minimale_sol":75,"altitude_minimale_toit":81.9,"hauteur":6.9,"altitude_maximale_toit":82.4,"altitude_maximale_sol":75,"origine_du_batiment":"Cadastre","volume":null}},{"type":"Feature","id":"reservoir.28513","geometry":{"type":"MultiPolygon","coordinates":[[[[3.79631339,48.50295731,89.5],[3.79629999,48.50296639,89.5],[3.79627568,48.50297015,89.5],[3.79625529,48.50296489,89.5],[3.79624022,48.5029533,89.5],[3.7962319,48.50293986,89.5],[3.79626135,48.50291807,89.5],[3.79628027,48.50291614,89.5],[3.7963006,48.50291781,89.5],[3.79631707,48.50293209,89.5],[3.79632267,48.50294465,89.5],[3.79631339,48.50295731,89.5]]]]},"geometry_name":"geometrie","properties":{"cleabs":"RESERVOI0000000301149106","nature":"Réservoir industriel","etat_de_l_objet":"En service","date_creation":"2012-05-09T14:03:12.383Z","date_modification":"2019-07-03T06:36:32.482Z","date_d_apparition":null,"date_de_confirmation":null,"sources":null,"identifiants_sources":"","methode_d_acquisition_planimetrique":"BDParcellaire recalée","precision_planimetrique":3,"methode_d_acquisition_altimetrique":"Interpolation bâti BDTopo","precision_altimetrique":2.5,"altitude_minimale_sol":81,"altitude_minimale_toit":89.5,"hauteur":8.5,"altitude_maximale_toit":null,"altitude_maximale_sol":null,"origine_du_batiment":"Cadastre","volume":null}},{"type":"Feature","id":"reservoir.28514","geometry":{"type":"MultiPolygon","coordinates":[[[[3.79626985,48.50267511,92.7],[3.79623735,48.50267443,92.7],[3.79620353,48.50267646,92.7],[3.79616846,48.50268479,92.7],[3.79614027,48.50270027,92.7],[3.79612156,48.50271659,92.7],[3.79610827,48.50273287,92.7],[3.7961032,48.5027554,92.7],[3.79610219,48.50277789,92.7],[3.79611064,48.50279943,92.7],[3.79612991,48.50282089,92.7],[3.79615451,48.50283602,92.7],[3.79618584,48.50284841,92.7],[3.79622382,48.50285355,92.7],[3.796259,48.50285241,92.7],[3.79629408,48.50284498,92.7],[3.79632637,48.50283127,92.7],[3.79635179,48.50281131,92.7],[3.79636772,48.50279051,92.7],[3.79637142,48.50276709,92.7],[3.79636692,48.50273834,92.7],[3.79635303,48.50271504,92.7],[3.7963311,48.50269719,92.7],[3.79629976,48.50268391,92.7],[3.79626985,48.50267511,92.7]]]]},"geometry_name":"geometrie","properties":{"cleabs":"RESERVOI0000000301149107","nature":"Réservoir industriel","etat_de_l_objet":"En service","date_creation":"2012-05-09T14:03:12.383Z","date_modification":"2022-10-07T11:00:28.397Z","date_d_apparition":null,"date_de_confirmation":null,"sources":null,"identifiants_sources":"","methode_d_acquisition_planimetrique":"BDParcellaire recalée","precision_planimetrique":3,"methode_d_acquisition_altimetrique":"Corrélation","precision_altimetrique":1,"altitude_minimale_sol":78.9,"altitude_minimale_toit":92.7,"hauteur":13.8,"altitude_maximale_toit":93.9,"altitude_maximale_sol":79.7,"origine_du_batiment":"Cadastre","volume":null}},{"type":"Feature","id":"reservoir.28506","geometry":{"type":"MultiPolygon","coordinates":[[[[3.79631707,48.50293209,83.8],[3.79632267,48.50294465,83.8],[3.79633369,48.50295717,83.8],[3.79635136,48.50296155,83.8],[3.79637437,48.5029614,83.8],[3.79639454,48.50295226,83.8],[3.7964065,48.50293779,83.8],[3.79640635,48.50292789,83.8],[3.79639261,48.50291449,83.8],[3.79637897,48.50290739,83.8],[3.79636001,48.50290751,83.8],[3.79634112,48.50291124,83.8],[3.79632502,48.50292124,83.8],[3.79631707,48.50293209,83.8]]]]},"geometry_name":"geometrie","properties":{"cleabs":"RESERVOI0000000301149108","nature":"Réservoir industriel","etat_de_l_objet":"En service","date_creation":"2012-05-09T14:03:12.383Z","date_modification":"2022-10-07T11:00:28.397Z","date_d_apparition":null,"date_de_confirmation":null,"sources":null,"identifiants_sources":"","methode_d_acquisition_planimetrique":"BDParcellaire recalée","precision_planimetrique":3,"methode_d_acquisition_altimetrique":"Corrélation","precision_altimetrique":1,"altitude_minimale_sol":78.7,"altitude_minimale_toit":83.8,"hauteur":5,"altitude_maximale_toit":88,"altitude_maximale_sol":78.9,"origine_du_batiment":"Cadastre","volume":null}},{"type":"Feature","id":"reservoir.84007","geometry":{"type":"MultiPolygon","coordinates":[[[[3.7962319,48.50293986,84.2],[3.79622942,48.50295517,84.2],[3.79622146,48.50296602,84.2],[3.79620262,48.50297334,84.2],[3.79617692,48.50297441,84.2],[3.79616324,48.50296551,84.2],[3.79615222,48.50295299,84.2],[3.79615199,48.5029377,84.2],[3.79616535,48.50292591,84.2],[3.7961856,48.50292218,84.2],[3.79620454,48.50292115,84.2],[3.79621952,48.50292735,84.2],[3.7962319,48.50293986,84.2]]]]},"geometry_name":"geometrie","properties":{"cleabs":"RESERVOI0000000301149109","nature":"Réservoir industriel","etat_de_l_objet":"En service","date_creation":"2012-05-09T14:03:12.383Z","date_modification":"2024-03-13T08:49:15.214Z","date_d_apparition":null,"date_de_confirmation":null,"sources":null,"identifiants_sources":"","methode_d_acquisition_planimetrique":"BDParcellaire recalée","precision_planimetrique":3,"methode_d_acquisition_altimetrique":"Corrélation","precision_altimetrique":1,"altitude_minimale_sol":78.7,"altitude_minimale_toit":84.2,"hauteur":5.4,"altitude_maximale_toit":86.8,"altitude_maximale_sol":79,"origine_du_batiment":"Cadastre","volume":null}},{"type":"Feature","id":"reservoir.28499","geometry":{"type":"MultiPolygon","coordinates":[[[[3.78746774,48.50448176,104.6],[3.78746657,48.50449437,104.6],[3.78745591,48.50450523,104.6],[3.78743709,48.50451435,104.6],[3.78741681,48.50451629,104.6],[3.78739509,48.50451193,104.6],[3.78737455,48.50449677,104.6],[3.78737301,48.50448419,104.6],[3.78737685,48.50446977,104.6],[3.78738887,48.5044589,104.6],[3.78740907,48.50445156,104.6],[3.78742938,48.50445143,104.6],[3.78745113,48.50445758,104.6],[3.78746347,48.5044683,104.6],[3.78746774,48.50448176,104.6]]]]},"geometry_name":"geometrie","properties":{"cleabs":"RESERVOI0000000301149110","nature":"Château d'eau","etat_de_l_objet":"En service","date_creation":"2012-05-09T14:03:12.383Z","date_modification":"2019-07-03T06:36:32.482Z","date_d_apparition":null,"date_de_confirmation":null,"sources":null,"identifiants_sources":"","methode_d_acquisition_planimetrique":"BDParcellaire recalée","precision_planimetrique":3,"methode_d_acquisition_altimetrique":"Interpolation bâti BDTopo","precision_altimetrique":2.5,"altitude_minimale_sol":77,"altitude_minimale_toit":104.6,"hauteur":27.6,"altitude_maximale_toit":null,"altitude_maximale_sol":null,"origine_du_batiment":"Cadastre","volume":null}},{"type":"Feature","id":"reservoir.28519","geometry":{"type":"MultiPolygon","coordinates":[[[[3.79597276,48.50272388,92.5],[3.79600693,48.50274525,92.5],[3.7960248,48.50276312,92.5],[3.79603598,48.50278643,92.5],[3.79603769,48.50280981,92.5],[3.79602853,48.50283057,92.5],[3.79601397,48.50285226,92.5],[3.79599393,48.50287038,92.5],[3.79599244,48.5028614,92.5],[3.79597276,48.50272388,92.5]]]]},"geometry_name":"geometrie","properties":{"cleabs":"RESERVOI0000000301149111","nature":"Réservoir industriel","etat_de_l_objet":"En service","date_creation":"2012-05-09T14:03:12.383Z","date_modification":"2019-07-03T06:36:32.482Z","date_d_apparition":null,"date_de_confirmation":null,"sources":null,"identifiants_sources":"","methode_d_acquisition_planimetrique":"BDParcellaire recalée","precision_planimetrique":3,"methode_d_acquisition_altimetrique":"Interpolation bâti BDTopo","precision_altimetrique":2.5,"altitude_minimale_sol":81,"altitude_minimale_toit":92.5,"hauteur":11.5,"altitude_maximale_toit":null,"altitude_maximale_sol":null,"origine_du_batiment":"Cadastre","volume":null}},{"type":"Feature","id":"reservoir.28520","geometry":{"type":"MultiPolygon","coordinates":[[[[3.79597276,48.50272388,92.5],[3.79599244,48.5028614,92.5],[3.79599393,48.50287038,92.5],[3.79595758,48.50288322,92.5],[3.79592655,48.50289063,92.5],[3.79589005,48.50289357,92.5],[3.79585752,48.50289109,92.5],[3.7958303,48.50288137,92.5],[3.7958044,48.50286985,92.5],[3.79578381,48.5028511,92.5],[3.7957686,48.50283051,92.5],[3.79576286,48.50280896,92.5],[3.79576523,48.50278645,92.5],[3.79577568,48.50276119,92.5],[3.79579301,48.50274398,92.5],[3.79581716,48.50272942,92.5],[3.79584138,48.50271937,92.5],[3.79587243,48.50271376,92.5],[3.79590623,48.50271084,92.5],[3.79594284,48.50271509,92.5],[3.79597276,48.50272388,92.5]]]]},"geometry_name":"geometrie","properties":{"cleabs":"RESERVOI0000000301149112","nature":"Réservoir industriel","etat_de_l_objet":"En service","date_creation":"2012-05-09T14:03:12.383Z","date_modification":"2019-07-03T06:36:32.482Z","date_d_apparition":null,"date_de_confirmation":null,"sources":null,"identifiants_sources":"","methode_d_acquisition_planimetrique":"BDParcellaire recalée","precision_planimetrique":3,"methode_d_acquisition_altimetrique":"Interpolation bâti BDTopo","precision_altimetrique":2.5,"altitude_minimale_sol":81,"altitude_minimale_toit":92.5,"hauteur":11.5,"altitude_maximale_toit":null,"altitude_maximale_sol":null,"origine_du_batiment":"Cadastre","volume":null}},{"type":"Feature","id":"reservoir.71226","geometry":{"type":"MultiPolygon","coordinates":[[[[3.79622848,48.5028931,-1000],[3.79623369,48.50287957,-1000],[3.7962511,48.50286686,-1000],[3.79627404,48.50286221,-1000],[3.79629577,48.50286656,-1000],[3.79631217,48.50287725,-1000],[3.79631504,48.50288802,-1000],[3.79631117,48.50290064,-1000],[3.79630048,48.50290971,-1000],[3.79628027,48.50291614,-1000],[3.79625587,48.50291361,-1000],[3.79623679,48.50290564,-1000],[3.79622848,48.5028931,-1000]]]]},"geometry_name":"geometrie","properties":{"cleabs":"RESERVOI0000000301149113","nature":"Réservoir industriel","etat_de_l_objet":"En service","date_creation":"2012-05-09T14:03:12.383Z","date_modification":"2022-07-18T10:02:56.845Z","date_d_apparition":null,"date_de_confirmation":null,"sources":null,"identifiants_sources":"","methode_d_acquisition_planimetrique":"BDParcellaire recalée","precision_planimetrique":3,"methode_d_acquisition_altimetrique":"Pas de Z","precision_altimetrique":9999,"altitude_minimale_sol":81,"altitude_minimale_toit":null,"hauteur":null,"altitude_maximale_toit":null,"altitude_maximale_sol":null,"origine_du_batiment":"Cadastre","volume":null}},{"type":"Feature","id":"reservoir.71227","geometry":{"type":"MultiPolygon","coordinates":[[[[3.79631504,48.50288802,-1000],[3.79632284,48.50286638,-1000],[3.79633895,48.50285728,-1000],[3.79635379,48.50285448,-1000],[3.79637682,48.50285522,-1000],[3.79639321,48.50286501,-1000],[3.79639882,48.50287757,-1000],[3.79639633,48.50289198,-1000],[3.7963816,48.50290287,-1000],[3.79636001,48.50290751,-1000],[3.79634374,48.50290582,-1000],[3.79632742,48.50290054,-1000],[3.79631504,48.50288802,-1000]]]]},"geometry_name":"geometrie","properties":{"cleabs":"RESERVOI0000000301149114","nature":"Réservoir industriel","etat_de_l_objet":"En service","date_creation":"2012-05-09T14:03:12.383Z","date_modification":"2022-07-18T10:02:56.845Z","date_d_apparition":null,"date_de_confirmation":null,"sources":null,"identifiants_sources":"","methode_d_acquisition_planimetrique":"BDParcellaire recalée","precision_planimetrique":3,"methode_d_acquisition_altimetrique":"Pas de Z","precision_altimetrique":9999,"altitude_minimale_sol":81,"altitude_minimale_toit":null,"hauteur":null,"altitude_maximale_toit":null,"altitude_maximale_sol":null,"origine_du_batiment":"Cadastre","volume":null}},{"type":"Feature","id":"reservoir.71228","geometry":{"type":"MultiPolygon","coordinates":[[[[3.79614058,48.50289909,-1000],[3.79614576,48.50288376,-1000],[3.79616322,48.50287465,-1000],[3.79618484,48.5028718,-1000],[3.79620383,48.50287437,-1000],[3.79621885,48.50288327,-1000],[3.79622848,48.5028931,-1000],[3.79622189,48.50290484,-1000],[3.7962112,48.50291391,-1000],[3.7961856,48.50292218,-1000],[3.79616255,48.50291963,-1000],[3.79614617,48.50291075,-1000],[3.79614058,48.50289909,-1000]]]]},"geometry_name":"geometrie","properties":{"cleabs":"RESERVOI0000000301149115","nature":"Réservoir industriel","etat_de_l_objet":"En service","date_creation":"2012-05-09T14:03:12.383Z","date_modification":"2022-07-18T10:02:56.845Z","date_d_apparition":null,"date_de_confirmation":null,"sources":null,"identifiants_sources":"","methode_d_acquisition_planimetrique":"BDParcellaire recalée","precision_planimetrique":3,"methode_d_acquisition_altimetrique":"Pas de Z","precision_altimetrique":9999,"altitude_minimale_sol":81,"altitude_minimale_toit":null,"hauteur":null,"altitude_maximale_toit":null,"altitude_maximale_sol":null,"origine_du_batiment":"Cadastre","volume":null}},{"type":"Feature","id":"reservoir.28523","geometry":{"type":"MultiPolygon","coordinates":[[[[3.80697456,48.51168739,102.3],[3.80699616,48.51168365,102.3],[3.80701657,48.5116898,102.3],[3.80702352,48.51170145,102.3],[3.80701966,48.51171497,102.3],[3.80700628,48.51172496,102.3],[3.80698874,48.51172958,102.3],[3.80696976,48.51172791,102.3],[3.80695881,48.51171988,102.3],[3.80695592,48.51170821,102.3],[3.80695979,48.51169559,102.3],[3.80697456,48.51168739,102.3]]]]},"geometry_name":"geometrie","properties":{"cleabs":"RESERVOI0000000301151974","nature":"Château d'eau","etat_de_l_objet":"En service","date_creation":"2012-05-09T14:05:07.777Z","date_modification":"2019-07-03T06:36:32.482Z","date_d_apparition":null,"date_de_confirmation":null,"sources":null,"identifiants_sources":"","methode_d_acquisition_planimetrique":"BDParcellaire recalée","precision_planimetrique":3,"methode_d_acquisition_altimetrique":"Interpolation bâti BDTopo","precision_altimetrique":2.5,"altitude_minimale_sol":77,"altitude_minimale_toit":102.3,"hauteur":25.3,"altitude_maximale_toit":null,"altitude_maximale_sol":null,"origine_du_batiment":"Cadastre","volume":null}},{"type":"Feature","id":"reservoir.1394","geometry":{"type":"MultiPolygon","coordinates":[[[[3.80181613,48.50178406,86.8],[3.80176743,48.50178619,86.8],[3.80175819,48.50171338,86.9],[3.80178518,48.5017078,87.2],[3.80178128,48.50162956,87.6],[3.80170944,48.50162374,85.9],[3.80170051,48.50157073,85.9],[3.80183838,48.5015572,87.6],[3.80187292,48.50178008,87.3],[3.80181613,48.50178406,86.8]]]]},"geometry_name":"geometrie","properties":{"cleabs":"RESERVOI0000000338825432","nature":"Réservoir industriel","etat_de_l_objet":"En service","date_creation":"2014-10-28T09:05:44.141Z","date_modification":"2022-10-07T11:00:45.312Z","date_d_apparition":null,"date_de_confirmation":null,"sources":null,"identifiants_sources":null,"methode_d_acquisition_planimetrique":"Photogrammétrie","precision_planimetrique":2.5,"methode_d_acquisition_altimetrique":"Photogrammétrie","precision_altimetrique":1.5,"altitude_minimale_sol":79.3,"altitude_minimale_toit":85.9,"hauteur":6.6,"altitude_maximale_toit":91.4,"altitude_maximale_sol":82.4,"origine_du_batiment":"Imagerie aérienne","volume":null}},{"type":"Feature","id":"reservoir.1395","geometry":{"type":"MultiPolygon","coordinates":[[[[3.80182499,48.50147812,87.8],[3.80168162,48.50148629,87.6],[3.80165018,48.50128948,87.1],[3.80179494,48.5012831,86.6],[3.80182499,48.50147812,87.8]]]]},"geometry_name":"geometrie","properties":{"cleabs":"RESERVOI0000000338825434","nature":"Réservoir industriel","etat_de_l_objet":"En service","date_creation":"2014-10-28T09:05:44.141Z","date_modification":"2022-10-07T11:00:45.312Z","date_d_apparition":null,"date_de_confirmation":null,"sources":null,"identifiants_sources":null,"methode_d_acquisition_planimetrique":"Photogrammétrie","precision_planimetrique":2.5,"methode_d_acquisition_altimetrique":"Photogrammétrie","precision_altimetrique":1.5,"altitude_minimale_sol":79.8,"altitude_minimale_toit":86.6,"hauteur":6.8,"altitude_maximale_toit":87.9,"altitude_maximale_sol":82.3,"origine_du_batiment":"Imagerie aérienne","volume":null}},{"type":"Feature","id":"reservoir.89300","geometry":{"type":"MultiPolygon","coordinates":[[[[3.80567682,48.48643163,-1000],[3.8056742,48.48643705,-1000],[3.80566887,48.48644248,-1000],[3.8056608,48.48644613,-1000],[3.80565271,48.48644799,-1000],[3.80564456,48.48644624,-1000],[3.80563639,48.4864427,-1000],[3.80563089,48.48643734,-1000],[3.80562811,48.48643196,-1000],[3.80563073,48.48642655,-1000],[3.80563606,48.48642111,-1000],[3.80564412,48.48641746,-1000],[3.80565221,48.4864156,-1000],[3.80566036,48.48641735,-1000],[3.80566854,48.48642089,-1000],[3.80567403,48.48642625,-1000],[3.80567682,48.48643163,-1000]]]]},"geometry_name":"geometrie","properties":{"cleabs":"RESERVOI0000002479317669","nature":"Réservoir industriel","etat_de_l_objet":"En service","date_creation":"2024-09-27T10:08:30.895Z","date_modification":null,"date_d_apparition":null,"date_de_confirmation":null,"sources":null,"identifiants_sources":null,"methode_d_acquisition_planimetrique":"Orthophotographie","precision_planimetrique":3,"methode_d_acquisition_altimetrique":"Pas de Z","precision_altimetrique":9999,"altitude_minimale_sol":null,"altitude_minimale_toit":null,"hauteur":null,"altitude_maximale_toit":null,"altitude_maximale_sol":null,"origine_du_batiment":"Imagerie aérienne","volume":null}},{"type":"Feature","id":"reservoir.89301","geometry":{"type":"MultiPolygon","coordinates":[[[[3.80563662,48.48645799,-1000],[3.805634,48.48646341,-1000],[3.80562867,48.48646884,-1000],[3.80562061,48.4864725,-1000],[3.80561252,48.48647435,-1000],[3.80560437,48.48647261,-1000],[3.80559619,48.48646906,-1000],[3.8055907,48.4864637,-1000],[3.80558791,48.48645832,-1000],[3.80559053,48.48645291,-1000],[3.80559586,48.48644747,-1000],[3.80560393,48.48644382,-1000],[3.80561202,48.48644197,-1000],[3.80562017,48.48644371,-1000],[3.80562834,48.48644725,-1000],[3.80563384,48.48645261,-1000],[3.80563662,48.48645799,-1000]]]]},"geometry_name":"geometrie","properties":{"cleabs":"RESERVOI0000002479317670","nature":"Réservoir industriel","etat_de_l_objet":"En service","date_creation":"2024-09-27T10:08:30.895Z","date_modification":null,"date_d_apparition":null,"date_de_confirmation":null,"sources":null,"identifiants_sources":null,"methode_d_acquisition_planimetrique":"Orthophotographie","precision_planimetrique":3,"methode_d_acquisition_altimetrique":"Pas de Z","precision_altimetrique":9999,"altitude_minimale_sol":null,"altitude_minimale_toit":null,"hauteur":null,"altitude_maximale_toit":null,"altitude_maximale_sol":null,"origine_du_batiment":"Imagerie aérienne","volume":null}}]}