{"type":"FeatureCollection","metadata":{"source":"BD TOPO terrain de sport","typename":"BDTOPO_V3:terrain_de_sport","service":"https://data.geopf.fr/wfs/ows","request":"GetFeature BDTOPO_V3:terrain_de_sport BBOX 755390,6819514,761486,6826372 EPSG:2154 (emprise du terrain V1.7)","retrievedAt":"2026-09-25T03:50:18.031Z","license":"Licence Ouverte Etalab 2.0 — © IGN / ASP","crs":"CRS84"},"features":[{"type":"Feature","id":"terrain_de_sport.68340","geometry":{"type":"MultiPolygon","coordinates":[[[[3.78793553,48.50894803,77.8],[3.78842463,48.50896998,79.1],[3.7884509,48.50864594,78.6],[3.78796446,48.50862037,78.6],[3.78793553,48.50894803,77.8]]]]},"geometry_name":"geometrie","properties":{"cleabs":"TERRSPOR0000000009337023","nature":"Terrain de tennis","nature_detaillee":null,"etat_de_l_objet":"En service","date_creation":"2006-08-01T10:22:14.818Z","date_modification":"2024-06-11T08:06:45.497Z","date_d_apparition":null,"date_de_confirmation":"2024-04-25Z","sources":"MSS 2024","identifiants_sources":"MSS:I102200006","methode_d_acquisition_planimetrique":"BDTopo","precision_planimetrique":2.5,"methode_d_acquisition_altimetrique":"BDTopo","precision_altimetrique":1.5}},{"type":"Feature","id":"terrain_de_sport.140222","geometry":{"type":"MultiPolygon","coordinates":[[[[3.75847448,48.50624652,75.8],[3.75817912,48.50566905,75.3],[3.75947465,48.50538279,74.8],[3.75974968,48.50595769,74.6],[3.75847448,48.50624652,75.8]]]]},"geometry_name":"geometrie","properties":{"cleabs":"TERRSPOR0000000009337043","nature":"Grand terrain de sport","nature_detaillee":"Terrain de rugby","etat_de_l_objet":"En service","date_creation":"2006-08-01T10:22:14.818Z","date_modification":"2026-06-11T14:21:46.785Z","date_d_apparition":null,"date_de_confirmation":"2024-04-25Z","sources":"MSS 2024","identifiants_sources":"MSS:E001I103230010","methode_d_acquisition_planimetrique":"Photogrammétrie","precision_planimetrique":2.5,"methode_d_acquisition_altimetrique":"Photogrammétrie","precision_altimetrique":1.5}},{"type":"Feature","id":"terrain_de_sport.46314","geometry":{"type":"MultiPolygon","coordinates":[[[[3.8280687,48.53349043,78],[3.82786368,48.53320308,78],[3.82809397,48.53311781,78.2],[3.82830313,48.53341053,78.2],[3.8280687,48.53349043,78]]]]},"geometry_name":"geometrie","properties":{"cleabs":"TERRSPOR0000000065143604","nature":"Terrain de tennis","nature_detaillee":null,"etat_de_l_objet":"En service","date_creation":"2007-03-07T12:15:41.776Z","date_modification":null,"date_d_apparition":null,"date_de_confirmation":null,"sources":null,"identifiants_sources":null,"methode_d_acquisition_planimetrique":"Photogrammétrie","precision_planimetrique":2.5,"methode_d_acquisition_altimetrique":"Photogrammétrie","precision_altimetrique":1.5}},{"type":"Feature","id":"terrain_de_sport.124782","geometry":{"type":"MultiPolygon","coordinates":[[[[3.79098688,48.50524017,79.5],[3.7910785,48.50628853,79.5],[3.79208925,48.50625031,79.5],[3.79200574,48.5052019,79.5],[3.79098688,48.50524017,79.5]]]]},"geometry_name":"geometrie","properties":{"cleabs":"TERRSPOR0000000325186237","nature":"Grand terrain de sport","nature_detaillee":"Terrain de football","etat_de_l_objet":"En service","date_creation":"2013-08-28T08:05:01.721Z","date_modification":"2024-05-29T07:20:45.505Z","date_d_apparition":null,"date_de_confirmation":"2024-04-25Z","sources":"MSS 2024","identifiants_sources":"MSS:E001I102200003","methode_d_acquisition_planimetrique":"Photogrammétrie","precision_planimetrique":2.5,"methode_d_acquisition_altimetrique":"Photogrammétrie","precision_altimetrique":1.5}},{"type":"Feature","id":"terrain_de_sport.98099","geometry":{"type":"MultiPolygon","coordinates":[[[[3.78677541,48.50859947,-1000],[3.78676801,48.50837641,-1000],[3.7872229,48.50837519,-1000],[3.78722347,48.5085938,-1000],[3.78677541,48.50859947,-1000]]]]},"geometry_name":"geometrie","properties":{"cleabs":"TERRSPOR0000002330331384","nature":"Petit terrain multi-sports","nature_detaillee":"Terrain de basket-ball","etat_de_l_objet":"En service","date_creation":"2023-02-24T16:49:23.687Z","date_modification":null,"date_d_apparition":null,"date_de_confirmation":null,"sources":null,"identifiants_sources":null,"methode_d_acquisition_planimetrique":"Orthophotographie","precision_planimetrique":3,"methode_d_acquisition_altimetrique":"Pas de Z","precision_altimetrique":9999}},{"type":"Feature","id":"terrain_de_sport.80698","geometry":{"type":"MultiPolygon","coordinates":[[[[3.7766305,48.5025586,-1000],[3.77688789,48.50247955,-1000],[3.77711848,48.50278392,-1000],[3.77685961,48.50285489,-1000],[3.7766305,48.5025586,-1000]]]]},"geometry_name":"geometrie","properties":{"cleabs":"TERRSPOR0000002488738349","nature":"Grand terrain de sport","nature_detaillee":"Terrain de football","etat_de_l_objet":"En service","date_creation":"2025-02-28T14:05:12.030Z","date_modification":null,"date_d_apparition":null,"date_de_confirmation":null,"sources":null,"identifiants_sources":null,"methode_d_acquisition_planimetrique":"Orthophotographie","precision_planimetrique":3,"methode_d_acquisition_altimetrique":"Pas de Z","precision_altimetrique":9999}}]}