{"type":"FeatureCollection","metadata":{"source":"RPG 2024, nomenclature des cultures","typename":"RPG.2024:codes_cultures","service":"https://data.geopf.fr/wfs/ows","request":"GetFeature RPG.2024:codes_cultures","retrievedAt":"2026-09-25T03:50:15.341Z","license":"Licence Ouverte Etalab 2.0 — © IGN / ASP","crs":"CRS84"},"features":[{"type":"Feature","id":"codes_cultures.1","geometry":null,"properties":{"code":"ACP","libelle":"Autre culture pérenne"}},{"type":"Feature","id":"codes_cultures.2","geometry":null,"properties":{"code":"AGR","libelle":"Agrume"}},{"type":"Feature","id":"codes_cultures.3","geometry":null,"properties":{"code":"AIL","libelle":"Ail"}},{"type":"Feature","id":"codes_cultures.4","geometry":null,"properties":{"code":"ANA","libelle":"Ananas"}},{"type":"Feature","id":"codes_cultures.5","geometry":null,"properties":{"code":"ARA","libelle":"Arachide"}},{"type":"Feature","id":"codes_cultures.6","geometry":null,"properties":{"code":"ART","libelle":"Artichaut"}},{"type":"Feature","id":"codes_cultures.7","geometry":null,"properties":{"code":"AVH","libelle":"Avoine d'hiver"}},{"type":"Feature","id":"codes_cultures.8","geometry":null,"properties":{"code":"AVP","libelle":"Avoine de printemps"}},{"type":"Feature","id":"codes_cultures.9","geometry":null,"properties":{"code":"BCA","libelle":"Banane créole (fruit et légume) - autre"}},{"type":"Feature","id":"codes_cultures.10","geometry":null,"properties":{"code":"BDH","libelle":"Blé dur d'hiver"}},{"type":"Feature","id":"codes_cultures.11","geometry":null,"properties":{"code":"BDP","libelle":"Blé dur de printemps"}},{"type":"Feature","id":"codes_cultures.12","geometry":null,"properties":{"code":"BEF","libelle":"Banane export - fermage"}},{"type":"Feature","id":"codes_cultures.13","geometry":null,"properties":{"code":"BFS","libelle":"Bande admissible le long d'une forêt sans production"}},{"type":"Feature","id":"codes_cultures.14","geometry":null,"properties":{"code":"BOR","libelle":"Bordure de champ"}},{"type":"Feature","id":"codes_cultures.15","geometry":null,"properties":{"code":"BTA","libelle":"Bande tampon"}},{"type":"Feature","id":"codes_cultures.16","geometry":null,"properties":{"code":"BTH","libelle":"Blé tendre d'hiver"}},{"type":"Feature","id":"codes_cultures.17","geometry":null,"properties":{"code":"BTN","libelle":"Betterave non fourragère / Bette"}},{"type":"Feature","id":"codes_cultures.18","geometry":null,"properties":{"code":"BTP","libelle":"Blé tendre de printemps"}},{"type":"Feature","id":"codes_cultures.19","geometry":null,"properties":{"code":"CAC","libelle":"Café / Cacao"}},{"type":"Feature","id":"codes_cultures.20","geometry":null,"properties":{"code":"CAE","libelle":"Châtaigneraie entretenue par des porcins ou des petits ruminants"}},{"type":"Feature","id":"codes_cultures.21","geometry":null,"properties":{"code":"CAG","libelle":"Autre céréale d’un autre genre"}},{"type":"Feature","id":"codes_cultures.22","geometry":null,"properties":{"code":"CAR","libelle":"Carotte"}},{"type":"Feature","id":"codes_cultures.23","geometry":null,"properties":{"code":"CBT","libelle":"Cerise bigarreau pour transformation"}},{"type":"Feature","id":"codes_cultures.24","geometry":null,"properties":{"code":"CCN","libelle":"Concombre / Cornichon"}},{"type":"Feature","id":"codes_cultures.25","geometry":null,"properties":{"code":"CEE","libelle":"Chênaie entretenue par des porcins ou des petits ruminants"}},{"type":"Feature","id":"codes_cultures.26","geometry":null,"properties":{"code":"CEL","libelle":"Céleri"}},{"type":"Feature","id":"codes_cultures.27","geometry":null,"properties":{"code":"CHU","libelle":"Chou"}},{"type":"Feature","id":"codes_cultures.28","geometry":null,"properties":{"code":"CHV","libelle":"Chanvre"}},{"type":"Feature","id":"codes_cultures.29","geometry":null,"properties":{"code":"CID","libelle":"Cultures conduites en interrangs : 2 cultures représentant chacune plus de 25%"}},{"type":"Feature","id":"codes_cultures.30","geometry":null,"properties":{"code":"CIT","libelle":"Cultures conduites en interrangs : 3 cultures représentant chacune plus de 25%"}},{"type":"Feature","id":"codes_cultures.31","geometry":null,"properties":{"code":"CML","libelle":"Cameline"}},{"type":"Feature","id":"codes_cultures.32","geometry":null,"properties":{"code":"CPL","libelle":"Fourrage composé de céréales et/ou de protéagineux (en proportion < 50%) et/ou de légumineuses fourragères (en proportion < 50%)"}},{"type":"Feature","id":"codes_cultures.33","geometry":null,"properties":{"code":"CSA","libelle":"Canne à sucre - autre"}},{"type":"Feature","id":"codes_cultures.34","geometry":null,"properties":{"code":"CSE","libelle":"Chanvre sans étiquette conforme"}},{"type":"Feature","id":"codes_cultures.35","geometry":null,"properties":{"code":"CSS","libelle":"Culture sous serre hors sol"}},{"type":"Feature","id":"codes_cultures.36","geometry":null,"properties":{"code":"CTG","libelle":"Châtaigne"}},{"type":"Feature","id":"codes_cultures.37","geometry":null,"properties":{"code":"CZH","libelle":"Colza d'hiver"}},{"type":"Feature","id":"codes_cultures.38","geometry":null,"properties":{"code":"CZP","libelle":"Colza de printemps"}},{"type":"Feature","id":"codes_cultures.39","geometry":null,"properties":{"code":"EPE","libelle":"Epeautre"}},{"type":"Feature","id":"codes_cultures.40","geometry":null,"properties":{"code":"EPI","libelle":"Epinard"}},{"type":"Feature","id":"codes_cultures.41","geometry":null,"properties":{"code":"FEV","libelle":"Fève"}},{"type":"Feature","id":"codes_cultures.42","geometry":null,"properties":{"code":"FLA","libelle":"Autre légume ou fruit annuel"}},{"type":"Feature","id":"codes_cultures.43","geometry":null,"properties":{"code":"FLP","libelle":"Autre légume ou fruit pérenne"}},{"type":"Feature","id":"codes_cultures.44","geometry":null,"properties":{"code":"FNU","libelle":"Fenugrec"}},{"type":"Feature","id":"codes_cultures.45","geometry":null,"properties":{"code":"FRA","libelle":"Fraise"}},{"type":"Feature","id":"codes_cultures.46","geometry":null,"properties":{"code":"FVL","libelle":"Féverole semée avant le 31/05"}},{"type":"Feature","id":"codes_cultures.47","geometry":null,"properties":{"code":"GES","libelle":"Gesse"}},{"type":"Feature","id":"codes_cultures.48","geometry":null,"properties":{"code":"HBL","libelle":"Houblon"}},{"type":"Feature","id":"codes_cultures.49","geometry":null,"properties":{"code":"HPC","libelle":"Horticulture ornementale de plein champ"}},{"type":"Feature","id":"codes_cultures.50","geometry":null,"properties":{"code":"JNO","libelle":"Jachère noire"}},{"type":"Feature","id":"codes_cultures.51","geometry":null,"properties":{"code":"LAV","libelle":"Lavande / Lavandin"}},{"type":"Feature","id":"codes_cultures.52","geometry":null,"properties":{"code":"LBF","libelle":"Laitue / Batavia / Feuille de chêne"}},{"type":"Feature","id":"codes_cultures.53","geometry":null,"properties":{"code":"LDH","libelle":"Lupin doux d'hiver"}},{"type":"Feature","id":"codes_cultures.54","geometry":null,"properties":{"code":"LDP","libelle":"Lupin doux de printemps semé avant le 31/05"}},{"type":"Feature","id":"codes_cultures.55","geometry":null,"properties":{"code":"LEC","libelle":"Lentille cultivée (non fourragère)"}},{"type":"Feature","id":"codes_cultures.56","geometry":null,"properties":{"code":"LIF","libelle":"Lin fibres"}},{"type":"Feature","id":"codes_cultures.57","geometry":null,"properties":{"code":"LIH","libelle":"Lin non textile d'hiver"}},{"type":"Feature","id":"codes_cultures.58","geometry":null,"properties":{"code":"LIP","libelle":"Lin non textile de printemps"}},{"type":"Feature","id":"codes_cultures.59","geometry":null,"properties":{"code":"LOT","libelle":"Lotier"}},{"type":"Feature","id":"codes_cultures.60","geometry":null,"properties":{"code":"LUZ","libelle":"Autre luzerne"}},{"type":"Feature","id":"codes_cultures.61","geometry":null,"properties":{"code":"MCR","libelle":"Mélange de céréales"}},{"type":"Feature","id":"codes_cultures.62","geometry":null,"properties":{"code":"MID","libelle":"Maïs doux"}},{"type":"Feature","id":"codes_cultures.63","geometry":null,"properties":{"code":"MIS","libelle":"Maïs"}},{"type":"Feature","id":"codes_cultures.64","geometry":null,"properties":{"code":"MLG","libelle":"Mélange de légumineuses prépondérantes au semis et de graminées fourragères de 5 ans ou moins"}},{"type":"Feature","id":"codes_cultures.65","geometry":null,"properties":{"code":"MLO","libelle":"Melon"}},{"type":"Feature","id":"codes_cultures.66","geometry":null,"properties":{"code":"MLT","libelle":"Millet"}},{"type":"Feature","id":"codes_cultures.67","geometry":null,"properties":{"code":"MOH","libelle":"Moha"}},{"type":"Feature","id":"codes_cultures.68","geometry":null,"properties":{"code":"MOT","libelle":"Moutarde"}},{"type":"Feature","id":"codes_cultures.69","geometry":null,"properties":{"code":"MPC","libelle":"Mélange de protéagineux (pois et/ou lupin et/ou féverole) prépondérants semés avant le 31/05 et de céréales"}},{"type":"Feature","id":"codes_cultures.70","geometry":null,"properties":{"code":"MRS","libelle":"Marais salant"}},{"type":"Feature","id":"codes_cultures.71","geometry":null,"properties":{"code":"NOS","libelle":"Noisette"}},{"type":"Feature","id":"codes_cultures.72","geometry":null,"properties":{"code":"NOX","libelle":"Noix"}},{"type":"Feature","id":"codes_cultures.73","geometry":null,"properties":{"code":"NVT","libelle":"Navet"}},{"type":"Feature","id":"codes_cultures.74","geometry":null,"properties":{"code":"OAG","libelle":"Autre oléagineux d’un autre genre"}},{"type":"Feature","id":"codes_cultures.75","geometry":null,"properties":{"code":"OEI","libelle":"Oeillette"}},{"type":"Feature","id":"codes_cultures.76","geometry":null,"properties":{"code":"OHR","libelle":"Autre oléagineux d’hiver d’espèce Brassica rapa"}},{"type":"Feature","id":"codes_cultures.77","geometry":null,"properties":{"code":"OIG","libelle":"Oignon / Echalotte"}},{"type":"Feature","id":"codes_cultures.78","geometry":null,"properties":{"code":"OLI","libelle":"Oliveraie"}},{"type":"Feature","id":"codes_cultures.79","geometry":null,"properties":{"code":"ORH","libelle":"Orge d'hiver"}},{"type":"Feature","id":"codes_cultures.80","geometry":null,"properties":{"code":"ORP","libelle":"Orge de printemps"}},{"type":"Feature","id":"codes_cultures.81","geometry":null,"properties":{"code":"PAG","libelle":"Autre protéagineux d’un autre genre"}},{"type":"Feature","id":"codes_cultures.82","geometry":null,"properties":{"code":"PCH","libelle":"Pois chiche"}},{"type":"Feature","id":"codes_cultures.83","geometry":null,"properties":{"code":"PEP","libelle":"Pépinière"}},{"type":"Feature","id":"codes_cultures.84","geometry":null,"properties":{"code":"PFR","libelle":"Petit fruit rouge"}},{"type":"Feature","id":"codes_cultures.85","geometry":null,"properties":{"code":"PHI","libelle":"Pois d'hiver"}},{"type":"Feature","id":"codes_cultures.86","geometry":null,"properties":{"code":"POR","libelle":"Poireau"}},{"type":"Feature","id":"codes_cultures.87","geometry":null,"properties":{"code":"POT","libelle":"Potiron / Potimarron"}},{"type":"Feature","id":"codes_cultures.88","geometry":null,"properties":{"code":"PPH","libelle":"Prairie permanente - herbe prédominante (ressources fourragères ligneuses absentes ou peu présentes)"}},{"type":"Feature","id":"codes_cultures.89","geometry":null,"properties":{"code":"PPP","libelle":"Autre PPAM pérenne"}},{"type":"Feature","id":"codes_cultures.90","geometry":null,"properties":{"code":"PPR","libelle":"Pois de printemps semé avant le 31/05"}},{"type":"Feature","id":"codes_cultures.91","geometry":null,"properties":{"code":"PRU","libelle":"Prune d'Ente pour transformation"}},{"type":"Feature","id":"codes_cultures.92","geometry":null,"properties":{"code":"PSL","libelle":"Persil"}},{"type":"Feature","id":"codes_cultures.93","geometry":null,"properties":{"code":"PTC","libelle":"Pomme de terre de consommation"}},{"type":"Feature","id":"codes_cultures.94","geometry":null,"properties":{"code":"PTR","libelle":"Autre prairie temporaire de 5 ans ou moins"}},{"type":"Feature","id":"codes_cultures.95","geometry":null,"properties":{"code":"PVP","libelle":"Poivron / Piment"}},{"type":"Feature","id":"codes_cultures.96","geometry":null,"properties":{"code":"PVT","libelle":"Pêche Pavie pour transformation"}},{"type":"Feature","id":"codes_cultures.97","geometry":null,"properties":{"code":"PWT","libelle":"Poire Williams pour transformation"}},{"type":"Feature","id":"codes_cultures.98","geometry":null,"properties":{"code":"RDI","libelle":"Radis"}},{"type":"Feature","id":"codes_cultures.99","geometry":null,"properties":{"code":"RIZ","libelle":"Riz"}},{"type":"Feature","id":"codes_cultures.100","geometry":null,"properties":{"code":"SAI","libelle":"Autre sainfoin"}},{"type":"Feature","id":"codes_cultures.101","geometry":null,"properties":{"code":"SBO","libelle":"Surface boisée sur une ancienne terre agricole"}},{"type":"Feature","id":"codes_cultures.102","geometry":null,"properties":{"code":"SGH","libelle":"Seigle d'hiver"}},{"type":"Feature","id":"codes_cultures.103","geometry":null,"properties":{"code":"SGP","libelle":"Seigle de printemps"}},{"type":"Feature","id":"codes_cultures.104","geometry":null,"properties":{"code":"SNE","libelle":"Surface agricole temporairement non exploitée"}},{"type":"Feature","id":"codes_cultures.105","geometry":null,"properties":{"code":"SOG","libelle":"Sorgho"}},{"type":"Feature","id":"codes_cultures.106","geometry":null,"properties":{"code":"SOJ","libelle":"Soja"}},{"type":"Feature","id":"codes_cultures.107","geometry":null,"properties":{"code":"SPH","libelle":"Surface pastorale - herbe prédominante et ressources fourragères ligneuses présentes"}},{"type":"Feature","id":"codes_cultures.108","geometry":null,"properties":{"code":"SPL","libelle":"Surface pastorale - ressources fourragères ligneuses prédominantes"}},{"type":"Feature","id":"codes_cultures.109","geometry":null,"properties":{"code":"SRS","libelle":"Sarrasin"}},{"type":"Feature","id":"codes_cultures.110","geometry":null,"properties":{"code":"TAB","libelle":"Tabac"}},{"type":"Feature","id":"codes_cultures.111","geometry":null,"properties":{"code":"TBT","libelle":"Tubercule tropical"}},{"type":"Feature","id":"codes_cultures.112","geometry":null,"properties":{"code":"TCR","libelle":"Taillis à courte rotation"}},{"type":"Feature","id":"codes_cultures.113","geometry":null,"properties":{"code":"TOM","libelle":"Tomate"}},{"type":"Feature","id":"codes_cultures.114","geometry":null,"properties":{"code":"TRE","libelle":"Autre trèfle"}},{"type":"Feature","id":"codes_cultures.115","geometry":null,"properties":{"code":"TRN","libelle":"Tournesol"}},{"type":"Feature","id":"codes_cultures.116","geometry":null,"properties":{"code":"TRU","libelle":"Truffière (chênaie de plants mycorhizés)"}},{"type":"Feature","id":"codes_cultures.117","geometry":null,"properties":{"code":"TTH","libelle":"Triticale d'hiver"}},{"type":"Feature","id":"codes_cultures.118","geometry":null,"properties":{"code":"TTP","libelle":"Triticale de printemps"}},{"type":"Feature","id":"codes_cultures.119","geometry":null,"properties":{"code":"VES","libelle":"Autre vesce"}},{"type":"Feature","id":"codes_cultures.120","geometry":null,"properties":{"code":"VNL","libelle":"Vanille"}},{"type":"Feature","id":"codes_cultures.121","geometry":null,"properties":{"code":"VRC","libelle":"Vigne : raisins de cuve"}},{"type":"Feature","id":"codes_cultures.122","geometry":null,"properties":{"code":"VRG","libelle":"Verger"}},{"type":"Feature","id":"codes_cultures.123","geometry":null,"properties":{"code":"ZZZ","libelle":"Culture inconnue"}},{"type":"Feature","id":"codes_cultures.124","geometry":null,"properties":{"code":"CNA","libelle":"Châtaigneraie non entretenue par des porcins ou des petits ruminants"}},{"type":"Feature","id":"codes_cultures.125","geometry":null,"properties":{"code":"CNE","libelle":"Chênaie non entretenue par des porcins ou des petits ruminants"}},{"type":"Feature","id":"codes_cultures.126","geometry":null,"properties":{"code":"MLC","libelle":"Mélange de légumineuses fourragères prépondérantes et de céréales et/ou d'oléagineux"}},{"type":"Feature","id":"codes_cultures.127","geometry":null,"properties":{"code":"MLF","libelle":"Mélange de légumineuses fourragères (entre elles)"}},{"type":"Feature","id":"codes_cultures.128","geometry":null,"properties":{"code":"CAH","libelle":"Autre céréale ou pseudo-céréale secondaire d'hiver"}},{"type":"Feature","id":"codes_cultures.129","geometry":null,"properties":{"code":"MCS","libelle":"Mélange de céréales ou pseudo-céréales de printemps entre elles"}},{"type":"Feature","id":"codes_cultures.130","geometry":null,"properties":{"code":"FVP","libelle":"Féverole de printemps"}},{"type":"Feature","id":"codes_cultures.131","geometry":null,"properties":{"code":"PHS","libelle":"Pois et haricot secs (alimentation humaine)"}},{"type":"Feature","id":"codes_cultures.132","geometry":null,"properties":{"code":"PHF","libelle":"Pois et haricot frais (alimentation humaine)"}},{"type":"Feature","id":"codes_cultures.133","geometry":null,"properties":{"code":"MDI","libelle":"Maraîchage diversifié (plusieurs espèces de fruits et légumes majoritairement non pérennes)"}},{"type":"Feature","id":"codes_cultures.134","geometry":null,"properties":{"code":"SHD","libelle":"Surfaces hautement diversifiées (DOM)"}},{"type":"Feature","id":"codes_cultures.135","geometry":null,"properties":{"code":"GRA","libelle":"Graminée pure exclusivement pour gazon ou pour production de semences certifiées"}},{"type":"Feature","id":"codes_cultures.136","geometry":null,"properties":{"code":"JAC","libelle":"Jachère (terre arable)"}},{"type":"Feature","id":"codes_cultures.137","geometry":null,"properties":{"code":"ARP","libelle":"Plante aromatique pérenne non arbustive ou arborée autre que la vanille"}},{"type":"Feature","id":"codes_cultures.138","geometry":null,"properties":{"code":"AAR","libelle":"Plantes aromatiques herbacées non pérennes (< 5 ans) autres que persil"}},{"type":"Feature","id":"codes_cultures.139","geometry":null,"properties":{"code":"PRF","libelle":"Plantes à parfum pérennes autres que lavande et lavandin"}},{"type":"Feature","id":"codes_cultures.140","geometry":null,"properties":{"code":"AME","libelle":"Plantes médicinales et à parfum non pérennes (< 5 ans)"}},{"type":"Feature","id":"codes_cultures.141","geometry":null,"properties":{"code":"PME","libelle":"Plantes médicinales pérennes (autres que arbres)"}},{"type":"Feature","id":"codes_cultures.142","geometry":null,"properties":{"code":"AFG","libelle":"Autre plante fourragère annuelle (ni légumineuse ni graminée ni céréale ni oléagineux)"}},{"type":"Feature","id":"codes_cultures.143","geometry":null,"properties":{"code":"MSW","libelle":"Culture pérenne à forte biomasse (miscanthus, switchgrass, silphie, canne fourragère, …)"}},{"type":"Feature","id":"codes_cultures.144","geometry":null,"properties":{"code":"SAG","libelle":"Roselière (récolte de sagnes)"}},{"type":"Feature","id":"codes_cultures.145","geometry":null,"properties":{"code":"SNU","libelle":"Parc d'élevage de monogastriques avec couvert dégradé voire sol nu"}},{"type":"Feature","id":"codes_cultures.146","geometry":null,"properties":{"code":"SIN","libelle":"Surface pastorale ou parcours non utilisé l'année en cours"}},{"type":"Feature","id":"codes_cultures.147","geometry":null,"properties":{"code":"PEV","libelle":"Pépinière (plants laissés en terre moins d’un an)"}}]}