{"type":"FeatureCollection","metadata":{"source":"IGN BD TOPO V3 — BDTOPO_V3:troncon_de_voie_ferree","service":"https://data.geopf.fr/wfs/ows","request":"GetFeature BDTOPO_V3:troncon_de_voie_ferree BBOX 755390,6819514,761486,6826372 EPSG:2154 (emprise du terrain V1.7)","retrievedAt":"2026-09-24T18:51:52.523Z","license":"Licence Ouverte Etalab 2.0 — © IGN","crs":"CRS84 (longitude, latitude, altitude BD TOPO)"},"features":[{"type":"Feature","id":"troncon_de_voie_ferree.13172","geometry":{"type":"LineString","coordinates":[[3.81491472,48.50194594,82.3],[3.81186036,48.50218816,82.4],[3.80970918,48.50235938,82.1],[3.80957942,48.50237196,82.1],[3.80932138,48.5024061,81.8],[3.80663189,48.50260972,81.5]]},"geometry_name":"geometrie","properties":{"cleabs":"TRONFERR0000000009310423","nature":"Voie de service","position_par_rapport_au_sol":"0","etat_de_l_objet":"En service","date_creation":"2006-08-01T10:22:14.818Z","date_modification":"2021-09-22T06:44:45.867Z","date_d_apparition":null,"date_de_confirmation":"2016-07-01Z","sources":null,"identifiants_sources":null,"methode_d_acquisition_planimetrique":"Photogrammétrie","precision_planimetrique":2.5,"methode_d_acquisition_altimetrique":"Photogrammétrie","precision_altimetrique":1.5,"electrifie":false,"largeur":"Normale","nombre_de_voies":1,"usage":null,"vitesse_maximale":null,"liens_vers_voie_ferree_nommee":null,"cpx_toponyme":null}},{"type":"Feature","id":"troncon_de_voie_ferree.18073","geometry":{"type":"LineString","coordinates":[[3.82673716,48.50161327,85.5],[3.82706715,48.50159298,85.6],[3.82737811,48.50156742,85.8],[3.82769039,48.50154006,85.8],[3.82799326,48.50151726,85.8],[3.82826368,48.50149648,85.8],[3.82847328,48.50148152,85.8],[3.82869249,48.5014755,85.8],[3.82891442,48.50147035,85.7],[3.82918378,48.50146847,85.7],[3.82946543,48.5014728,85.6],[3.82971729,48.50147734,85.6],[3.82995275,48.5014712,85.6],[3.8302083,48.50145232,85.6],[3.83062618,48.50142511,85.6],[3.83204878,48.50132879,85.4]]},"geometry_name":"geometrie","properties":{"cleabs":"TRONFERR0000000009310424","nature":"Voie de service","position_par_rapport_au_sol":"0","etat_de_l_objet":"En service","date_creation":"2006-08-01T10:22:14.818Z","date_modification":"2021-09-22T06:53:01.813Z","date_d_apparition":null,"date_de_confirmation":null,"sources":null,"identifiants_sources":null,"methode_d_acquisition_planimetrique":"Photogrammétrie","precision_planimetrique":2.5,"methode_d_acquisition_altimetrique":"Photogrammétrie","precision_altimetrique":1.5,"electrifie":false,"largeur":"Normale","nombre_de_voies":1,"usage":null,"vitesse_maximale":null,"liens_vers_voie_ferree_nommee":null,"cpx_toponyme":null}},{"type":"Feature","id":"troncon_de_voie_ferree.12387","geometry":{"type":"LineString","coordinates":[[3.82240559,48.50215702,84.3],[3.82201072,48.50218405,84.1],[3.82126046,48.50225221,83.5],[3.81875634,48.50244672,82.5],[3.81572343,48.5026763,82.5],[3.81466756,48.50276811,82.5],[3.81296373,48.50289133,82.5],[3.81040691,48.50309592,82.1],[3.80983106,48.50315113,82.3],[3.80787856,48.50330386,81.8],[3.80725913,48.50334316,81.5]]},"geometry_name":"geometrie","properties":{"cleabs":"TRONFERR0000000009310425","nature":"Voie ferrée principale","position_par_rapport_au_sol":"0","etat_de_l_objet":"En service","date_creation":"2006-08-01T10:22:14.818Z","date_modification":"2025-11-26T14:00:18.021Z","date_d_apparition":null,"date_de_confirmation":null,"sources":null,"identifiants_sources":null,"methode_d_acquisition_planimetrique":"BDTopo","precision_planimetrique":2.5,"methode_d_acquisition_altimetrique":"BDTopo","precision_altimetrique":1.5,"electrifie":false,"largeur":"Normale","nombre_de_voies":2,"usage":null,"vitesse_maximale":null,"liens_vers_voie_ferree_nommee":"VOIEFERR0000002206228912","cpx_toponyme":null}},{"type":"Feature","id":"troncon_de_voie_ferree.15518","geometry":{"type":"LineString","coordinates":[[3.82006648,48.5019078,83],[3.81951103,48.50179468,83.2],[3.8188782,48.50166769,83.2],[3.81868406,48.50163214,83.3],[3.81847518,48.50160569,83.3],[3.81814568,48.50157108,83.1],[3.81780131,48.50153746,82.8],[3.81757209,48.50150935,82.7],[3.81742555,48.50148787,82.7],[3.81641925,48.50128337,82.6],[3.81574293,48.50114408,82.6],[3.81538032,48.5010692,82],[3.81520529,48.50104341,82.2],[3.81504668,48.5010292,82.3],[3.81487591,48.50101598,82.4],[3.81475806,48.50101139,82.4],[3.81459022,48.50101254,82.4],[3.81428184,48.50102995,82.4],[3.81394645,48.50105114,82.4],[3.81366111,48.50107019,82.8],[3.81355974,48.50108078,82.8],[3.81341389,48.50110337,82.8],[3.81293606,48.501193,82.8],[3.81281042,48.50120916,82.8],[3.81272661,48.50121693,82.8],[3.80980489,48.50136822,82.8],[3.80965889,48.50138091,82.8],[3.80954816,48.50139876,82.8],[3.80944425,48.50142016,82.8],[3.80925823,48.50147181,82.8],[3.80909388,48.50152421,82.8],[3.80898601,48.50155193,82.8],[3.80884151,48.50157451,82.8],[3.80870371,48.50159254,82.8],[3.80641872,48.5017763,82.8]]},"geometry_name":"geometrie","properties":{"cleabs":"TRONFERR0000000009310426","nature":"Voie de service","position_par_rapport_au_sol":"0","etat_de_l_objet":"En service","date_creation":"2006-08-01T10:22:14.818Z","date_modification":"2021-09-22T06:48:11.168Z","date_d_apparition":null,"date_de_confirmation":"2016-07-01Z","sources":null,"identifiants_sources":null,"methode_d_acquisition_planimetrique":"Photogrammétrie","precision_planimetrique":2.5,"methode_d_acquisition_altimetrique":"Photogrammétrie","precision_altimetrique":1.5,"electrifie":false,"largeur":"Normale","nombre_de_voies":1,"usage":null,"vitesse_maximale":null,"liens_vers_voie_ferree_nommee":null,"cpx_toponyme":null}},{"type":"Feature","id":"troncon_de_voie_ferree.17614","geometry":{"type":"LineString","coordinates":[[3.81009961,48.50292079,82],[3.80994539,48.50292814,82.2],[3.80971146,48.50294593,82.2],[3.80950067,48.50297165,82.3],[3.80918462,48.50301879,82.3],[3.80895105,48.50305996,82.3],[3.8085824,48.50312005,82.2],[3.80835018,48.50316121,82.1],[3.80805715,48.50320909,81.8],[3.80773034,48.50326169,81.7],[3.8074549,48.50330854,81.7],[3.80725913,48.50334316,81.5]]},"geometry_name":"geometrie","properties":{"cleabs":"TRONFERR0000000009310427","nature":"Voie de service","position_par_rapport_au_sol":"0","etat_de_l_objet":"En service","date_creation":"2006-08-01T10:22:14.818Z","date_modification":"2021-09-22T06:52:15.837Z","date_d_apparition":null,"date_de_confirmation":null,"sources":null,"identifiants_sources":null,"methode_d_acquisition_planimetrique":"Photogrammétrie","precision_planimetrique":2.5,"methode_d_acquisition_altimetrique":"Photogrammétrie","precision_altimetrique":1.5,"electrifie":false,"largeur":"Normale","nombre_de_voies":1,"usage":null,"vitesse_maximale":null,"liens_vers_voie_ferree_nommee":null,"cpx_toponyme":null}},{"type":"Feature","id":"troncon_de_voie_ferree.15519","geometry":{"type":"LineString","coordinates":[[3.81942581,48.50223249,82.7],[3.8192531,48.50226876,82.8],[3.81903323,48.50231976,82.8],[3.81888071,48.5023487,82.8],[3.81874291,48.50236674,82.8],[3.81857658,48.50237869,82.8],[3.81795744,48.50243513,82.6],[3.81584405,48.5025981,82.8],[3.81373609,48.50276279,82.7],[3.81303702,48.50281616,82.6],[3.81200547,48.50290508,82.5],[3.81144433,48.5029485,82.3],[3.81129151,48.50295854,82.3],[3.81116164,48.50296482,82.3],[3.81104523,48.50296562,82.2],[3.81090571,48.50296027,82.1],[3.81075937,48.50295137,82.1],[3.81061027,48.5029398,82.1],[3.81044223,48.50292835,82]]},"geometry_name":"geometrie","properties":{"cleabs":"TRONFERR0000000009310428","nature":"Voie de service","position_par_rapport_au_sol":"0","etat_de_l_objet":"En service","date_creation":"2006-08-01T10:22:14.818Z","date_modification":"2021-09-22T06:48:11.168Z","date_d_apparition":null,"date_de_confirmation":null,"sources":null,"identifiants_sources":null,"methode_d_acquisition_planimetrique":"Photogrammétrie","precision_planimetrique":2.5,"methode_d_acquisition_altimetrique":"Photogrammétrie","precision_altimetrique":1.5,"electrifie":false,"largeur":"Normale","nombre_de_voies":1,"usage":null,"vitesse_maximale":null,"liens_vers_voie_ferree_nommee":null,"cpx_toponyme":null}},{"type":"Feature","id":"troncon_de_voie_ferree.15521","geometry":{"type":"LineString","coordinates":[[3.81062291,48.50288123,82.3],[3.81092034,48.50285581,82.2],[3.81132051,48.5028207,82.2],[3.81182892,48.50278124,82.2],[3.81235762,48.50274074,82.2],[3.81288355,48.50269666,82.2],[3.81357717,48.50264153,82.3],[3.81437617,48.50257218,82.3],[3.81516727,48.50251728,82.3],[3.81569594,48.50247587,82.3],[3.81614889,48.50243947,82.3],[3.81647335,48.50241115,82.4],[3.81675196,48.50239394,82.4],[3.81714408,48.50236426,82.4],[3.81752541,48.50233644,82.4],[3.81794585,48.50229936,82.4],[3.81833255,48.50226881,82.4],[3.81870035,48.50224199,82.5],[3.8190885,48.50221772,82.5],[3.81943325,48.50218835,82.7]]},"geometry_name":"geometrie","properties":{"cleabs":"TRONFERR0000000009310429","nature":"Voie de service","position_par_rapport_au_sol":"0","etat_de_l_objet":"En service","date_creation":"2006-08-01T10:22:14.818Z","date_modification":"2021-09-22T06:48:11.168Z","date_d_apparition":null,"date_de_confirmation":null,"sources":null,"identifiants_sources":null,"methode_d_acquisition_planimetrique":"Photogrammétrie","precision_planimetrique":2.5,"methode_d_acquisition_altimetrique":"Photogrammétrie","precision_altimetrique":1.5,"electrifie":false,"largeur":"Normale","nombre_de_voies":1,"usage":null,"vitesse_maximale":null,"liens_vers_voie_ferree_nommee":null,"cpx_toponyme":null}},{"type":"Feature","id":"troncon_de_voie_ferree.15526","geometry":{"type":"LineString","coordinates":[[3.81044223,48.50292835,82],[3.81081055,48.50293483,82.3],[3.81102716,48.50293515,82.2],[3.81122735,48.50292389,82.1],[3.8114491,48.50290708,82.1],[3.81183983,48.50287383,82.1],[3.81237111,48.50282521,82.1],[3.81316352,48.50276761,82.2],[3.81376653,48.5027176,82.4],[3.81434797,48.50267404,82.4],[3.81495241,48.50262941,82.5],[3.81550136,48.50258606,82.5],[3.81628827,48.50252308,82.4],[3.81689131,48.50247575,82.4],[3.81758361,48.50242241,82.4],[3.81819341,48.50237503,82.4],[3.81855314,48.50235096,82.4],[3.81876811,48.50233328,82.5],[3.81893425,48.50230965,82.5],[3.81910976,48.50227875,82.5],[3.81928935,48.50224962,82.6],[3.81942581,48.50223249,82.7]]},"geometry_name":"geometrie","properties":{"cleabs":"TRONFERR0000000009310430","nature":"Voie de service","position_par_rapport_au_sol":"0","etat_de_l_objet":"En service","date_creation":"2006-08-01T10:22:14.818Z","date_modification":"2021-09-22T06:48:11.168Z","date_d_apparition":null,"date_de_confirmation":null,"sources":null,"identifiants_sources":null,"methode_d_acquisition_planimetrique":"Photogrammétrie","precision_planimetrique":2.5,"methode_d_acquisition_altimetrique":"Photogrammétrie","precision_altimetrique":1.5,"electrifie":false,"largeur":"Normale","nombre_de_voies":1,"usage":null,"vitesse_maximale":null,"liens_vers_voie_ferree_nommee":null,"cpx_toponyme":null}},{"type":"Feature","id":"troncon_de_voie_ferree.15538","geometry":{"type":"LineString","coordinates":[[3.81943325,48.50218835,82.7],[3.81926456,48.5022228,82.9],[3.8190228,48.50225866,82.8],[3.81881064,48.50228261,82.8],[3.81855239,48.50230328,82.8],[3.81812516,48.50233861,82.9],[3.81745177,48.50238913,82.9],[3.81684058,48.50243471,82.8],[3.8162565,48.50248191,82.8],[3.81559663,48.50253142,82.7],[3.81494493,48.50258358,82.7],[3.81425128,48.50263691,82.8],[3.81350759,48.50269419,82.7],[3.81283152,48.50274649,82.6],[3.81179843,48.50282283,82.4],[3.81126715,48.50287144,82.4],[3.81102904,48.50288116,82.4],[3.81078541,48.50288462,82.3],[3.81062291,48.50288123,82.3]]},"geometry_name":"geometrie","properties":{"cleabs":"TRONFERR0000000009310431","nature":"Voie de service","position_par_rapport_au_sol":"0","etat_de_l_objet":"En service","date_creation":"2006-08-01T10:22:14.818Z","date_modification":"2021-09-22T06:48:11.168Z","date_d_apparition":null,"date_de_confirmation":null,"sources":null,"identifiants_sources":null,"methode_d_acquisition_planimetrique":"Photogrammétrie","precision_planimetrique":2.5,"methode_d_acquisition_altimetrique":"Photogrammétrie","precision_altimetrique":1.5,"electrifie":false,"largeur":"Normale","nombre_de_voies":1,"usage":null,"vitesse_maximale":null,"liens_vers_voie_ferree_nommee":null,"cpx_toponyme":null}},{"type":"Feature","id":"troncon_de_voie_ferree.18074","geometry":{"type":"LineString","coordinates":[[3.82513754,48.50164508,84.7],[3.82553967,48.50164948,84.9],[3.8260833,48.50161332,84.9],[3.82624572,48.50161129,84.9],[3.82673716,48.50161327,84.8]]},"geometry_name":"geometrie","properties":{"cleabs":"TRONFERR0000000009310433","nature":"Voie de service","position_par_rapport_au_sol":"0","etat_de_l_objet":"En service","date_creation":"2006-08-01T10:22:14.818Z","date_modification":"2021-09-22T06:53:01.813Z","date_d_apparition":null,"date_de_confirmation":"2016-07-01Z","sources":null,"identifiants_sources":null,"methode_d_acquisition_planimetrique":"Photogrammétrie","precision_planimetrique":2.5,"methode_d_acquisition_altimetrique":"Photogrammétrie","precision_altimetrique":1.5,"electrifie":false,"largeur":"Normale","nombre_de_voies":1,"usage":null,"vitesse_maximale":null,"liens_vers_voie_ferree_nommee":null,"cpx_toponyme":null}},{"type":"Feature","id":"troncon_de_voie_ferree.66435","geometry":{"type":"LineString","coordinates":[[3.84491866,48.5004004,85.5],[3.84320042,48.50054485,85.5],[3.84043124,48.5007462,86],[3.83741373,48.50099601,85.4],[3.83707304,48.5010245,86],[3.8345513,48.50121048,84.7],[3.83204604,48.50141247,85.9],[3.83030989,48.50154157,86],[3.82826025,48.50170792,85.4],[3.82334405,48.50209025,84.3],[3.82259627,48.50214401,84.5],[3.82240559,48.50215702,84.3]]},"geometry_name":"geometrie","properties":{"cleabs":"TRONFERR0000000009310434","nature":"Voie ferrée principale","position_par_rapport_au_sol":"0","etat_de_l_objet":"En service","date_creation":"2006-08-01T10:22:14.818Z","date_modification":"2025-11-26T13:59:56.785Z","date_d_apparition":null,"date_de_confirmation":null,"sources":null,"identifiants_sources":null,"methode_d_acquisition_planimetrique":"BDTopo","precision_planimetrique":2.5,"methode_d_acquisition_altimetrique":"BDTopo","precision_altimetrique":1.5,"electrifie":false,"largeur":"Normale","nombre_de_voies":2,"usage":null,"vitesse_maximale":null,"liens_vers_voie_ferree_nommee":"VOIEFERR0000002206228912","cpx_toponyme":null}},{"type":"Feature","id":"troncon_de_voie_ferree.15542","geometry":{"type":"LineString","coordinates":[[3.82240559,48.50215702,84.3],[3.82221185,48.50214667,84.3],[3.82183133,48.5021394,84.3],[3.82144681,48.50213577,84.3],[3.820931,48.50213393,83.4],[3.82072924,48.50213083,83.3],[3.82053154,48.5021277,83.3],[3.82031494,48.50212739,83.1],[3.82027434,48.50212857,83.7]]},"geometry_name":"geometrie","properties":{"cleabs":"TRONFERR0000000009310435","nature":"Voie de service","position_par_rapport_au_sol":"0","etat_de_l_objet":"En service","date_creation":"2006-08-01T10:22:14.818Z","date_modification":"2021-09-22T06:48:11.168Z","date_d_apparition":null,"date_de_confirmation":null,"sources":null,"identifiants_sources":null,"methode_d_acquisition_planimetrique":"Photogrammétrie","precision_planimetrique":2.5,"methode_d_acquisition_altimetrique":"Photogrammétrie","precision_altimetrique":1.5,"electrifie":false,"largeur":"Normale","nombre_de_voies":1,"usage":null,"vitesse_maximale":null,"liens_vers_voie_ferree_nommee":null,"cpx_toponyme":null}},{"type":"Feature","id":"troncon_de_voie_ferree.15543","geometry":{"type":"LineString","coordinates":[[3.82534038,48.50171744,84.8],[3.82113679,48.50204884,83.3],[3.82027434,48.50212857,82.6]]},"geometry_name":"geometrie","properties":{"cleabs":"TRONFERR0000000009310436","nature":"Voie de service","position_par_rapport_au_sol":"0","etat_de_l_objet":"En service","date_creation":"2006-08-01T10:22:14.818Z","date_modification":"2021-09-22T06:48:11.168Z","date_d_apparition":null,"date_de_confirmation":"2016-07-01Z","sources":null,"identifiants_sources":null,"methode_d_acquisition_planimetrique":"Photogrammétrie","precision_planimetrique":2.5,"methode_d_acquisition_altimetrique":"Photogrammétrie","precision_altimetrique":1.5,"electrifie":false,"largeur":"Normale","nombre_de_voies":1,"usage":null,"vitesse_maximale":null,"liens_vers_voie_ferree_nommee":null,"cpx_toponyme":null}},{"type":"Feature","id":"troncon_de_voie_ferree.15544","geometry":{"type":"LineString","coordinates":[[3.80830563,48.50105996,83.1],[3.80900097,48.50102914,83.1],[3.81043467,48.5009492,83],[3.81228236,48.50085291,82.8],[3.81335226,48.50079521,82.8],[3.81356993,48.50077753,82.8],[3.81373204,48.50075573,82.8],[3.81401021,48.50071064,82.6],[3.81477309,48.50058396,83],[3.81492171,48.50056585,83.1],[3.81505693,48.50055592,83.1],[3.81528281,48.50054358,83.1],[3.81552385,48.50054912,83.1],[3.81569323,48.50055965,83.1],[3.8158749,48.5005773,84],[3.81602822,48.50059964,83.6],[3.81721658,48.50084787,83.4],[3.82108718,48.50164705,83.8],[3.82145243,48.5017165,83.7],[3.82163018,48.50174316,83.7],[3.82178754,48.50176366,83.7],[3.82204245,48.50178978,83.7],[3.8223488,48.50181555,83.9],[3.82267789,48.50182407,84.1],[3.82338048,48.5018237,84.4]]},"geometry_name":"geometrie","properties":{"cleabs":"TRONFERR0000000009310437","nature":"Voie de service","position_par_rapport_au_sol":"0","etat_de_l_objet":"En service","date_creation":"2006-08-01T10:22:14.818Z","date_modification":"2021-09-22T06:48:11.168Z","date_d_apparition":null,"date_de_confirmation":"2016-07-01Z","sources":null,"identifiants_sources":null,"methode_d_acquisition_planimetrique":"Photogrammétrie","precision_planimetrique":2.5,"methode_d_acquisition_altimetrique":"Photogrammétrie","precision_altimetrique":1.5,"electrifie":false,"largeur":"Normale","nombre_de_voies":1,"usage":null,"vitesse_maximale":null,"liens_vers_voie_ferree_nommee":null,"cpx_toponyme":null}},{"type":"Feature","id":"troncon_de_voie_ferree.17615","geometry":{"type":"LineString","coordinates":[[3.81009961,48.50292079,82],[3.81047554,48.50289394,82.2],[3.81062291,48.50288123,82.3]]},"geometry_name":"geometrie","properties":{"cleabs":"TRONFERR0000000009310439","nature":"Voie de service","position_par_rapport_au_sol":"0","etat_de_l_objet":"En service","date_creation":"2006-08-01T10:22:14.818Z","date_modification":"2021-09-22T06:52:15.837Z","date_d_apparition":null,"date_de_confirmation":null,"sources":null,"identifiants_sources":null,"methode_d_acquisition_planimetrique":"Photogrammétrie","precision_planimetrique":2.5,"methode_d_acquisition_altimetrique":"Photogrammétrie","precision_altimetrique":1.5,"electrifie":false,"largeur":"Normale","nombre_de_voies":1,"usage":null,"vitesse_maximale":null,"liens_vers_voie_ferree_nommee":null,"cpx_toponyme":null}},{"type":"Feature","id":"troncon_de_voie_ferree.18091","geometry":{"type":"LineString","coordinates":[[3.82338048,48.5018237,84.4],[3.82467987,48.50172473,84.8],[3.82489092,48.50171606,84.8],[3.82505063,48.50171406,84.8],[3.82534038,48.50171744,84.8]]},"geometry_name":"geometrie","properties":{"cleabs":"TRONFERR0000000009310446","nature":"Voie de service","position_par_rapport_au_sol":"0","etat_de_l_objet":"En service","date_creation":"2006-08-01T10:22:14.818Z","date_modification":"2021-09-22T06:53:01.813Z","date_d_apparition":null,"date_de_confirmation":"2016-07-01Z","sources":null,"identifiants_sources":null,"methode_d_acquisition_planimetrique":"Photogrammétrie","precision_planimetrique":2.5,"methode_d_acquisition_altimetrique":"Photogrammétrie","precision_altimetrique":1.5,"electrifie":false,"largeur":"Normale","nombre_de_voies":1,"usage":null,"vitesse_maximale":null,"liens_vers_voie_ferree_nommee":null,"cpx_toponyme":null}},{"type":"Feature","id":"troncon_de_voie_ferree.15558","geometry":{"type":"LineString","coordinates":[[3.82409638,48.50155065,84.5],[3.82208841,48.50100768,84.3],[3.8216698,48.50090172,84.2],[3.82100522,48.50073448,84.1],[3.81971681,48.50040871,84.1],[3.81779374,48.49992266,84.1]]},"geometry_name":"geometrie","properties":{"cleabs":"TRONFERR0000000009310447","nature":"Voie de service","position_par_rapport_au_sol":"0","etat_de_l_objet":"En service","date_creation":"2006-08-01T10:22:14.818Z","date_modification":"2021-09-22T06:48:15.848Z","date_d_apparition":null,"date_de_confirmation":null,"sources":null,"identifiants_sources":null,"methode_d_acquisition_planimetrique":"BDTopo","precision_planimetrique":2.5,"methode_d_acquisition_altimetrique":"BDTopo","precision_altimetrique":1.5,"electrifie":false,"largeur":"Normale","nombre_de_voies":1,"usage":null,"vitesse_maximale":null,"liens_vers_voie_ferree_nommee":null,"cpx_toponyme":null}},{"type":"Feature","id":"troncon_de_voie_ferree.18092","geometry":{"type":"LineString","coordinates":[[3.82534038,48.50171744,84.8],[3.82673716,48.50161327,84.8]]},"geometry_name":"geometrie","properties":{"cleabs":"TRONFERR0000000009310453","nature":"Voie de service","position_par_rapport_au_sol":"0","etat_de_l_objet":"En service","date_creation":"2006-08-01T10:22:14.818Z","date_modification":"2021-09-22T06:53:01.813Z","date_d_apparition":null,"date_de_confirmation":"2016-07-01Z","sources":null,"identifiants_sources":null,"methode_d_acquisition_planimetrique":"Photogrammétrie","precision_planimetrique":2.5,"methode_d_acquisition_altimetrique":"Photogrammétrie","precision_altimetrique":1.5,"electrifie":false,"largeur":"Normale","nombre_de_voies":1,"usage":null,"vitesse_maximale":null,"liens_vers_voie_ferree_nommee":null,"cpx_toponyme":null}},{"type":"Feature","id":"troncon_de_voie_ferree.18097","geometry":{"type":"LineString","coordinates":[[3.82513754,48.50164508,84.7],[3.82487766,48.50164778,84.6],[3.82472585,48.50163534,84.5],[3.82439753,48.50158994,84.5],[3.82409638,48.50155065,84.5]]},"geometry_name":"geometrie","properties":{"cleabs":"TRONFERR0000000009310454","nature":"Voie de service","position_par_rapport_au_sol":"0","etat_de_l_objet":"En service","date_creation":"2006-08-01T10:22:14.818Z","date_modification":"2021-09-22T06:53:01.813Z","date_d_apparition":null,"date_de_confirmation":"2016-07-01Z","sources":null,"identifiants_sources":null,"methode_d_acquisition_planimetrique":"Photogrammétrie","precision_planimetrique":2.5,"methode_d_acquisition_altimetrique":"Photogrammétrie","precision_altimetrique":1.5,"electrifie":false,"largeur":"Normale","nombre_de_voies":1,"usage":null,"vitesse_maximale":null,"liens_vers_voie_ferree_nommee":null,"cpx_toponyme":null}},{"type":"Feature","id":"troncon_de_voie_ferree.17616","geometry":{"type":"LineString","coordinates":[[3.81044223,48.50292835,82],[3.81029182,48.50291948,82],[3.81009961,48.50292079,82]]},"geometry_name":"geometrie","properties":{"cleabs":"TRONFERR0000000009310457","nature":"Voie de service","position_par_rapport_au_sol":"0","etat_de_l_objet":"En service","date_creation":"2006-08-01T10:22:14.818Z","date_modification":"2021-09-22T06:52:15.837Z","date_d_apparition":null,"date_de_confirmation":null,"sources":null,"identifiants_sources":null,"methode_d_acquisition_planimetrique":"Photogrammétrie","precision_planimetrique":2.5,"methode_d_acquisition_altimetrique":"Photogrammétrie","precision_altimetrique":1.5,"electrifie":false,"largeur":"Normale","nombre_de_voies":1,"usage":null,"vitesse_maximale":null,"liens_vers_voie_ferree_nommee":null,"cpx_toponyme":null}},{"type":"Feature","id":"troncon_de_voie_ferree.15550","geometry":{"type":"LineString","coordinates":[[3.82027434,48.50212857,82.6],[3.81978339,48.50215805,82.6]]},"geometry_name":"geometrie","properties":{"cleabs":"TRONFERR0000000009310458","nature":"Voie de service","position_par_rapport_au_sol":"0","etat_de_l_objet":"En service","date_creation":"2006-08-01T10:22:14.818Z","date_modification":"2021-09-22T06:48:11.168Z","date_d_apparition":null,"date_de_confirmation":"2016-07-01Z","sources":null,"identifiants_sources":null,"methode_d_acquisition_planimetrique":"Photogrammétrie","precision_planimetrique":2.5,"methode_d_acquisition_altimetrique":"Photogrammétrie","precision_altimetrique":1.5,"electrifie":false,"largeur":"Normale","nombre_de_voies":1,"usage":null,"vitesse_maximale":null,"liens_vers_voie_ferree_nommee":null,"cpx_toponyme":null}},{"type":"Feature","id":"troncon_de_voie_ferree.18098","geometry":{"type":"LineString","coordinates":[[3.82513754,48.50164508,85],[3.82452023,48.5015585,85.5],[3.82438033,48.50152888,85.5],[3.82415213,48.50148009,85.5],[3.82313282,48.50122446,85.5]]},"geometry_name":"geometrie","properties":{"cleabs":"TRONFERR0000000009310459","nature":"Voie de service","position_par_rapport_au_sol":"0","etat_de_l_objet":"En service","date_creation":"2006-08-01T10:22:14.818Z","date_modification":"2021-09-22T06:53:01.813Z","date_d_apparition":null,"date_de_confirmation":null,"sources":null,"identifiants_sources":null,"methode_d_acquisition_planimetrique":"BDTopo","precision_planimetrique":2.5,"methode_d_acquisition_altimetrique":"BDTopo","precision_altimetrique":1.5,"electrifie":false,"largeur":"Normale","nombre_de_voies":1,"usage":null,"vitesse_maximale":null,"liens_vers_voie_ferree_nommee":null,"cpx_toponyme":null}},{"type":"Feature","id":"troncon_de_voie_ferree.15551","geometry":{"type":"LineString","coordinates":[[3.81943325,48.50218835,82.7],[3.81978339,48.50215805,82.8]]},"geometry_name":"geometrie","properties":{"cleabs":"TRONFERR0000000009310460","nature":"Voie de service","position_par_rapport_au_sol":"0","etat_de_l_objet":"En service","date_creation":"2006-08-01T10:22:14.818Z","date_modification":"2021-09-22T06:48:11.168Z","date_d_apparition":null,"date_de_confirmation":null,"sources":null,"identifiants_sources":null,"methode_d_acquisition_planimetrique":"Photogrammétrie","precision_planimetrique":2.5,"methode_d_acquisition_altimetrique":"Photogrammétrie","precision_altimetrique":1.5,"electrifie":false,"largeur":"Normale","nombre_de_voies":1,"usage":null,"vitesse_maximale":null,"liens_vers_voie_ferree_nommee":null,"cpx_toponyme":null}},{"type":"Feature","id":"troncon_de_voie_ferree.15552","geometry":{"type":"LineString","coordinates":[[3.81978339,48.50215805,82.8],[3.81966205,48.50218948,83],[3.81946359,48.50222413,82.9],[3.81942581,48.50223249,82.7]]},"geometry_name":"geometrie","properties":{"cleabs":"TRONFERR0000000009310462","nature":"Voie de service","position_par_rapport_au_sol":"0","etat_de_l_objet":"En service","date_creation":"2006-08-01T10:22:14.818Z","date_modification":"2021-09-22T06:48:11.168Z","date_d_apparition":null,"date_de_confirmation":null,"sources":null,"identifiants_sources":null,"methode_d_acquisition_planimetrique":"Photogrammétrie","precision_planimetrique":2.5,"methode_d_acquisition_altimetrique":"Photogrammétrie","precision_altimetrique":1.5,"electrifie":false,"largeur":"Normale","nombre_de_voies":1,"usage":null,"vitesse_maximale":null,"liens_vers_voie_ferree_nommee":null,"cpx_toponyme":null}},{"type":"Feature","id":"troncon_de_voie_ferree.15553","geometry":{"type":"LineString","coordinates":[[3.82006648,48.5019078,83],[3.82025384,48.50194249,83.1],[3.82041672,48.50197015,83.1],[3.82053472,48.50198463,83.1],[3.82062279,48.50198942,83.1],[3.82083547,48.50199875,83.1],[3.82111699,48.501995,83.3],[3.82138879,48.50197513,83.3],[3.82197831,48.50192967,84],[3.82338048,48.5018237,84.4]]},"geometry_name":"geometrie","properties":{"cleabs":"TRONFERR0000000009310464","nature":"Voie de service","position_par_rapport_au_sol":"0","etat_de_l_objet":"En service","date_creation":"2006-08-01T10:22:14.818Z","date_modification":"2021-09-22T06:48:11.168Z","date_d_apparition":null,"date_de_confirmation":"2016-07-01Z","sources":null,"identifiants_sources":null,"methode_d_acquisition_planimetrique":"Photogrammétrie","precision_planimetrique":2.5,"methode_d_acquisition_altimetrique":"Photogrammétrie","precision_altimetrique":1.5,"electrifie":false,"largeur":"Normale","nombre_de_voies":1,"usage":null,"vitesse_maximale":null,"liens_vers_voie_ferree_nommee":null,"cpx_toponyme":null}},{"type":"Feature","id":"troncon_de_voie_ferree.15559","geometry":{"type":"LineString","coordinates":[[3.82409638,48.50155065,84.5],[3.82373516,48.50147848,84.3],[3.82330034,48.50137534,84.3],[3.82194403,48.50103747,84.3],[3.82165318,48.50096391,84.3],[3.81976257,48.50047857,84.3],[3.81969054,48.50046017,84.3],[3.81774013,48.49995722,84.3]]},"geometry_name":"geometrie","properties":{"cleabs":"TRONFERR0000000009310465","nature":"Voie de service","position_par_rapport_au_sol":"0","etat_de_l_objet":"En service","date_creation":"2006-08-01T10:22:14.818Z","date_modification":"2021-09-22T06:48:15.848Z","date_d_apparition":null,"date_de_confirmation":null,"sources":null,"identifiants_sources":null,"methode_d_acquisition_planimetrique":"BDTopo","precision_planimetrique":2.5,"methode_d_acquisition_altimetrique":"BDTopo","precision_altimetrique":1.5,"electrifie":false,"largeur":"Normale","nombre_de_voies":1,"usage":null,"vitesse_maximale":null,"liens_vers_voie_ferree_nommee":null,"cpx_toponyme":null}},{"type":"Feature","id":"troncon_de_voie_ferree.19863","geometry":{"type":"LineString","coordinates":[[3.79387787,48.50429337,80.8],[3.79428716,48.50423306,81.1],[3.79473422,48.50416439,80.9],[3.79517313,48.50409308,81],[3.79562591,48.50404417,81.2],[3.79599226,48.50400933,81.1],[3.79643845,48.50397216,81.2],[3.79672254,48.50395856,81.2],[3.7970381,48.50396724,81.3]]},"geometry_name":"geometrie","properties":{"cleabs":"TRONFERR0000000009310466","nature":"Voie de service","position_par_rapport_au_sol":"0","etat_de_l_objet":"En service","date_creation":"2006-08-01T10:22:14.818Z","date_modification":"2023-02-24T16:43:49.630Z","date_d_apparition":null,"date_de_confirmation":null,"sources":null,"identifiants_sources":null,"methode_d_acquisition_planimetrique":"Photogrammétrie","precision_planimetrique":2.5,"methode_d_acquisition_altimetrique":"Photogrammétrie","precision_altimetrique":1.5,"electrifie":false,"largeur":"Normale","nombre_de_voies":1,"usage":null,"vitesse_maximale":null,"liens_vers_voie_ferree_nommee":null,"cpx_toponyme":null}},{"type":"Feature","id":"troncon_de_voie_ferree.103148","geometry":{"type":"LineString","coordinates":[[3.79273671,48.50447911,80],[3.79227154,48.5045146,79.7],[3.79129795,48.50459126,79.5],[3.79045839,48.50466792,79],[3.78947515,48.50473293,79],[3.78845974,48.50481974,79],[3.78802831,48.5048487,79],[3.78719946,48.50491806,79],[3.78664498,48.50495682,79],[3.78622994,48.50499555,78.5],[3.78584454,48.50502509,78],[3.78391369,48.50518629,76.8],[3.78010972,48.50547761,76.3],[3.77214491,48.5061054,76.4]]},"geometry_name":"geometrie","properties":{"cleabs":"TRONFERR0000000009310467","nature":"Voie ferrée principale","position_par_rapport_au_sol":"0","etat_de_l_objet":"En service","date_creation":"2006-08-01T10:22:14.818Z","date_modification":"2025-11-26T14:00:01.543Z","date_d_apparition":null,"date_de_confirmation":null,"sources":null,"identifiants_sources":null,"methode_d_acquisition_planimetrique":"BDTopo","precision_planimetrique":2.5,"methode_d_acquisition_altimetrique":"BDTopo","precision_altimetrique":1.5,"electrifie":false,"largeur":"Normale","nombre_de_voies":2,"usage":null,"vitesse_maximale":null,"liens_vers_voie_ferree_nommee":"VOIEFERR0000002206228912","cpx_toponyme":null}},{"type":"Feature","id":"troncon_de_voie_ferree.22078","geometry":{"type":"LineString","coordinates":[[3.80725913,48.50334316,81.5],[3.80705357,48.50335715,81.4],[3.80546223,48.5034912,80.8],[3.80461025,48.50355005,80.6],[3.80374082,48.50361891,86.1],[3.80353269,48.50364191,80.9],[3.80253056,48.50370896,80.9],[3.80171382,48.50377115,81.1],[3.80160701,48.50377996,80.5],[3.800328,48.50389024,80.5],[3.79977351,48.50392726,81],[3.79913142,48.50399006,81],[3.79848099,48.50403941,81],[3.7976208,48.50409377,81],[3.79595771,48.50423087,80.5],[3.79498537,48.50429946,80.1],[3.79376731,48.50441286,80],[3.7929585,48.50446324,79.9],[3.79273671,48.50447911,80]]},"geometry_name":"geometrie","properties":{"cleabs":"TRONFERR0000000009310468","nature":"Voie ferrée principale","position_par_rapport_au_sol":"0","etat_de_l_objet":"En service","date_creation":"2006-08-01T10:22:14.818Z","date_modification":"2025-11-26T14:01:09.583Z","date_d_apparition":null,"date_de_confirmation":null,"sources":null,"identifiants_sources":null,"methode_d_acquisition_planimetrique":"BDTopo","precision_planimetrique":2.5,"methode_d_acquisition_altimetrique":"BDTopo","precision_altimetrique":1.5,"electrifie":false,"largeur":"Normale","nombre_de_voies":2,"usage":null,"vitesse_maximale":null,"liens_vers_voie_ferree_nommee":"VOIEFERR0000002206228912","cpx_toponyme":null}},{"type":"Feature","id":"troncon_de_voie_ferree.103143","geometry":{"type":"LineString","coordinates":[[3.7718961,48.50612591,76.4],[3.76973504,48.50628837,76.5],[3.76862609,48.50637111,76.5],[3.767766,48.50643605,76],[3.76146818,48.50692369,75.5],[3.76049719,48.50699828,74.1],[3.75867432,48.50714667,75.5],[3.74737369,48.50800996,76.5],[3.74618096,48.50810832,76.4],[3.74598078,48.50812217,76.3],[3.74475566,48.50822791,76.5],[3.7441432,48.50828842,76.5],[3.743785,48.50832935,76.4],[3.74335248,48.50838064,76.4],[3.74307541,48.50841476,76.4],[3.74257004,48.50848449,76.4],[3.74159888,48.50864709,76.1],[3.74079416,48.50880324,75.9],[3.74061861,48.50883583,75.9],[3.74034185,48.50889153,76],[3.74008001,48.50894983,76.6],[3.73988299,48.50899604,76.9],[3.73957262,48.50906905,77],[3.73847578,48.50934575,77.1],[3.73825588,48.509402,77.1],[3.73783369,48.50951437,77.1],[3.73762473,48.50957864,76.5],[3.73742251,48.50964017,77],[3.73724073,48.50971147,77],[3.73718544,48.50972711,76.3],[3.73687258,48.50981631,77],[3.73672846,48.50987028,77],[3.73658703,48.50992244,76.9]]},"geometry_name":"geometrie","properties":{"cleabs":"TRONFERR0000000009310471","nature":"Voie ferrée principale","position_par_rapport_au_sol":"0","etat_de_l_objet":"En service","date_creation":"2006-08-01T10:22:14.818Z","date_modification":"2025-11-26T13:59:48.876Z","date_d_apparition":null,"date_de_confirmation":null,"sources":null,"identifiants_sources":null,"methode_d_acquisition_planimetrique":"BDTopo","precision_planimetrique":2.5,"methode_d_acquisition_altimetrique":"BDTopo","precision_altimetrique":1.5,"electrifie":false,"largeur":"Normale","nombre_de_voies":2,"usage":null,"vitesse_maximale":null,"liens_vers_voie_ferree_nommee":"VOIEFERR0000002206228912","cpx_toponyme":null}},{"type":"Feature","id":"troncon_de_voie_ferree.20798","geometry":{"type":"LineString","coordinates":[[3.79636985,48.50409047,81.3],[3.79784238,48.50397533,81.1]]},"geometry_name":"geometrie","properties":{"cleabs":"TRONFERR0000000009310480","nature":"Voie de service","position_par_rapport_au_sol":"0","etat_de_l_objet":"En service","date_creation":"2006-08-01T10:22:14.818Z","date_modification":"2021-09-22T06:59:07.132Z","date_d_apparition":null,"date_de_confirmation":null,"sources":null,"identifiants_sources":null,"methode_d_acquisition_planimetrique":"Photogrammétrie","precision_planimetrique":2.5,"methode_d_acquisition_altimetrique":"Photogrammétrie","precision_altimetrique":1.5,"electrifie":false,"largeur":"Normale","nombre_de_voies":1,"usage":null,"vitesse_maximale":null,"liens_vers_voie_ferree_nommee":null,"cpx_toponyme":null}},{"type":"Feature","id":"troncon_de_voie_ferree.20832","geometry":{"type":"LineString","coordinates":[[3.79905488,48.50376477,81.4],[3.79823406,48.50382606,81.1],[3.79772565,48.50386636,81.4],[3.79737284,48.50390112,81.5],[3.7970381,48.50396724,81.3]]},"geometry_name":"geometrie","properties":{"cleabs":"TRONFERR0000000009310481","nature":"Voie de service","position_par_rapport_au_sol":"0","etat_de_l_objet":"En service","date_creation":"2006-08-01T10:22:14.818Z","date_modification":"2021-09-22T06:59:07.132Z","date_d_apparition":null,"date_de_confirmation":null,"sources":null,"identifiants_sources":null,"methode_d_acquisition_planimetrique":"Photogrammétrie","precision_planimetrique":2.5,"methode_d_acquisition_altimetrique":"Photogrammétrie","precision_altimetrique":1.5,"electrifie":false,"largeur":"Normale","nombre_de_voies":1,"usage":null,"vitesse_maximale":null,"liens_vers_voie_ferree_nommee":null,"cpx_toponyme":null}},{"type":"Feature","id":"troncon_de_voie_ferree.103165","geometry":{"type":"LineString","coordinates":[[3.77214491,48.5061054,76.4],[3.77202862,48.50611515,76.4],[3.7718961,48.50612591,76.4]]},"geometry_name":"geometrie","properties":{"cleabs":"TRONFERR0000000009310482","nature":"Voie ferrée principale","position_par_rapport_au_sol":"1","etat_de_l_objet":"En service","date_creation":"2006-08-01T10:22:14.818Z","date_modification":"2025-11-26T14:00:30.735Z","date_d_apparition":null,"date_de_confirmation":null,"sources":null,"identifiants_sources":null,"methode_d_acquisition_planimetrique":"BDTopo","precision_planimetrique":2.5,"methode_d_acquisition_altimetrique":"BDTopo","precision_altimetrique":1.5,"electrifie":false,"largeur":"Normale","nombre_de_voies":2,"usage":null,"vitesse_maximale":null,"liens_vers_voie_ferree_nommee":"VOIEFERR0000002206228912","cpx_toponyme":null}},{"type":"Feature","id":"troncon_de_voie_ferree.20844","geometry":{"type":"LineString","coordinates":[[3.7970381,48.50396724,81.3],[3.79673152,48.50401517,81.2],[3.79636985,48.50409047,81.3]]},"geometry_name":"geometrie","properties":{"cleabs":"TRONFERR0000000009310485","nature":"Voie de service","position_par_rapport_au_sol":"0","etat_de_l_objet":"En service","date_creation":"2006-08-01T10:22:14.818Z","date_modification":"2021-09-22T06:59:07.132Z","date_d_apparition":null,"date_de_confirmation":null,"sources":null,"identifiants_sources":null,"methode_d_acquisition_planimetrique":"Photogrammétrie","precision_planimetrique":2.5,"methode_d_acquisition_altimetrique":"Photogrammétrie","precision_altimetrique":1.5,"electrifie":false,"largeur":"Normale","nombre_de_voies":1,"usage":null,"vitesse_maximale":null,"liens_vers_voie_ferree_nommee":null,"cpx_toponyme":null}},{"type":"Feature","id":"troncon_de_voie_ferree.20845","geometry":{"type":"LineString","coordinates":[[3.79784238,48.50397533,81.1],[3.79842411,48.50394893,81.2],[3.79919755,48.50388796,81.1],[3.80035368,48.50379831,81],[3.80114206,48.50374082,81.6],[3.8016707,48.50369587,81.5]]},"geometry_name":"geometrie","properties":{"cleabs":"TRONFERR0000000009310487","nature":"Voie de service","position_par_rapport_au_sol":"0","etat_de_l_objet":"En service","date_creation":"2006-08-01T10:22:14.818Z","date_modification":"2021-09-22T06:59:07.132Z","date_d_apparition":null,"date_de_confirmation":null,"sources":null,"identifiants_sources":null,"methode_d_acquisition_planimetrique":"Photogrammétrie","precision_planimetrique":2.5,"methode_d_acquisition_altimetrique":"Photogrammétrie","precision_altimetrique":1.5,"electrifie":false,"largeur":"Normale","nombre_de_voies":1,"usage":null,"vitesse_maximale":null,"liens_vers_voie_ferree_nommee":null,"cpx_toponyme":null}},{"type":"Feature","id":"troncon_de_voie_ferree.19852","geometry":{"type":"LineString","coordinates":[[3.79387787,48.50429337,80.8],[3.79474589,48.50421919,81.2],[3.79565318,48.50414655,81],[3.79636985,48.50409047,81.3]]},"geometry_name":"geometrie","properties":{"cleabs":"TRONFERR0000000009310488","nature":"Voie de service","position_par_rapport_au_sol":"0","etat_de_l_objet":"En service","date_creation":"2006-08-01T10:22:14.818Z","date_modification":"2021-09-22T06:57:34.373Z","date_d_apparition":null,"date_de_confirmation":null,"sources":null,"identifiants_sources":null,"methode_d_acquisition_planimetrique":"Photogrammétrie","precision_planimetrique":2.5,"methode_d_acquisition_altimetrique":"Photogrammétrie","precision_altimetrique":1.5,"electrifie":false,"largeur":"Normale","nombre_de_voies":1,"usage":null,"vitesse_maximale":null,"liens_vers_voie_ferree_nommee":null,"cpx_toponyme":null}},{"type":"Feature","id":"troncon_de_voie_ferree.19618","geometry":{"type":"LineString","coordinates":[[3.79273671,48.50447911,80],[3.7930675,48.50442023,80.3],[3.79357538,48.50434397,80.3],[3.79387787,48.50429337,80.8]]},"geometry_name":"geometrie","properties":{"cleabs":"TRONFERR0000000009310489","nature":"Voie de service","position_par_rapport_au_sol":"0","etat_de_l_objet":"En service","date_creation":"2006-08-01T10:22:14.818Z","date_modification":"2021-09-22T06:57:01.254Z","date_d_apparition":null,"date_de_confirmation":null,"sources":null,"identifiants_sources":null,"methode_d_acquisition_planimetrique":"Photogrammétrie","precision_planimetrique":2.5,"methode_d_acquisition_altimetrique":"Photogrammétrie","precision_altimetrique":1.5,"electrifie":false,"largeur":"Normale","nombre_de_voies":1,"usage":null,"vitesse_maximale":null,"liens_vers_voie_ferree_nommee":null,"cpx_toponyme":null}},{"type":"Feature","id":"troncon_de_voie_ferree.20846","geometry":{"type":"LineString","coordinates":[[3.7970381,48.50396724,81.3],[3.79706519,48.50396795,81.2],[3.79755798,48.50396825,81.2],[3.79784238,48.50397533,81.1]]},"geometry_name":"geometrie","properties":{"cleabs":"TRONFERR0000000009310490","nature":"Voie de service","position_par_rapport_au_sol":"0","etat_de_l_objet":"En service","date_creation":"2006-08-01T10:22:14.818Z","date_modification":"2021-09-22T06:59:07.132Z","date_d_apparition":null,"date_de_confirmation":null,"sources":null,"identifiants_sources":null,"methode_d_acquisition_planimetrique":"Photogrammétrie","precision_planimetrique":2.5,"methode_d_acquisition_altimetrique":"Photogrammétrie","precision_altimetrique":1.5,"electrifie":false,"largeur":"Normale","nombre_de_voies":1,"usage":null,"vitesse_maximale":null,"liens_vers_voie_ferree_nommee":null,"cpx_toponyme":null}},{"type":"Feature","id":"troncon_de_voie_ferree.43661","geometry":{"type":"LineString","coordinates":[[3.82006648,48.5019078,83],[3.81979514,48.50187008,82.8],[3.81934493,48.50182101,82.7],[3.81848664,48.50173336,82.3],[3.8182928,48.50171671,82.3],[3.81813834,48.50170787,82.3],[3.81792179,48.50171116,82.3],[3.81762563,48.5017312,82.3],[3.81491472,48.50194594,82.3]]},"geometry_name":"geometrie","properties":{"cleabs":"TRONFERR0000002007077895","nature":"Voie de service","position_par_rapport_au_sol":"0","etat_de_l_objet":"En service","date_creation":"2017-11-21T11:03:39.678Z","date_modification":"2021-09-22T06:48:11.168Z","date_d_apparition":null,"date_de_confirmation":"2016-07-01Z","sources":null,"identifiants_sources":null,"methode_d_acquisition_planimetrique":"Photogrammétrie","precision_planimetrique":2.5,"methode_d_acquisition_altimetrique":"Photogrammétrie","precision_altimetrique":1.5,"electrifie":false,"largeur":"Normale","nombre_de_voies":1,"usage":null,"vitesse_maximale":null,"liens_vers_voie_ferree_nommee":null,"cpx_toponyme":null}},{"type":"Feature","id":"troncon_de_voie_ferree.43660","geometry":{"type":"LineString","coordinates":[[3.80996779,48.50201125,83.1],[3.81305727,48.50176434,82.6],[3.81327513,48.50175836,82.6],[3.81339158,48.50176026,82.6],[3.81350138,48.5017694,82.5],[3.81363424,48.50178199,82.3],[3.81383111,48.50181932,82.3],[3.81408782,48.50187424,82.3],[3.8142766,48.50191343,82.3],[3.81442451,48.50193581,82.3],[3.81455731,48.50194479,82.3],[3.81470086,48.50194831,82.3],[3.81491472,48.50194594,82.3]]},"geometry_name":"geometrie","properties":{"cleabs":"TRONFERR0000002007077896","nature":"Voie de service","position_par_rapport_au_sol":"0","etat_de_l_objet":"En service","date_creation":"2017-11-21T11:03:39.678Z","date_modification":"2021-09-22T06:44:45.867Z","date_d_apparition":null,"date_de_confirmation":"2016-07-01Z","sources":null,"identifiants_sources":null,"methode_d_acquisition_planimetrique":"Photogrammétrie","precision_planimetrique":2.5,"methode_d_acquisition_altimetrique":"Photogrammétrie","precision_altimetrique":1.5,"electrifie":false,"largeur":"Normale","nombre_de_voies":1,"usage":null,"vitesse_maximale":null,"liens_vers_voie_ferree_nommee":null,"cpx_toponyme":null}}]}