{"type":"FeatureCollection","metadata":{"source":"IGN BD TOPO V3 — BDTOPO_V3:construction_lineaire","service":"https://data.geopf.fr/wfs/ows","request":"GetFeature BDTOPO_V3:construction_lineaire BBOX 755390,6819514,761486,6826372 EPSG:2154 (emprise du terrain V1.7)","retrievedAt":"2026-09-24T18:51:52.688Z","license":"Licence Ouverte Etalab 2.0 — © IGN","crs":"CRS84 (longitude, latitude, altitude BD TOPO)"},"features":[{"type":"Feature","id":"construction_lineaire.146895","geometry":{"type":"LineString","coordinates":[[3.78702447,48.52150205,76.4],[3.78701449,48.52146883,76.4],[3.78699738,48.52141136,76.6],[3.78697184,48.52133417,76.6],[3.78696474,48.52131172,76.7]]},"geometry_name":"geometrie","properties":{"cleabs":"CONSLINE0000000009332893","nature":"Pont","nature_detaillee":null,"toponyme":null,"statut_du_toponyme":null,"importance":"5","etat_de_l_objet":"En service","date_creation":"2006-08-01T10:22:14.818Z","date_modification":null,"date_d_apparition":null,"date_de_confirmation":null,"sources":null,"identifiants_sources":null,"methode_d_acquisition_planimetrique":"BDTopo","precision_planimetrique":2.5,"methode_d_acquisition_altimetrique":"BDTopo","precision_altimetrique":1.5}},{"type":"Feature","id":"construction_lineaire.146894","geometry":{"type":"LineString","coordinates":[[3.78783101,48.52452842,76.3],[3.78781899,48.52444934,76.5]]},"geometry_name":"geometrie","properties":{"cleabs":"CONSLINE0000000009332894","nature":"Pont","nature_detaillee":null,"toponyme":null,"statut_du_toponyme":null,"importance":"5","etat_de_l_objet":"En service","date_creation":"2006-08-01T10:22:14.818Z","date_modification":null,"date_d_apparition":null,"date_de_confirmation":null,"sources":null,"identifiants_sources":null,"methode_d_acquisition_planimetrique":"BDTopo","precision_planimetrique":2.5,"methode_d_acquisition_altimetrique":"BDTopo","precision_altimetrique":1.5}},{"type":"Feature","id":"construction_lineaire.146893","geometry":{"type":"LineString","coordinates":[[3.78777112,48.52414738,77],[3.78775781,48.5240728,77],[3.78772181,48.52384004,77],[3.78771133,48.52377354,77.1]]},"geometry_name":"geometrie","properties":{"cleabs":"CONSLINE0000000009332895","nature":"Pont","nature_detaillee":null,"toponyme":null,"statut_du_toponyme":null,"importance":"5","etat_de_l_objet":"En service","date_creation":"2006-08-01T10:22:14.818Z","date_modification":null,"date_d_apparition":null,"date_de_confirmation":null,"sources":null,"identifiants_sources":null,"methode_d_acquisition_planimetrique":"BDTopo","precision_planimetrique":2.5,"methode_d_acquisition_altimetrique":"BDTopo","precision_altimetrique":1.5}},{"type":"Feature","id":"construction_lineaire.146870","geometry":{"type":"LineString","coordinates":[[3.80361815,48.51700085,76.3],[3.80355526,48.51696169,76.4],[3.80349925,48.51692968,76.5]]},"geometry_name":"geometrie","properties":{"cleabs":"CONSLINE0000000009332949","nature":"Pont","nature_detaillee":null,"toponyme":null,"statut_du_toponyme":null,"importance":"5","etat_de_l_objet":"En service","date_creation":"2006-08-01T10:22:14.818Z","date_modification":null,"date_d_apparition":null,"date_de_confirmation":null,"sources":null,"identifiants_sources":null,"methode_d_acquisition_planimetrique":"BDTopo","precision_planimetrique":2.5,"methode_d_acquisition_altimetrique":"BDTopo","precision_altimetrique":1.5}},{"type":"Feature","id":"construction_lineaire.837070","geometry":{"type":"LineString","coordinates":[[3.80101864,48.51454532,76.8],[3.80100618,48.51452741,76.9],[3.80099223,48.51450052,76.6],[3.80093514,48.51439745,75.5],[3.8009143,48.5143625,76.9]]},"geometry_name":"geometrie","properties":{"cleabs":"CONSLINE0000000009332950","nature":"Pont","nature_detaillee":null,"toponyme":"Pont de Clairvaux","statut_du_toponyme":"Collecté","importance":"5","etat_de_l_objet":"En service","date_creation":"2006-08-01T10:22:14.818Z","date_modification":null,"date_d_apparition":null,"date_de_confirmation":null,"sources":null,"identifiants_sources":null,"methode_d_acquisition_planimetrique":"BDTopo","precision_planimetrique":2.5,"methode_d_acquisition_altimetrique":"BDTopo","precision_altimetrique":1.5}},{"type":"Feature","id":"construction_lineaire.146869","geometry":{"type":"LineString","coordinates":[[3.78570838,48.51790147,75.7],[3.78566603,48.5177866,75.7]]},"geometry_name":"geometrie","properties":{"cleabs":"CONSLINE0000000009332951","nature":"Pont","nature_detaillee":null,"toponyme":null,"statut_du_toponyme":null,"importance":"5","etat_de_l_objet":"En service","date_creation":"2006-08-01T10:22:14.818Z","date_modification":null,"date_d_apparition":null,"date_de_confirmation":null,"sources":null,"identifiants_sources":null,"methode_d_acquisition_planimetrique":"BDTopo","precision_planimetrique":2.5,"methode_d_acquisition_altimetrique":"BDTopo","precision_altimetrique":1.5}},{"type":"Feature","id":"construction_lineaire.146868","geometry":{"type":"LineString","coordinates":[[3.78532983,48.51504766,74.9],[3.7853334,48.51501525,74.9],[3.78533829,48.51498014,74.9]]},"geometry_name":"geometrie","properties":{"cleabs":"CONSLINE0000000009332952","nature":"Pont","nature_detaillee":null,"toponyme":null,"statut_du_toponyme":null,"importance":"5","etat_de_l_objet":"En service","date_creation":"2006-08-01T10:22:14.818Z","date_modification":null,"date_d_apparition":null,"date_de_confirmation":null,"sources":null,"identifiants_sources":null,"methode_d_acquisition_planimetrique":"Photogrammétrie","precision_planimetrique":2.5,"methode_d_acquisition_altimetrique":"Photogrammétrie","precision_altimetrique":1.5}},{"type":"Feature","id":"construction_lineaire.146867","geometry":{"type":"LineString","coordinates":[[3.75773901,48.52009822,75.2],[3.75778088,48.52018432,75.2]]},"geometry_name":"geometrie","properties":{"cleabs":"CONSLINE0000000009332953","nature":"Pont","nature_detaillee":null,"toponyme":null,"statut_du_toponyme":null,"importance":"5","etat_de_l_objet":"En service","date_creation":"2006-08-01T10:22:14.818Z","date_modification":null,"date_d_apparition":null,"date_de_confirmation":null,"sources":null,"identifiants_sources":null,"methode_d_acquisition_planimetrique":"Photogrammétrie","precision_planimetrique":2.5,"methode_d_acquisition_altimetrique":"Photogrammétrie","precision_altimetrique":1.5}},{"type":"Feature","id":"construction_lineaire.146866","geometry":{"type":"LineString","coordinates":[[3.75488661,48.51545634,74.9],[3.75486178,48.51542411,74.9],[3.75483553,48.51538829,74.9]]},"geometry_name":"geometrie","properties":{"cleabs":"CONSLINE0000000009332954","nature":"Pont","nature_detaillee":null,"toponyme":null,"statut_du_toponyme":null,"importance":"5","etat_de_l_objet":"En service","date_creation":"2006-08-01T10:22:14.818Z","date_modification":null,"date_d_apparition":null,"date_de_confirmation":null,"sources":null,"identifiants_sources":null,"methode_d_acquisition_planimetrique":"BDTopo","precision_planimetrique":2.5,"methode_d_acquisition_altimetrique":"BDTopo","precision_altimetrique":1.5}},{"type":"Feature","id":"construction_lineaire.585555","geometry":{"type":"LineString","coordinates":[[3.79338822,48.51345398,76.9],[3.79328756,48.51315508,76.9],[3.79386475,48.51309005,76.9],[3.79440877,48.51333831,77],[3.79471466,48.51350899,77]]},"geometry_name":"geometrie","properties":{"cleabs":"CONSLINE0000000009333029","nature":"Mur","nature_detaillee":null,"toponyme":null,"statut_du_toponyme":null,"importance":"5","etat_de_l_objet":"En service","date_creation":"2006-08-01T10:22:14.818Z","date_modification":"2023-02-24T16:43:23.271Z","date_d_apparition":null,"date_de_confirmation":null,"sources":null,"identifiants_sources":null,"methode_d_acquisition_planimetrique":"BDTopo","precision_planimetrique":2.5,"methode_d_acquisition_altimetrique":"BDTopo","precision_altimetrique":1.5}},{"type":"Feature","id":"construction_lineaire.146825","geometry":{"type":"LineString","coordinates":[[3.75077044,48.51253975,74.9],[3.75074863,48.51252999,74.9],[3.75067506,48.51249807,74.8],[3.75057699,48.51245731,74.8]]},"geometry_name":"geometrie","properties":{"cleabs":"CONSLINE0000000009333031","nature":"Pont","nature_detaillee":null,"toponyme":null,"statut_du_toponyme":null,"importance":"5","etat_de_l_objet":"En service","date_creation":"2006-08-01T10:22:14.818Z","date_modification":null,"date_d_apparition":null,"date_de_confirmation":null,"sources":null,"identifiants_sources":null,"methode_d_acquisition_planimetrique":"BDTopo","precision_planimetrique":2.5,"methode_d_acquisition_altimetrique":"BDTopo","precision_altimetrique":1.5}},{"type":"Feature","id":"construction_lineaire.114128","geometry":{"type":"LineString","coordinates":[[3.82223669,48.5011407,87.5],[3.82156806,48.50097439,85.1],[3.82068735,48.50075107,84.9],[3.81988667,48.50053709,84.8],[3.81958634,48.50046269,84.7],[3.8185194,48.50018846,84.8],[3.81769023,48.49996926,84.8],[3.81769119,48.49994406,87.5]]},"geometry_name":"geometrie","properties":{"cleabs":"CONSLINE0000000009333103","nature":"Mur","nature_detaillee":null,"toponyme":null,"statut_du_toponyme":null,"importance":"5","etat_de_l_objet":"En service","date_creation":"2006-08-01T10:22:14.818Z","date_modification":"2010-07-07T07:51:17.816Z","date_d_apparition":null,"date_de_confirmation":null,"sources":null,"identifiants_sources":null,"methode_d_acquisition_planimetrique":"BDTopo","precision_planimetrique":2.5,"methode_d_acquisition_altimetrique":"BDTopo","precision_altimetrique":1.5}},{"type":"Feature","id":"construction_lineaire.620734","geometry":{"type":"LineString","coordinates":[[3.8192452,48.49976872,88.5],[3.81888938,48.49969471,88.5],[3.81767484,48.49976335,87.2],[3.81738945,48.4997788,87.3],[3.81630334,48.49983665,87.5],[3.81606938,48.49985175,87],[3.81505229,48.49990822,87],[3.81482467,48.50006991,86.1]]},"geometry_name":"geometrie","properties":{"cleabs":"CONSLINE0000000009333104","nature":"Mur","nature_detaillee":null,"toponyme":null,"statut_du_toponyme":null,"importance":"5","etat_de_l_objet":"En service","date_creation":"2006-08-01T10:22:14.818Z","date_modification":"2018-11-08T15:22:46.947Z","date_d_apparition":null,"date_de_confirmation":null,"sources":null,"identifiants_sources":null,"methode_d_acquisition_planimetrique":"BDTopo","precision_planimetrique":2.5,"methode_d_acquisition_altimetrique":"BDTopo","precision_altimetrique":1.5}},{"type":"Feature","id":"construction_lineaire.110496","geometry":{"type":"LineString","coordinates":[[3.81769119,48.49994406,87.5],[3.81767484,48.49976335,87.2]]},"geometry_name":"geometrie","properties":{"cleabs":"CONSLINE0000000009333105","nature":"Mur","nature_detaillee":null,"toponyme":null,"statut_du_toponyme":null,"importance":"5","etat_de_l_objet":"En service","date_creation":"2006-08-01T10:22:14.818Z","date_modification":"2010-07-07T07:51:17.816Z","date_d_apparition":null,"date_de_confirmation":null,"sources":null,"identifiants_sources":null,"methode_d_acquisition_planimetrique":"BDTopo","precision_planimetrique":2.5,"methode_d_acquisition_altimetrique":"BDTopo","precision_altimetrique":1.5}},{"type":"Feature","id":"construction_lineaire.105025","geometry":{"type":"LineString","coordinates":[[3.82201222,48.50167484,86.5],[3.82223669,48.5011407,87.5]]},"geometry_name":"geometrie","properties":{"cleabs":"CONSLINE0000000009333106","nature":"Mur","nature_detaillee":null,"toponyme":null,"statut_du_toponyme":null,"importance":"5","etat_de_l_objet":"En service","date_creation":"2006-08-01T10:22:14.818Z","date_modification":"2010-07-07T07:51:17.816Z","date_d_apparition":null,"date_de_confirmation":null,"sources":null,"identifiants_sources":null,"methode_d_acquisition_planimetrique":"BDTopo","precision_planimetrique":2.5,"methode_d_acquisition_altimetrique":"BDTopo","precision_altimetrique":1.5}},{"type":"Feature","id":"construction_lineaire.620732","geometry":{"type":"LineString","coordinates":[[3.80611996,48.50039379,85.9],[3.80613048,48.50046119,84.9],[3.80626971,48.50141746,85.9],[3.8063825,48.50223806,85.4],[3.80648955,48.50303801,82.7],[3.80650157,48.5031153,82.9],[3.80650175,48.50312699,83]]},"geometry_name":"geometrie","properties":{"cleabs":"CONSLINE0000000009333107","nature":"Mur","nature_detaillee":null,"toponyme":null,"statut_du_toponyme":null,"importance":"5","etat_de_l_objet":"En service","date_creation":"2006-08-01T10:22:14.818Z","date_modification":"2018-11-08T15:22:46.947Z","date_d_apparition":null,"date_de_confirmation":null,"sources":null,"identifiants_sources":null,"methode_d_acquisition_planimetrique":"BDTopo","precision_planimetrique":2.5,"methode_d_acquisition_altimetrique":"BDTopo","precision_altimetrique":1.5}},{"type":"Feature","id":"construction_lineaire.52945","geometry":{"type":"LineString","coordinates":[[3.80372959,48.50350473,86],[3.80374082,48.50361891,86.1],[3.80375885,48.50373574,86.1]]},"geometry_name":"geometrie","properties":{"cleabs":"CONSLINE0000000009333108","nature":"Pont","nature_detaillee":null,"toponyme":null,"statut_du_toponyme":null,"importance":"5","etat_de_l_objet":"En service","date_creation":"2006-08-01T10:22:14.818Z","date_modification":null,"date_d_apparition":null,"date_de_confirmation":null,"sources":null,"identifiants_sources":null,"methode_d_acquisition_planimetrique":"BDTopo","precision_planimetrique":2.5,"methode_d_acquisition_altimetrique":"BDTopo","precision_altimetrique":1.5}},{"type":"Feature","id":"construction_lineaire.146795","geometry":{"type":"LineString","coordinates":[[3.7718961,48.50612591,76.4],[3.77202862,48.50611515,76.4],[3.77214491,48.5061054,76.4]]},"geometry_name":"geometrie","properties":{"cleabs":"CONSLINE0000000009333111","nature":"Pont","nature_detaillee":null,"toponyme":null,"statut_du_toponyme":null,"importance":"5","etat_de_l_objet":"En service","date_creation":"2006-08-01T10:22:14.818Z","date_modification":null,"date_d_apparition":null,"date_de_confirmation":null,"sources":null,"identifiants_sources":null,"methode_d_acquisition_planimetrique":"BDTopo","precision_planimetrique":2.5,"methode_d_acquisition_altimetrique":"BDTopo","precision_altimetrique":1.5}},{"type":"Feature","id":"construction_lineaire.249109","geometry":{"type":"LineString","coordinates":[[3.82113854,48.53148647,77],[3.82117165,48.53152493,77],[3.82119233,48.53154817,77]]},"geometry_name":"geometrie","properties":{"cleabs":"CONSLINE0000000065141843","nature":"Pont","nature_detaillee":null,"toponyme":null,"statut_du_toponyme":null,"importance":"5","etat_de_l_objet":"En service","date_creation":"2007-03-07T12:15:41.776Z","date_modification":null,"date_d_apparition":null,"date_de_confirmation":null,"sources":null,"identifiants_sources":null,"methode_d_acquisition_planimetrique":"BDTopo","precision_planimetrique":2.5,"methode_d_acquisition_altimetrique":"BDTopo","precision_altimetrique":1.5}},{"type":"Feature","id":"construction_lineaire.249107","geometry":{"type":"LineString","coordinates":[[3.82191382,48.53238253,77],[3.8219456,48.53242279,77],[3.82196081,48.53244248,77]]},"geometry_name":"geometrie","properties":{"cleabs":"CONSLINE0000000065141844","nature":"Pont","nature_detaillee":null,"toponyme":null,"statut_du_toponyme":null,"importance":"5","etat_de_l_objet":"En service","date_creation":"2007-03-07T12:15:41.776Z","date_modification":null,"date_d_apparition":null,"date_de_confirmation":null,"sources":null,"identifiants_sources":null,"methode_d_acquisition_planimetrique":"BDTopo","precision_planimetrique":2.5,"methode_d_acquisition_altimetrique":"BDTopo","precision_altimetrique":1.5}},{"type":"Feature","id":"construction_lineaire.249106","geometry":{"type":"LineString","coordinates":[[3.81598567,48.53251063,77.5],[3.81591012,48.53244278,77.5],[3.81582082,48.53236242,77.5]]},"geometry_name":"geometrie","properties":{"cleabs":"CONSLINE0000000065141845","nature":"Pont","nature_detaillee":null,"toponyme":null,"statut_du_toponyme":null,"importance":"5","etat_de_l_objet":"En service","date_creation":"2007-03-07T12:15:41.776Z","date_modification":null,"date_d_apparition":null,"date_de_confirmation":null,"sources":null,"identifiants_sources":null,"methode_d_acquisition_planimetrique":"BDTopo","precision_planimetrique":2.5,"methode_d_acquisition_altimetrique":"BDTopo","precision_altimetrique":1.5}},{"type":"Feature","id":"construction_lineaire.568225","geometry":{"type":"LineString","coordinates":[[3.81866397,48.53392351,76.9],[3.81856672,48.53385491,77.1],[3.81850918,48.53381302,77.3]]},"geometry_name":"geometrie","properties":{"cleabs":"CONSLINE0000000065141846","nature":"Pont","nature_detaillee":null,"toponyme":null,"statut_du_toponyme":null,"importance":"5","etat_de_l_objet":"En service","date_creation":"2007-03-07T12:15:41.776Z","date_modification":"2016-11-02T07:21:28.176Z","date_d_apparition":null,"date_de_confirmation":null,"sources":null,"identifiants_sources":null,"methode_d_acquisition_planimetrique":"BDTopo","precision_planimetrique":2.5,"methode_d_acquisition_altimetrique":"BDTopo","precision_altimetrique":1.5}},{"type":"Feature","id":"construction_lineaire.249105","geometry":{"type":"LineString","coordinates":[[3.81510621,48.53178977,77.5],[3.81502261,48.53172737,77.5],[3.8149719,48.53168904,77.5]]},"geometry_name":"geometrie","properties":{"cleabs":"CONSLINE0000000065141847","nature":"Pont","nature_detaillee":null,"toponyme":null,"statut_du_toponyme":null,"importance":"5","etat_de_l_objet":"En service","date_creation":"2007-03-07T12:15:41.776Z","date_modification":null,"date_d_apparition":null,"date_de_confirmation":null,"sources":null,"identifiants_sources":null,"methode_d_acquisition_planimetrique":"BDTopo","precision_planimetrique":2.5,"methode_d_acquisition_altimetrique":"BDTopo","precision_altimetrique":1.5}},{"type":"Feature","id":"construction_lineaire.249104","geometry":{"type":"LineString","coordinates":[[3.77528628,48.53389762,74.5],[3.77535325,48.53384681,74.5],[3.7754095,48.53380326,74.5]]},"geometry_name":"geometrie","properties":{"cleabs":"CONSLINE0000000065141848","nature":"Pont","nature_detaillee":null,"toponyme":null,"statut_du_toponyme":null,"importance":"5","etat_de_l_objet":"En service","date_creation":"2007-03-07T12:15:41.776Z","date_modification":null,"date_d_apparition":null,"date_de_confirmation":null,"sources":null,"identifiants_sources":null,"methode_d_acquisition_planimetrique":"BDTopo","precision_planimetrique":2.5,"methode_d_acquisition_altimetrique":"BDTopo","precision_altimetrique":1.5}},{"type":"Feature","id":"construction_lineaire.249103","geometry":{"type":"LineString","coordinates":[[3.76524869,48.53322857,74.4],[3.76523478,48.53320347,73.9],[3.76521253,48.53316403,74.4]]},"geometry_name":"geometrie","properties":{"cleabs":"CONSLINE0000000065141849","nature":"Pont","nature_detaillee":null,"toponyme":null,"statut_du_toponyme":null,"importance":"5","etat_de_l_objet":"En service","date_creation":"2007-03-07T12:15:41.776Z","date_modification":null,"date_d_apparition":null,"date_de_confirmation":null,"sources":null,"identifiants_sources":null,"methode_d_acquisition_planimetrique":"BDTopo","precision_planimetrique":2.5,"methode_d_acquisition_altimetrique":"BDTopo","precision_altimetrique":1.5}},{"type":"Feature","id":"construction_lineaire.249119","geometry":{"type":"LineString","coordinates":[[3.7496625,48.53383435,72.4],[3.74965381,48.53379482,72.2],[3.74964655,48.53376068,72.3]]},"geometry_name":"geometrie","properties":{"cleabs":"CONSLINE0000000065141851","nature":"Pont","nature_detaillee":null,"toponyme":null,"statut_du_toponyme":null,"importance":"5","etat_de_l_objet":"En service","date_creation":"2007-03-07T12:15:41.776Z","date_modification":"2011-08-25T14:31:16.101Z","date_d_apparition":null,"date_de_confirmation":null,"sources":null,"identifiants_sources":null,"methode_d_acquisition_planimetrique":"BDTopo","precision_planimetrique":2.5,"methode_d_acquisition_altimetrique":"BDTopo","precision_altimetrique":1.5}},{"type":"Feature","id":"construction_lineaire.249122","geometry":{"type":"LineString","coordinates":[[3.81918463,48.52953339,77],[3.81919563,48.52954411,77],[3.8192218,48.52957181,76.3],[3.81927962,48.52963169,77]]},"geometry_name":"geometrie","properties":{"cleabs":"CONSLINE0000000065141855","nature":"Pont","nature_detaillee":null,"toponyme":null,"statut_du_toponyme":null,"importance":"5","etat_de_l_objet":"En service","date_creation":"2007-03-07T12:15:41.776Z","date_modification":null,"date_d_apparition":null,"date_de_confirmation":null,"sources":null,"identifiants_sources":null,"methode_d_acquisition_planimetrique":"BDTopo","precision_planimetrique":2.5,"methode_d_acquisition_altimetrique":"BDTopo","precision_altimetrique":1.5}},{"type":"Feature","id":"construction_lineaire.849661","geometry":{"type":"LineString","coordinates":[[3.82010516,48.52595015,77.4],[3.81998369,48.52580435,76.2]]},"geometry_name":"geometrie","properties":{"cleabs":"CONSLINE0000000065141856","nature":"Barrage","nature_detaillee":"Seuil","toponyme":null,"statut_du_toponyme":null,"importance":"5","etat_de_l_objet":"En service","date_creation":"2007-03-07T12:15:41.776Z","date_modification":"2021-06-18T07:31:07.680Z","date_d_apparition":null,"date_de_confirmation":null,"sources":null,"identifiants_sources":null,"methode_d_acquisition_planimetrique":"BDTopo","precision_planimetrique":2.5,"methode_d_acquisition_altimetrique":"BDTopo","precision_altimetrique":1.5}},{"type":"Feature","id":"construction_lineaire.837839","geometry":{"type":"LineString","coordinates":[[3.82846775,48.52282444,78.8],[3.82846807,48.52284423,78.8],[3.82847315,48.52290897,78.8],[3.82848707,48.52301863,78.8],[3.82849135,48.52303209,78.7],[3.82850402,48.52306259,78.7]]},"geometry_name":"geometrie","properties":{"cleabs":"CONSLINE0000000065141857","nature":"Pont","nature_detaillee":null,"toponyme":"Pont des Marais","statut_du_toponyme":"Validé","importance":"4","etat_de_l_objet":"En service","date_creation":"2007-03-07T12:15:41.776Z","date_modification":"2016-11-02T07:21:28.176Z","date_d_apparition":null,"date_de_confirmation":null,"sources":null,"identifiants_sources":null,"methode_d_acquisition_planimetrique":"BDTopo","precision_planimetrique":2.5,"methode_d_acquisition_altimetrique":"BDTopo","precision_altimetrique":1.5}},{"type":"Feature","id":"construction_lineaire.568227","geometry":{"type":"LineString","coordinates":[[3.81726502,48.52751256,76],[3.8172185,48.52748229,76],[3.8171583,48.52744312,76.2],[3.81709674,48.52740396,75.5]]},"geometry_name":"geometrie","properties":{"cleabs":"CONSLINE0000000065141858","nature":"Pont","nature_detaillee":null,"toponyme":null,"statut_du_toponyme":null,"importance":"5","etat_de_l_objet":"En service","date_creation":"2007-03-07T12:15:41.776Z","date_modification":"2016-11-02T07:21:28.176Z","date_d_apparition":null,"date_de_confirmation":null,"sources":null,"identifiants_sources":null,"methode_d_acquisition_planimetrique":"BDTopo","precision_planimetrique":2.5,"methode_d_acquisition_altimetrique":"BDTopo","precision_altimetrique":1.5}},{"type":"Feature","id":"construction_lineaire.835786","geometry":{"type":"LineString","coordinates":[[3.81055775,48.5284599,78.1],[3.81051534,48.5284323,78.2],[3.8104305,48.5283762,78.5],[3.81033196,48.5283103,78.3],[3.81030323,48.52829161,78.3]]},"geometry_name":"geometrie","properties":{"cleabs":"CONSLINE0000000065141860","nature":"Pont","nature_detaillee":null,"toponyme":"Pont du Gué du Château","statut_du_toponyme":"Validé","importance":"4","etat_de_l_objet":"En service","date_creation":"2007-03-07T12:15:41.776Z","date_modification":"2014-07-28T16:35:17.964Z","date_d_apparition":null,"date_de_confirmation":null,"sources":null,"identifiants_sources":null,"methode_d_acquisition_planimetrique":"BDTopo","precision_planimetrique":2.5,"methode_d_acquisition_altimetrique":"BDTopo","precision_altimetrique":1.5}},{"type":"Feature","id":"construction_lineaire.249121","geometry":{"type":"LineString","coordinates":[[3.82380756,48.52238723,77],[3.82384797,48.52237345,77],[3.82396242,48.52233128,77]]},"geometry_name":"geometrie","properties":{"cleabs":"CONSLINE0000000065141862","nature":"Pont","nature_detaillee":null,"toponyme":null,"statut_du_toponyme":null,"importance":"5","etat_de_l_objet":"En service","date_creation":"2007-03-07T12:15:41.776Z","date_modification":null,"date_d_apparition":null,"date_de_confirmation":null,"sources":null,"identifiants_sources":null,"methode_d_acquisition_planimetrique":"BDTopo","precision_planimetrique":2.5,"methode_d_acquisition_altimetrique":"BDTopo","precision_altimetrique":1.5}},{"type":"Feature","id":"construction_lineaire.48091","geometry":{"type":"LineString","coordinates":[[3.78495789,48.52711224,73.5],[3.78489892,48.52715401,73.5]]},"geometry_name":"geometrie","properties":{"cleabs":"CONSLINE0000000099212503","nature":"Pont","nature_detaillee":null,"toponyme":null,"statut_du_toponyme":null,"importance":"5","etat_de_l_objet":"En service","date_creation":"2007-10-10T12:57:05.677Z","date_modification":"2019-06-26T07:48:36.716Z","date_d_apparition":null,"date_de_confirmation":null,"sources":null,"identifiants_sources":null,"methode_d_acquisition_planimetrique":"BDTopo","precision_planimetrique":2.5,"methode_d_acquisition_altimetrique":"BDTopo","precision_altimetrique":1.5}},{"type":"Feature","id":"construction_lineaire.620733","geometry":{"type":"LineString","coordinates":[[3.81472054,48.50007692,-1000],[3.81465284,48.50007559,-1000],[3.81448022,48.49994363,-1000],[3.8072004,48.50031718,-1000],[3.8072007,48.50033697,-1000],[3.80611996,48.50039379,-1000]]},"geometry_name":"geometrie","properties":{"cleabs":"CONSLINE0000000240640909","nature":"Mur","nature_detaillee":null,"toponyme":null,"statut_du_toponyme":null,"importance":"5","etat_de_l_objet":"En service","date_creation":"2010-07-07T07:51:17.816Z","date_modification":"2018-11-08T15:22:46.947Z","date_d_apparition":null,"date_de_confirmation":null,"sources":null,"identifiants_sources":null,"methode_d_acquisition_planimetrique":"Orthophotographie","precision_planimetrique":3,"methode_d_acquisition_altimetrique":"Pas de Z","precision_altimetrique":9999}},{"type":"Feature","id":"construction_lineaire.312405","geometry":{"type":"LineString","coordinates":[[3.76131628,48.52789843,73.7],[3.76129418,48.52796244,73.7]]},"geometry_name":"geometrie","properties":{"cleabs":"CONSLINE0000000258591870","nature":"Pont","nature_detaillee":null,"toponyme":null,"statut_du_toponyme":null,"importance":"5","etat_de_l_objet":"En service","date_creation":"2011-05-26T09:47:37.879Z","date_modification":null,"date_d_apparition":null,"date_de_confirmation":null,"sources":null,"identifiants_sources":null,"methode_d_acquisition_planimetrique":"Photogrammétrie","precision_planimetrique":2.5,"methode_d_acquisition_altimetrique":"Photogrammétrie","precision_altimetrique":1.5}},{"type":"Feature","id":"construction_lineaire.312406","geometry":{"type":"LineString","coordinates":[[3.76121992,48.52769843,71.9],[3.76123217,48.52779551,73.6]]},"geometry_name":"geometrie","properties":{"cleabs":"CONSLINE0000000258591871","nature":"Pont","nature_detaillee":null,"toponyme":null,"statut_du_toponyme":null,"importance":"5","etat_de_l_objet":"En service","date_creation":"2011-05-26T09:47:37.879Z","date_modification":null,"date_d_apparition":null,"date_de_confirmation":null,"sources":null,"identifiants_sources":null,"methode_d_acquisition_planimetrique":"Photogrammétrie","precision_planimetrique":2.5,"methode_d_acquisition_altimetrique":"Photogrammétrie","precision_altimetrique":1.5}},{"type":"Feature","id":"construction_lineaire.514489","geometry":{"type":"LineString","coordinates":[[3.78485322,48.53260778,-1000],[3.78491076,48.5328323,-1000]]},"geometry_name":"geometrie","properties":{"cleabs":"CONSLINE0000000328328323","nature":"Pont","nature_detaillee":"Passerelle","toponyme":null,"statut_du_toponyme":null,"importance":"5","etat_de_l_objet":"En service","date_creation":"2013-10-10T11:21:42.214Z","date_modification":null,"date_d_apparition":null,"date_de_confirmation":null,"sources":null,"identifiants_sources":null,"methode_d_acquisition_planimetrique":"Orthophotographie","precision_planimetrique":3,"methode_d_acquisition_altimetrique":"Pas de Z","precision_altimetrique":9999}},{"type":"Feature","id":"construction_lineaire.828247","geometry":{"type":"LineString","coordinates":[[3.82201222,48.50167484,-1000],[3.82196163,48.50172917,-1000],[3.82194285,48.50174009,-1000],[3.82178019,48.50172682,-1000],[3.82176007,48.50182502,-1000],[3.821375,48.50187267,-1000],[3.82130879,48.50188032,-1000],[3.82131389,48.50194686,-1000],[3.8210853,48.50195924,-1000],[3.82081472,48.5019701,-1000],[3.82081146,48.5020214,-1000],[3.82079809,48.50203229,-1000],[3.82042588,48.50203666,-1000],[3.81990988,48.50202223,-1000],[3.81914619,48.50201131,-1000],[3.81891192,48.50200662,-1000],[3.81805736,48.50207099,-1000],[3.81720823,48.50213711,-1000],[3.81631318,48.50220983,-1000],[3.81518414,48.50229585,-1000],[3.81417821,48.50237742,-1000],[3.81302486,48.50246808,-1000],[3.81221493,48.5025312,-1000],[3.81116027,48.50261307,-1000],[3.81102231,48.50262121,-1000],[3.81060906,48.50268611,-1000],[3.81002843,48.50278273,-1000],[3.80904131,48.50294329,-1000],[3.80888738,48.50296953,-1000],[3.80829773,48.50300773,-1000],[3.80793529,48.50303179,-1000],[3.80692642,48.50309982,-1000],[3.80650175,48.50312699,-1000]]},"geometry_name":"geometrie","properties":{"cleabs":"CONSLINE0000002101779546","nature":"Clôture","nature_detaillee":null,"toponyme":null,"statut_du_toponyme":null,"importance":"5","etat_de_l_objet":"En service","date_creation":"2018-11-08T15:22:46.947Z","date_modification":null,"date_d_apparition":null,"date_de_confirmation":null,"sources":null,"identifiants_sources":null,"methode_d_acquisition_planimetrique":"Orthophotographie","precision_planimetrique":3,"methode_d_acquisition_altimetrique":"Pas de Z","precision_altimetrique":9999}},{"type":"Feature","id":"construction_lineaire.48092","geometry":{"type":"LineString","coordinates":[[3.78504099,48.52705412,75.4],[3.78495789,48.52711224,73.5]]},"geometry_name":"geometrie","properties":{"cleabs":"CONSLINE0000002203222884","nature":"Pont","nature_detaillee":null,"toponyme":null,"statut_du_toponyme":null,"importance":"5","etat_de_l_objet":"En service","date_creation":"2019-06-26T07:48:36.716Z","date_modification":null,"date_d_apparition":null,"date_de_confirmation":null,"sources":null,"identifiants_sources":null,"methode_d_acquisition_planimetrique":"BDTopo","precision_planimetrique":2.5,"methode_d_acquisition_altimetrique":"BDTopo","precision_altimetrique":1.5}},{"type":"Feature","id":"construction_lineaire.48093","geometry":{"type":"LineString","coordinates":[[3.76310496,48.50375549,-1000],[3.7631355,48.50352858,-1000]]},"geometry_name":"geometrie","properties":{"cleabs":"CONSLINE0000002203222885","nature":"Pont","nature_detaillee":null,"toponyme":null,"statut_du_toponyme":null,"importance":"5","etat_de_l_objet":"En service","date_creation":"2019-06-26T07:48:36.716Z","date_modification":null,"date_d_apparition":null,"date_de_confirmation":null,"sources":null,"identifiants_sources":null,"methode_d_acquisition_planimetrique":"Orthophotographie","precision_planimetrique":3,"methode_d_acquisition_altimetrique":"Pas de Z","precision_altimetrique":9999}},{"type":"Feature","id":"construction_lineaire.48094","geometry":{"type":"LineString","coordinates":[[3.76175279,48.50405295,-1000],[3.76156188,48.50386525,-1000]]},"geometry_name":"geometrie","properties":{"cleabs":"CONSLINE0000002203222886","nature":"Pont","nature_detaillee":null,"toponyme":null,"statut_du_toponyme":null,"importance":"5","etat_de_l_objet":"En service","date_creation":"2019-06-26T07:48:36.716Z","date_modification":null,"date_d_apparition":null,"date_de_confirmation":null,"sources":null,"identifiants_sources":null,"methode_d_acquisition_planimetrique":"Orthophotographie","precision_planimetrique":3,"methode_d_acquisition_altimetrique":"Pas de Z","precision_altimetrique":9999}},{"type":"Feature","id":"construction_lineaire.866749","geometry":{"type":"LineString","coordinates":[[3.7974658,48.51456022,78.9],[3.79751034,48.51455092,78.9],[3.79748662,48.5145052,78.8],[3.79744478,48.51451358,78.8],[3.79746292,48.51454944,78.8]]},"geometry_name":"geometrie","properties":{"cleabs":"CONSLINE0000002220728451","nature":"Ruines","nature_detaillee":null,"toponyme":null,"statut_du_toponyme":null,"importance":"5","etat_de_l_objet":"En ruine","date_creation":"2020-11-30T19:08:47.148Z","date_modification":"2022-02-11T16:00:08.605Z","date_d_apparition":null,"date_de_confirmation":"2019-09-04Z","sources":null,"identifiants_sources":null,"methode_d_acquisition_planimetrique":"Photogrammétrie","precision_planimetrique":2.5,"methode_d_acquisition_altimetrique":"Photogrammétrie","precision_altimetrique":1.5}}]}