{"type":"FeatureCollection","metadata":{"source":"IGN BD TOPO V3 — BDTOPO_V3:point_du_reseau","service":"https://data.geopf.fr/wfs/ows","request":"GetFeature BDTOPO_V3:point_du_reseau BBOX 755390,6819514,761486,6826372 EPSG:2154 (emprise du terrain V1.7)","retrievedAt":"2026-09-24T18:51:52.325Z","license":"Licence Ouverte Etalab 2.0 — © IGN","crs":"CRS84 (longitude, latitude, altitude BD TOPO)"},"features":[{"type":"Feature","id":"point_du_reseau.19243","geometry":{"type":"Point","coordinates":[3.81060734,48.52772457,-1000]},"geometry_name":"geometrie","properties":{"cleabs":"PT_RESEA0000000240591700","nature":"Barrière","nature_detaillee":null,"altitude":null,"toponyme":null,"statut_du_toponyme":null,"etat_de_l_objet":"En service","date_creation":"2010-07-06T12:35:18.236Z","date_modification":"2019-09-23T20:00:29.374Z","date_d_apparition":null,"date_de_confirmation":null,"sources":null,"identifiants_sources":"","methode_d_acquisition_planimetrique":"Levé non GPS","precision_planimetrique":5,"methode_d_acquisition_altimetrique":"Pas de Z","precision_altimetrique":999,"insee_commune":"51155","identifiant_voie_ban":null,"id_ban_odonyme":null}},{"type":"Feature","id":"point_du_reseau.19256","geometry":{"type":"Point","coordinates":[3.81477869,48.50007293,85.3]},"geometry_name":"geometrie","properties":{"cleabs":"PT_RESEA0000000240640915","nature":"Barrière","nature_detaillee":null,"altitude":null,"toponyme":null,"statut_du_toponyme":null,"etat_de_l_objet":"En service","date_creation":"2010-07-07T07:51:17.816Z","date_modification":"2023-02-19T10:33:33.012Z","date_d_apparition":null,"date_de_confirmation":null,"sources":null,"identifiants_sources":"","methode_d_acquisition_planimetrique":"Orthophotographie","precision_planimetrique":3,"methode_d_acquisition_altimetrique":"Pas de Z","precision_altimetrique":999,"insee_commune":"10220","identifiant_voie_ban":null,"id_ban_odonyme":null}},{"type":"Feature","id":"point_du_reseau.19257","geometry":{"type":"Point","coordinates":[3.82083827,48.49975413,-1000]},"geometry_name":"geometrie","properties":{"cleabs":"PT_RESEA0000000240640916","nature":"Barrière","nature_detaillee":null,"altitude":null,"toponyme":null,"statut_du_toponyme":null,"etat_de_l_objet":"En service","date_creation":"2010-07-07T07:51:17.816Z","date_modification":"2019-09-23T20:00:29.374Z","date_d_apparition":null,"date_de_confirmation":null,"sources":null,"identifiants_sources":"","methode_d_acquisition_planimetrique":"Levé non GPS","precision_planimetrique":5,"methode_d_acquisition_altimetrique":"Pas de Z","precision_altimetrique":999,"insee_commune":"10089","identifiant_voie_ban":null,"id_ban_odonyme":null}},{"type":"Feature","id":"point_du_reseau.93416","geometry":{"type":"Point","coordinates":[3.80613048,48.50046119,83.8]},"geometry_name":"geometrie","properties":{"cleabs":"PT_RESEA0000000334349376","nature":"Barrière","nature_detaillee":null,"altitude":null,"toponyme":null,"statut_du_toponyme":null,"etat_de_l_objet":"En service","date_creation":"2014-05-21T10:28:55.954Z","date_modification":"2023-02-19T10:33:33.012Z","date_d_apparition":null,"date_de_confirmation":null,"sources":null,"identifiants_sources":"","methode_d_acquisition_planimetrique":"Scan25","precision_planimetrique":10,"methode_d_acquisition_altimetrique":"Pas de Z","precision_altimetrique":999,"insee_commune":"10220","identifiant_voie_ban":null,"id_ban_odonyme":null}},{"type":"Feature","id":"point_du_reseau.99338","geometry":{"type":"Point","coordinates":[3.75031386,48.51034305,74.1]},"geometry_name":"geometrie","properties":{"cleabs":"PT_RESEA0000000336632091","nature":"Barrière","nature_detaillee":null,"altitude":null,"toponyme":null,"statut_du_toponyme":null,"etat_de_l_objet":"En service","date_creation":"2014-07-25T07:46:54.038Z","date_modification":"2023-02-19T10:33:33.012Z","date_d_apparition":null,"date_de_confirmation":null,"sources":null,"identifiants_sources":"","methode_d_acquisition_planimetrique":"Orthophotographie","precision_planimetrique":3,"methode_d_acquisition_altimetrique":"Pas de Z","precision_altimetrique":999,"insee_commune":"10323","identifiant_voie_ban":null,"id_ban_odonyme":null}},{"type":"Feature","id":"point_du_reseau.99339","geometry":{"type":"Point","coordinates":[3.75573896,48.50675875,75.3]},"geometry_name":"geometrie","properties":{"cleabs":"PT_RESEA0000000336632092","nature":"Barrière","nature_detaillee":null,"altitude":null,"toponyme":null,"statut_du_toponyme":null,"etat_de_l_objet":"En service","date_creation":"2014-07-25T07:46:56.056Z","date_modification":"2023-02-19T10:33:33.012Z","date_d_apparition":null,"date_de_confirmation":null,"sources":null,"identifiants_sources":"","methode_d_acquisition_planimetrique":"Orthophotographie","precision_planimetrique":3,"methode_d_acquisition_altimetrique":"Pas de Z","precision_altimetrique":999,"insee_commune":"10323","identifiant_voie_ban":null,"id_ban_odonyme":null}},{"type":"Feature","id":"point_du_reseau.99340","geometry":{"type":"Point","coordinates":[3.78291132,48.52901223,-1000]},"geometry_name":"geometrie","properties":{"cleabs":"PT_RESEA0000000336632094","nature":"Barrière","nature_detaillee":null,"altitude":null,"toponyme":null,"statut_du_toponyme":null,"etat_de_l_objet":"En service","date_creation":"2014-07-25T07:47:11.717Z","date_modification":"2019-09-23T20:00:29.374Z","date_d_apparition":null,"date_de_confirmation":null,"sources":null,"identifiants_sources":"","methode_d_acquisition_planimetrique":"Orthophotographie","precision_planimetrique":3,"methode_d_acquisition_altimetrique":"Pas de Z","precision_altimetrique":999,"insee_commune":"51492","identifiant_voie_ban":null,"id_ban_odonyme":null}},{"type":"Feature","id":"point_du_reseau.99342","geometry":{"type":"Point","coordinates":[3.75863867,48.52930635,-1000]},"geometry_name":"geometrie","properties":{"cleabs":"PT_RESEA0000000336632107","nature":"Barrière","nature_detaillee":null,"altitude":null,"toponyme":null,"statut_du_toponyme":null,"etat_de_l_objet":"En service","date_creation":"2014-07-25T07:48:09.258Z","date_modification":"2019-09-23T20:00:29.374Z","date_d_apparition":null,"date_de_confirmation":null,"sources":null,"identifiants_sources":"","methode_d_acquisition_planimetrique":"Orthophotographie","precision_planimetrique":3,"methode_d_acquisition_altimetrique":"Pas de Z","precision_altimetrique":999,"insee_commune":"10323","identifiant_voie_ban":null,"id_ban_odonyme":null}},{"type":"Feature","id":"point_du_reseau.99555","geometry":{"type":"Point","coordinates":[3.7511386,48.53248462,-1000]},"geometry_name":"geometrie","properties":{"cleabs":"PT_RESEA0000000336667189","nature":"Barrière","nature_detaillee":null,"altitude":null,"toponyme":null,"statut_du_toponyme":null,"etat_de_l_objet":"En service","date_creation":"2014-07-28T14:10:23.906Z","date_modification":"2019-09-23T20:00:29.374Z","date_d_apparition":null,"date_de_confirmation":null,"sources":null,"identifiants_sources":"","methode_d_acquisition_planimetrique":"Scan25","precision_planimetrique":10,"methode_d_acquisition_altimetrique":"Pas de Z","precision_altimetrique":999,"insee_commune":"10323","identifiant_voie_ban":null,"id_ban_odonyme":null}},{"type":"Feature","id":"point_du_reseau.99556","geometry":{"type":"Point","coordinates":[3.80650776,48.50316563,82.8]},"geometry_name":"geometrie","properties":{"cleabs":"PT_RESEA0000000336667190","nature":"Barrière","nature_detaillee":null,"altitude":null,"toponyme":null,"statut_du_toponyme":null,"etat_de_l_objet":"En service","date_creation":"2014-07-28T14:11:08.772Z","date_modification":"2023-02-19T10:33:33.012Z","date_d_apparition":null,"date_de_confirmation":null,"sources":null,"identifiants_sources":"","methode_d_acquisition_planimetrique":"Scan25","precision_planimetrique":10,"methode_d_acquisition_altimetrique":"Pas de Z","precision_altimetrique":999,"insee_commune":"10220","identifiant_voie_ban":null,"id_ban_odonyme":null}},{"type":"Feature","id":"point_du_reseau.138228","geometry":{"type":"Point","coordinates":[3.76049719,48.50699828,74.1]},"geometry_name":"geometrie","properties":{"cleabs":"PT_RESEA0000000354298825","nature":"Passage à niveau","nature_detaillee":null,"altitude":null,"toponyme":"Passage à Niveau Numéro 70","statut_du_toponyme":"Validé","etat_de_l_objet":"En service","date_creation":"2015-10-19T12:48:08.250Z","date_modification":"2025-09-18T21:11:05.677Z","date_d_apparition":null,"date_de_confirmation":"2025-06-26Z","sources":null,"identifiants_sources":null,"methode_d_acquisition_planimetrique":"Fichier numérique non métrique","precision_planimetrique":5,"methode_d_acquisition_altimetrique":"Z corrigé","precision_altimetrique":2.5,"insee_commune":"10323","identifiant_voie_ban":null,"id_ban_odonyme":null}},{"type":"Feature","id":"point_du_reseau.138229","geometry":{"type":"Point","coordinates":[3.767766,48.50643605,76]},"geometry_name":"geometrie","properties":{"cleabs":"PT_RESEA0000000354298826","nature":"Passage à niveau","nature_detaillee":null,"altitude":null,"toponyme":"Passage à Niveau Numéro 71","statut_du_toponyme":"Validé","etat_de_l_objet":"En service","date_creation":"2015-10-19T12:48:08.250Z","date_modification":"2025-09-18T21:11:05.677Z","date_d_apparition":null,"date_de_confirmation":"2025-06-26Z","sources":null,"identifiants_sources":null,"methode_d_acquisition_planimetrique":"Fichier numérique non métrique","precision_planimetrique":5,"methode_d_acquisition_altimetrique":"Z corrigé","precision_altimetrique":2.5,"insee_commune":"10220","identifiant_voie_ban":null,"id_ban_odonyme":null}},{"type":"Feature","id":"point_du_reseau.138230","geometry":{"type":"Point","coordinates":[3.78584454,48.50502509,78]},"geometry_name":"geometrie","properties":{"cleabs":"PT_RESEA0000000354298827","nature":"Passage à niveau","nature_detaillee":null,"altitude":null,"toponyme":"Passage à Niveau Numéro 73","statut_du_toponyme":"Validé","etat_de_l_objet":"En service","date_creation":"2015-10-19T12:48:08.250Z","date_modification":"2025-09-18T21:11:05.677Z","date_d_apparition":null,"date_de_confirmation":"2025-06-26Z","sources":null,"identifiants_sources":null,"methode_d_acquisition_planimetrique":"Fichier numérique non métrique","precision_planimetrique":5,"methode_d_acquisition_altimetrique":"Z corrigé","precision_altimetrique":2.5,"insee_commune":"10220","identifiant_voie_ban":null,"id_ban_odonyme":null}},{"type":"Feature","id":"point_du_reseau.138231","geometry":{"type":"Point","coordinates":[3.79227154,48.5045146,79.7]},"geometry_name":"geometrie","properties":{"cleabs":"PT_RESEA0000000354298828","nature":"Passage à niveau","nature_detaillee":null,"altitude":null,"toponyme":"Passage à Niveau Numéro 74","statut_du_toponyme":"Validé","etat_de_l_objet":"En service","date_creation":"2015-10-19T12:48:08.250Z","date_modification":"2025-09-18T21:11:05.677Z","date_d_apparition":null,"date_de_confirmation":"2025-06-26Z","sources":null,"identifiants_sources":null,"methode_d_acquisition_planimetrique":"Fichier numérique non métrique","precision_planimetrique":5,"methode_d_acquisition_altimetrique":"Z corrigé","precision_altimetrique":2.5,"insee_commune":"10220","identifiant_voie_ban":null,"id_ban_odonyme":null}},{"type":"Feature","id":"point_du_reseau.204294","geometry":{"type":"Point","coordinates":[3.82852995,48.49966925,-1000]},"geometry_name":"geometrie","properties":{"cleabs":"PT_RESEA0000002221604117","nature":"Barrière","nature_detaillee":null,"altitude":null,"toponyme":null,"statut_du_toponyme":null,"etat_de_l_objet":"En service","date_creation":"2020-12-04T15:08:40.030Z","date_modification":null,"date_d_apparition":null,"date_de_confirmation":null,"sources":null,"identifiants_sources":null,"methode_d_acquisition_planimetrique":"Orthophotographie","precision_planimetrique":3,"methode_d_acquisition_altimetrique":"Pas de Z","precision_altimetrique":9999,"insee_commune":"10089","identifiant_voie_ban":null,"id_ban_odonyme":null}},{"type":"Feature","id":"point_du_reseau.204295","geometry":{"type":"Point","coordinates":[3.75417057,48.5026655,-1000]},"geometry_name":"geometrie","properties":{"cleabs":"PT_RESEA0000002221604130","nature":"Barrière","nature_detaillee":null,"altitude":null,"toponyme":null,"statut_du_toponyme":null,"etat_de_l_objet":"En service","date_creation":"2020-12-04T15:09:23.512Z","date_modification":null,"date_d_apparition":null,"date_de_confirmation":null,"sources":null,"identifiants_sources":null,"methode_d_acquisition_planimetrique":"Orthophotographie","precision_planimetrique":3,"methode_d_acquisition_altimetrique":"Pas de Z","precision_altimetrique":9999,"insee_commune":"10323","identifiant_voie_ban":null,"id_ban_odonyme":null}},{"type":"Feature","id":"point_du_reseau.204296","geometry":{"type":"Point","coordinates":[3.7564355,48.50229665,-1000]},"geometry_name":"geometrie","properties":{"cleabs":"PT_RESEA0000002221604410","nature":"Barrière","nature_detaillee":null,"altitude":null,"toponyme":null,"statut_du_toponyme":null,"etat_de_l_objet":"En service","date_creation":"2020-12-04T15:24:04.954Z","date_modification":null,"date_d_apparition":null,"date_de_confirmation":null,"sources":null,"identifiants_sources":null,"methode_d_acquisition_planimetrique":"Orthophotographie","precision_planimetrique":3,"methode_d_acquisition_altimetrique":"Pas de Z","precision_altimetrique":9999,"insee_commune":"10323","identifiant_voie_ban":null,"id_ban_odonyme":null}},{"type":"Feature","id":"point_du_reseau.246322","geometry":{"type":"Point","coordinates":[3.76066129,48.49646523,-1000]},"geometry_name":"geometrie","properties":{"cleabs":"PT_RESEA0000002492550973","nature":"Barrière","nature_detaillee":null,"altitude":null,"toponyme":null,"statut_du_toponyme":null,"etat_de_l_objet":"En service","date_creation":"2025-09-08T10:39:06.263Z","date_modification":null,"date_d_apparition":null,"date_de_confirmation":null,"sources":null,"identifiants_sources":null,"methode_d_acquisition_planimetrique":"Orthophotographie","precision_planimetrique":3,"methode_d_acquisition_altimetrique":"Pas de Z","precision_altimetrique":9999,"insee_commune":"10220","identifiant_voie_ban":null,"id_ban_odonyme":null}},{"type":"Feature","id":"point_du_reseau.245552","geometry":{"type":"Point","coordinates":[3.74975492,48.50107501,-1000]},"geometry_name":"geometrie","properties":{"cleabs":"PT_RESEA0000002492550974","nature":"Barrière","nature_detaillee":null,"altitude":null,"toponyme":null,"statut_du_toponyme":null,"etat_de_l_objet":"En service","date_creation":"2025-09-08T10:39:06.263Z","date_modification":null,"date_d_apparition":null,"date_de_confirmation":null,"sources":null,"identifiants_sources":null,"methode_d_acquisition_planimetrique":"Orthophotographie","precision_planimetrique":3,"methode_d_acquisition_altimetrique":"Pas de Z","precision_altimetrique":9999,"insee_commune":"10323","identifiant_voie_ban":null,"id_ban_odonyme":null}},{"type":"Feature","id":"point_du_reseau.249348","geometry":{"type":"Point","coordinates":[3.81404564,48.51084839,-1000]},"geometry_name":"geometrie","properties":{"cleabs":"PT_RESEA0000002498256390","nature":"Barrière","nature_detaillee":null,"altitude":null,"toponyme":null,"statut_du_toponyme":null,"etat_de_l_objet":"En service","date_creation":"2026-01-07T13:52:44.403Z","date_modification":null,"date_d_apparition":null,"date_de_confirmation":null,"sources":null,"identifiants_sources":null,"methode_d_acquisition_planimetrique":"Orthophotographie","precision_planimetrique":3,"methode_d_acquisition_altimetrique":"Pas de Z","precision_altimetrique":9999,"insee_commune":"10220","identifiant_voie_ban":null,"id_ban_odonyme":null}},{"type":"Feature","id":"point_du_reseau.249349","geometry":{"type":"Point","coordinates":[3.81440138,48.51152337,-1000]},"geometry_name":"geometrie","properties":{"cleabs":"PT_RESEA0000002498256391","nature":"Barrière","nature_detaillee":null,"altitude":null,"toponyme":null,"statut_du_toponyme":null,"etat_de_l_objet":"En service","date_creation":"2026-01-07T13:52:44.403Z","date_modification":null,"date_d_apparition":null,"date_de_confirmation":null,"sources":null,"identifiants_sources":null,"methode_d_acquisition_planimetrique":"Orthophotographie","precision_planimetrique":3,"methode_d_acquisition_altimetrique":"Pas de Z","precision_altimetrique":9999,"insee_commune":"10220","identifiant_voie_ban":null,"id_ban_odonyme":null}}]}